"title","totalScore","reviewsCount","street","city","state","countryCode","website","phone","categoryName","url"
"Cukrárna Závodská","4.6","81","Gutova 108","Strašnice",,"CZ","https://www.cukrarnazavodska.cz/","+420 724 680 554","Kavárna","https://www.google.com/maps/place/Cukr%C3%A1rna+Z%C3%A1vodsk%C3%A1/@50.0699806,14.4883775,17z/data=!3m1!4b1!4m6!3m5!1s0x470b9328c800c0fd:0xcb153d8ad208edf0!8m2!3d50.0699806!4d14.4883775!16s%2Fg%2F11q2r04n_k?hl=cs&entry=ttu"
"Cukrárna Slámovka","4.1","50","Na Okraji 46a","Praha 6",,"CZ","https://www.slamovka.com/","+420 221 228 430","Cukrárna","https://www.google.com/maps/place/Cukr%C3%A1rna+Sl%C3%A1movka/@50.0898743,14.3436124,17z/data=!3m1!4b1!4m6!3m5!1s0x470bbf40906541bb:0xfc2dc5d067bc30f6!8m2!3d50.0898743!4d14.3436124!16s%2Fg%2F11h5mlbz3_?hl=cs&entry=ttu"
"Cukrárna Parník","5","5","Gen. Janouška 902/17","Praha 14-Černý Most",,"CZ","http://www.poliklinikaparnik.cz/lah-dky,-cukrarna.html",,"Cukrárna","https://www.google.com/maps/place/Cukr%C3%A1rna+Parn%C3%ADk/@50.1070034,14.5721021,17z/data=!3m1!4b1!4m6!3m5!1s0x470bed6667cc3f4f:0x37e0870e952ad742!8m2!3d50.1070034!4d14.5721021!16s%2Fg%2F11j01d0gdb?hl=cs&entry=ttu"
"Rodinná cukrárna a herna Skibi","4.5","11","Budějovická 1667/64","Praha 4",,"CZ","http://cukrarna-skibi.cz/","+420 222 367 724","Cukrárna","https://www.google.com/maps/place/Rodinn%C3%A1+cukr%C3%A1rna+a+herna+Skibi/@50.0437773,14.4491012,17z/data=!3m1!4b1!4m6!3m5!1s0x470b935db9b601af:0x60c6e9612db654ca!8m2!3d50.0437773!4d14.4491012!16s%2Fg%2F11tf53lg1m?hl=cs&entry=ttu"
"Cukrárna Hanny","3.2","72","nám. Osvoboditelů 1372","Praha 16",,"CZ","https://www.cukrarnahanny.cz/","+420 257 810 497","Prodejna zákusků","https://www.google.com/maps/place/Cukr%C3%A1rna+Hanny/@49.9842638,14.3592184,17z/data=!3m1!4b1!4m6!3m5!1s0x470b9705635810f9:0xda2017735d2fb96!8m2!3d49.9842638!4d14.3592184!16s%2Fg%2F1v5k1qsp?hl=cs&entry=ttu"
"Werichova vila by IF","4.4","1430","7, U Sovových mlýnů 501","Malá Strana",,"CZ","https://www.instagram.com/fabesovaiveta/","+420 608 459 547","Cukrárna","https://www.google.com/maps/place/Werichova+vila+by+IF/@50.0853844,14.4080627,17z/data=!3m1!4b1!4m6!3m5!1s0x470b94e47d20e359:0x2505ca0b59bc5a59!8m2!3d50.0853844!4d14.4080627!16s%2Fg%2F11g8wpbv14?hl=cs&entry=ttu"
"Cukrárna a lahůdky Vrážská","3.8","33","Vrážská 463/6","Radotín",,"CZ","https://www.cukrarna-panda.cz/","+420 257 811 425","Cukrárna","https://www.google.com/maps/place/Cukr%C3%A1rna+a+lah%C5%AFdky+Vr%C3%A1%C5%BEsk%C3%A1/@49.9852356,14.3642238,17z/data=!3m1!4b1!4m6!3m5!1s0x470b971ae812194d:0x13020ac8e9ea71de!8m2!3d49.9852356!4d14.3642238!16s%2Fg%2F1vd700yt?hl=cs&entry=ttu"
"Cukrárna","2.3","3","Havlíčkova 6","Nové Město",,"CZ",,,"Pekařství","https://www.google.com/maps/place/Cukr%C3%A1rna/@50.0891206,14.4326965,17z/data=!3m1!4b1!4m6!3m5!1s0x470b959b13612193:0x7afcfbb96bd08975!8m2!3d50.0891206!4d14.4326965!16s%2Fg%2F11shlm37wx?hl=cs&entry=ttu"
"Cukrárna Na Pěšině","4.5","500","Spořická 314/42","Praha-Dolní Chabry",,"CZ","http://www.napesine.cz/","+420 731 447 713","Cukrárna","https://www.google.com/maps/place/Cukr%C3%A1rna+Na+P%C4%9B%C5%A1in%C4%9B/@50.1460249,14.4476757,17z/data=!3m1!4b1!4m6!3m5!1s0x470beb0f1d8117fd:0xd248c257070dc61a!8m2!3d50.1460249!4d14.4476757!16s%2Fg%2F12mkw9bp_?hl=cs&entry=ttu"
"Bistro Eva - Uni Cukrárna","4.6","29","Vršovická 34","Praha 10-Vršovice",,"CZ",,"+420 271 746 348","Prodejna zákusků","https://www.google.com/maps/place/Bistro+Eva+-+Uni+Cukr%C3%A1rna/@50.0658617,14.4527687,17z/data=!3m1!4b1!4m6!3m5!1s0x470b9378be4016ed:0x7f319bb85ebc3e3c!8m2!3d50.0658617!4d14.4527687!16s%2Fg%2F1hc36rn4r?hl=cs&entry=ttu"
"Tichá cukrárna","5","1","Bínova 534/12","Praha 8-Střížkov",,"CZ","http://www.tichacukrarna.cz/","+420 725 451 856","Cukrárna","https://www.google.com/maps/place/Tich%C3%A1+cukr%C3%A1rna/@50.1306804,14.4807586,17z/data=!3m1!4b1!4m6!3m5!1s0x470bebc9ca8e0d43:0x64f1ac781edae521!8m2!3d50.1306804!4d14.4807586!16s%2Fg%2F11hdjvs2sf?hl=cs&entry=ttu"
"Pekárna & cukrárna Marcipánka","4.5","117","Mladoboleslavská 8","Praha-Vinoř",,"CZ","http://www.marcipanka.cz/","+420 603 410 006","Cukrárna","https://www.google.com/maps/place/Pek%C3%A1rna+%26+cukr%C3%A1rna+Marcip%C3%A1nka/@50.1437349,14.579081,17z/data=!3m1!4b1!4m6!3m5!1s0x470bed981442f893:0xe37e810b81729e86!8m2!3d50.1437349!4d14.579081!16s%2Fg%2F1td758_w?hl=cs&entry=ttu"
"Cukrárna U Háje","4.6","288","Hovorčovická 28","Praha 8",,"CZ","http://www.cukrarnauhaje.cz/","+420 284 685 169","Prodejna zákusků","https://www.google.com/maps/place/Cukr%C3%A1rna+U+H%C3%A1je/@50.1301261,14.444759,17z/data=!3m1!4b1!4m6!3m5!1s0x470beb3dfdb5d235:0x8b8217448a848c9a!8m2!3d50.1301261!4d14.444759!16s%2Fg%2F1trxcdvv?hl=cs&entry=ttu"
"Au Gourmand","4.1","1192","Dlouhá 614/10","Staré Město",,"CZ","http://augourmand.cz/","+420 602 305 181","Francouzská cukrárna","https://www.google.com/maps/place/Au+Gourmand/@50.0890786,14.4223662,17z/data=!3m1!4b1!4m6!3m5!1s0x470b94e999a7f787:0xa781802f0790ed64!8m2!3d50.0890786!4d14.4223662!16s%2Fg%2F1tm09jc2?hl=cs&entry=ttu"
"cukrárna Eliška",,"0","Bubenské nábř. 306/13","Praha 7-Holešovice",,"CZ",,,"Cukrárna","https://www.google.com/maps/place/cukr%C3%A1rna+Eli%C5%A1ka/@50.0992827,14.4466674,17z/data=!3m1!4b1!4m6!3m5!1s0x470b94b0854ed291:0x969476c97d0fc536!8m2!3d50.0992827!4d14.4466674!16s%2Fg%2F11b6vb_chp?hl=cs&entry=ttu"
"Cukrárna Anděl","4.6","31","Trousilova 1064","Praha 8-Kobylisy",,"CZ","http://www.andelback.cz/","+420 233 557 744","Cukrárna","https://www.google.com/maps/place/Cukr%C3%A1rna+And%C4%9Bl/@50.1272626,14.450685,17z/data=!3m1!4b1!4m6!3m5!1s0x470beb3fca2f4dc7:0xcb17628b5b375f07!8m2!3d50.1272626!4d14.450685!16s%2Fg%2F11c55vvz5h?hl=cs&entry=ttu"
"C&P U Bohemky","4.7","10","Vršovická 44","Praha 10-Vršovice",,"CZ",,"+420 775 621 962","Cukrárna","https://www.google.com/maps/place/C%26P+U+Bohemky/@50.0663269,14.4562599,17z/data=!3m1!4b1!4m6!3m5!1s0x470b93633307e399:0x2516b6de1352a6d5!8m2!3d50.0663269!4d14.4562599!16s%2Fg%2F11pb0vsqxh?hl=cs&entry=ttu"
"CUKRÁRNA Buchalovi","4.6","230","U Červeného mlýnku 977/2 Čakovice Praha 9 CZ","Praha 9",,"CZ","https://www.cukrarna-buchalovi.cz/","+420 606 349 735","Cukrárna","https://www.google.com/maps/place/CUKR%C3%81RNA+Buchalovi/@50.1502659,14.4982107,17z/data=!3m1!4b1!4m6!3m5!1s0x470b923d4e541001:0x9eb26c1b55cb18a5!8m2!3d50.1502659!4d14.4982107!16s%2Fg%2F11bc7rvy8t?hl=cs&entry=ttu"
"Cukrárna a kavárna 9999","4.6","16","Komořanská 2065/9","Praha 12-Modřany",,"CZ","https://www.cukrarnakavarna9999.cz/","+420 606 054 964","Cukrárna","https://www.google.com/maps/place/Cukr%C3%A1rna+a+kav%C3%A1rna+9999/@50.0036741,14.4051949,17z/data=!3m1!4b1!4m6!3m5!1s0x470b97c77737d5b7:0xdccecc8c2a65f1f6!8m2!3d50.0036741!4d14.4051949!16s%2Fg%2F11s7z7qpr2?hl=cs&entry=ttu"
"Cukrárna",,"0","Budějovická 409","Praha 4",,"CZ",,"+31 6 37928738","Cukrárna","https://www.google.com/maps/place/Cukr%C3%A1rna/@50.0495799,14.4422758,17z/data=!3m1!4b1!4m6!3m5!1s0x470b93429e839e63:0x5670e0a41a909918!8m2!3d50.0495799!4d14.4422758!16s%2Fg%2F11l2xvhnvt?hl=cs&entry=ttu"
"Cukrárna",,"0","Vršovická 866/3","Praha 10-Vršovice",,"CZ",,"+31 6 37887420","Cukrárna","https://www.google.com/maps/place/Cukr%C3%A1rna/@50.0662176,14.449342,17z/data=!3m1!4b1!4m6!3m5!1s0x470b938d028b8269:0x78c57b03c159866!8m2!3d50.0662176!4d14.449342!16s%2Fg%2F11vf1kggww?hl=cs&entry=ttu"
"Cukrárna Dana",,"0","Křižíkova 76","Praha 8-Karlín",,"CZ",,,"Pekařství","https://www.google.com/maps/place/Cukr%C3%A1rna+Dana/@50.0923946,14.4498061,17z/data=!3m1!4b1!4m6!3m5!1s0x470b94a3661e51ef:0x77499bda388d9c4e!8m2!3d50.0923946!4d14.4498061!16s%2Fg%2F11b6v3nlmk?hl=cs&entry=ttu"
"Pekárna a cukrárna Hořovice","4.1","44","Čestmírova","Praha 4-Nusle",,"CZ","http://www.pekarnahorovice.cz/","+420 604 557 193","Pekařství","https://www.google.com/maps/place/Pek%C3%A1rna+a+cukr%C3%A1rna+Ho%C5%99ovice/@50.0641597,14.4407213,17z/data=!3m1!4b1!4m6!3m5!1s0x470b947e98c35227:0xaaa15786dc20e50a!8m2!3d50.0641597!4d14.4407213!16s%2Fg%2F11bwm6dmnx?hl=cs&entry=ttu"
"Cukrárna mléčný bar","4","3","Na Poříčí 1061","Petrská čtvrť",,"CZ",,,"Prodej zmrzliny","https://www.google.com/maps/place/Cukr%C3%A1rna+ml%C3%A9%C4%8Dn%C3%BD+bar/@50.0904845,14.4358569,17z/data=!3m1!4b1!4m6!3m5!1s0x470b94be339eac17:0x2c72876304402029!8m2!3d50.0904845!4d14.4358569!16s%2Fg%2F11b6vcjqsk?hl=cs&entry=ttu"
"Lahůdky a cukrárna U Přátel","4.7","45","Šimůnkova 1625/1","Praha 8-Kobylisy",,"CZ","https://www.lahudky-cukrarna.cz/praha/kontakt","+420 606 527 758","Cukrárna","https://www.google.com/maps/place/Lah%C5%AFdky+a+cukr%C3%A1rna+U+P%C5%99%C3%A1tel/@50.1329923,14.4703647,17z/data=!3m1!4b1!4m6!3m5!1s0x470beb65e5e22b0d:0xa9fd3494cc88ecea!8m2!3d50.1329923!4d14.4703647!16s%2Fg%2F11hzvcnzw9?hl=cs&entry=ttu"
"Cukrárny","1","1","Revoluční 1634/12","Staré Město",,"CZ",,,,"https://www.google.com/maps/place/Cukr%C3%A1rny/@50.0896285,14.4258919,17z/data=!3m1!4b1!4m6!3m5!1s0x470b94ea7f9759b7:0x91b541b00faa32a3!8m2!3d50.0896285!4d14.4258919!16s%2Fg%2F11fsmt197g?hl=cs&entry=ttu"
"Cukrárna U Nováků","4.2","34","Klapkova 42","Praha 8",,"CZ","http://www.cukrarnaunovaku.cz/","+420 284 690 817","Cukrárna","https://www.google.com/maps/place/Cukr%C3%A1rna+U+Nov%C3%A1k%C5%AF/@50.1223632,14.45562,17z/data=!3m1!4b1!4m6!3m5!1s0x470beb469ecebf3d:0x2cb74876802de4cf!8m2!3d50.1223632!4d14.45562!16s%2Fg%2F11b6v8nhf8?hl=cs&entry=ttu"
"Cukrárna",,"0","Dlouhá 736/23","Staré Město",,"CZ",,,"Obchod s potravinami","https://www.google.com/maps/place/Cukr%C3%A1rna/@50.0902736,14.424581,17z/data=!3m1!4b1!4m6!3m5!1s0x470b958ecbbe668f:0xb07c2f53975e543f!8m2!3d50.0902736!4d14.424581!16s%2Fg%2F11rhvt43g7?hl=cs&entry=ttu"
"Q.B. Cukrárna",,"0","Legerova 1820","Nové Město",,"CZ",,,"Pekařství","https://www.google.com/maps/place/Q.B.+Cukr%C3%A1rna/@50.0738858,14.4301901,17z/data=!3m1!4b1!4m6!3m5!1s0x470b948be35283a1:0x172b7b9c73cf8903!8m2!3d50.0738858!4d14.4301901!16s%2Fg%2F11b6vdvp3x?hl=cs&entry=ttu"
"Lahůdky a cukrárna Hodkovičky","4.9","10","Na Lysinách 460/28","Praha 4-Hodkovičky",,"CZ","http://www.cukrarnahodkovicky.cz/","+420 723 199 789","Cukrárna","https://www.google.com/maps/place/Lah%C5%AFdky+a+cukr%C3%A1rna+Hodkovi%C4%8Dky/@50.022196,14.4127314,17z/data=!3m1!4b1!4m6!3m5!1s0x470b97e3f3536421:0xa277d01838498261!8m2!3d50.022196!4d14.4127314!16s%2Fg%2F11t_lrstl_?hl=cs&entry=ttu"
"Kavárna a Cukrárna Alenka v říši divů","4.8","162","Lindleyova 4","Praha 6-Podbaba",,"CZ","https://www.instagram.com/kavarna_alenka_v_risi_divu/","+420 774 282 540","Kavárna","https://www.google.com/maps/place/Kav%C3%A1rna+a+Cukr%C3%A1rna+Alenka+v+%C5%99%C3%AD%C5%A1i+div%C5%AF/@50.1123912,14.3911897,17z/data=!3m1!4b1!4m6!3m5!1s0x470b948486d0f657:0x3bf467a47dd61ebd!8m2!3d50.1123912!4d14.3911897!16s%2Fg%2F11g6925597?hl=cs&entry=ttu"
"Cukrárna U Školy","4.5","132","Modřanská 10/608/10","Modřany, Praha 4 – Modřany-Praha 12",,"CZ","http://www.cukrarnauskoly.cz/","+420 777 920 382","Cukrárna","https://www.google.com/maps/place/Cukr%C3%A1rna+U+%C5%A0koly/@50.0068641,14.404233,17z/data=!3m1!4b1!4m6!3m5!1s0x470b96c8897aa8cd:0x87424fb7dafb10aa!8m2!3d50.0068641!4d14.404233!16s%2Fg%2F1vppr7bp?hl=cs&entry=ttu"
"Staročeská pekárna - cukrárna","4.3","136","Perlová 8","Staré Město",,"CZ",,"+420 224 263 168","Pekařství","https://www.google.com/maps/place/Staro%C4%8Desk%C3%A1+pek%C3%A1rna+-+cukr%C3%A1rna/@50.0834225,14.4212193,17z/data=!3m1!4b1!4m6!3m5!1s0x470b94edd4885e61:0x7196c9024cdcdba7!8m2!3d50.0834225!4d14.4212193!16s%2Fg%2F11ghfbzp0z?hl=cs&entry=ttu"
"Cukrárna Letná","4.6","39","M. Horákové 611/73","Praha 7-Holešovice",,"CZ","http://www.cukrarnamarketa.cz/","+420 770 600 390","Cukrárna","https://www.google.com/maps/place/Cukr%C3%A1rna+Letn%C3%A1/@50.0998815,14.4237626,17z/data=!3m1!4b1!4m6!3m5!1s0x470b9583a6a5a5ed:0xadbe99a3d177f000!8m2!3d50.0998815!4d14.4237626!16s%2Fg%2F11stg4x75s?hl=cs&entry=ttu"
"Cukrárna U Hrdinů","4.5","218","36, Dukelských Hrdinů 232","Praha 7-Holešovice",,"CZ","http://www.uhrdinu.cz/","+420 737 666 510","Cukrárna","https://www.google.com/maps/place/Cukr%C3%A1rna+U+Hrdin%C5%AF/@50.1018481,14.4332175,17z/data=!3m1!4b1!4m6!3m5!1s0x470b94c88d2a1b47:0xa068835d9e79735a!8m2!3d50.1018481!4d14.4332175!16s%2Fg%2F1td_3x4k?hl=cs&entry=ttu"
"Cukrárna",,"0","Freyova 983","Praha 9",,"CZ",,"+31 6 37930665","Cukrárna","https://www.google.com/maps/place/Cukr%C3%A1rna/@50.1053272,14.5021497,17z/data=!3m1!4b1!4m6!3m5!1s0x470bed0a8de2215d:0x15910baa30816a57!8m2!3d50.1053272!4d14.5021497!16s%2Fg%2F11vf1hs4kh?hl=cs&entry=ttu"
"Alchymista","4.7","855","Jana Zajíce 975/7","Praha 7-Bubeneč",,"CZ","http://www.alchymista.cz/","+420 732 938 046","Cukrárna","https://www.google.com/maps/place/Alchymista/@50.1009475,14.4171898,17z/data=!3m1!4b1!4m6!3m5!1s0x470b94da40a47567:0xc911e736a5754164!8m2!3d50.1009475!4d14.4171898!16s%2Fg%2F1td_x9l6?hl=cs&entry=ttu"
"Cukrarna Avanti","4.3","377","Mladoboleslavská 475","Kbely",,"CZ","http://www.cukrarnaavanti.cz/","+420 776 213 246","Cukrárna","https://www.google.com/maps/place/Cukrarna+Avanti/@50.1310616,14.5520318,17z/data=!3m1!4b1!4m6!3m5!1s0x470bed044bb9d0d9:0x897392a8cd991865!8m2!3d50.1310616!4d14.5520318!16s%2Fg%2F1260xr7yf?hl=cs&entry=ttu"
"Cukrárna Buchta - bezlepkové cukrářství","4.9","88","Národní obrany 824/35","Praha 6-Bubeneč",,"CZ","https://www.facebook.com/Buchta-cukrarstvi-106284158433090/?ref=page_internal","+420 604 227 672","Cukrárna","https://www.google.com/maps/place/Cukr%C3%A1rna+Buchta+-+bezlepkov%C3%A9+cukr%C3%A1%C5%99stv%C3%AD/@50.101278,14.3975656,17z/data=!3m1!4b1!4m6!3m5!1s0x470b95fff80369f1:0x2e3bf50665207805!8m2!3d50.101278!4d14.3975656!16s%2Fg%2F11rckw_n16?hl=cs&entry=ttu"
"Sladká cesta cukrárna/kavárna","4.7","58","Koněvova 39","Praha 3-Žižkov",,"CZ","http://sladkacesta.cz/","+420 734 448 381","Kavárna","https://www.google.com/maps/place/Sladk%C3%A1+cesta+cukr%C3%A1rna%2Fkav%C3%A1rna/@50.0883363,14.4581698,17z/data=!3m1!4b1!4m6!3m5!1s0x470b951b36b04583:0x4a4fc319dc7241e7!8m2!3d50.0883363!4d14.4581698!16s%2Fg%2F11sc29xnvw?hl=cs&entry=ttu"
"Cukrárna Pekařství Lahůdky BAUMAN","3.3","7","Bělehradská 572/63","Vinohrady",,"CZ",,,"Cukrárna","https://www.google.com/maps/place/Cukr%C3%A1rna+Peka%C5%99stv%C3%AD+Lah%C5%AFdky+BAUMAN/@50.0726399,14.4331392,17z/data=!3m1!4b1!4m6!3m5!1s0x470b948919333e27:0x812ddd7c9fab1b2!8m2!3d50.0726399!4d14.4331392!16s%2Fg%2F11f537pq5z?hl=cs&entry=ttu"
"Jindřiška Literová","4.9","35","Na Musilech 349","Praha-Libuš",,"CZ","http://www.cukrarna-vyrobna.cz/","+420 261 912 620","Prodejna zákusků","https://www.google.com/maps/place/Jind%C5%99i%C5%A1ka+Literov%C3%A1/@50.0063239,14.4649057,17z/data=!3m1!4b1!4m6!3m5!1s0x470b9173ccb6687b:0xeba041bedaf90053!8m2!3d50.0063239!4d14.4649057!16s%2Fg%2F1tdfgdkd?hl=cs&entry=ttu"
"Cukrářství Viktoria - pouze výrobna a výdejna objednávek","4.7","31","Lysinská 1863/44","Praha 4",,"CZ","http://www.cukrarstvi-viktoria.cz/","+420 222 710 337","Cukrárna","https://www.google.com/maps/place/Cukr%C3%A1%C5%99stv%C3%AD+Viktoria+-+pouze+v%C3%BDrobna+a+v%C3%BDdejna+objedn%C3%A1vek/@50.0138854,14.4101973,17z/data=!3m1!4b1!4m6!3m5!1s0x470b94998a1d94c1:0xaadbdef574f19784!8m2!3d50.0138854!4d14.4101973!16s%2Fg%2F1tcxncxr?hl=cs&entry=ttu"
"Učňovská cukrárna a pekárna","3.3","28","Chlumecká 2398","Horní Počernice",,"CZ","http://www.ucnovskacukrarna.cz/","+420 312 687 237","Pekařství","https://www.google.com/maps/place/U%C4%8D%C5%88ovsk%C3%A1+cukr%C3%A1rna+a+pek%C3%A1rna/@50.1116919,14.5811145,17z/data=!3m1!4b1!4m6!3m5!1s0x470bed5dc37e46c1:0xdf3ba20f0d267643!8m2!3d50.1116919!4d14.5811145!16s%2Fg%2F11fy2k22q4?hl=cs&entry=ttu"
"Cukrárny","5","1","Nitranská 1012/26","Praha 2-Vinohrady",,"CZ",,,"Prodejna","https://www.google.com/maps/place/Cukr%C3%A1rny/@50.0770237,14.4504405,17z/data=!3m1!4b1!4m6!3m5!1s0x470b94832a5ce7a7:0x56ad9c4327e8adc9!8m2!3d50.0770237!4d14.4504405!16s%2Fg%2F11fsmt36xk?hl=cs&entry=ttu"
"Café La Dolce Vita","4.5","63","Pplk. Sochora 980/15","Praha 7-Holešovice",,"CZ","http://www.nebeskepralinky.cz/","+420 220 571 194","Cukrárna","https://www.google.com/maps/place/Caf%C3%A9+La+Dolce+Vita/@50.0996225,14.4342817,17z/data=!3m1!4b1!4m6!3m5!1s0x470b94c7db49f065:0x4e06fc68a928157e!8m2!3d50.0996225!4d14.4342817!16s%2Fg%2F1thzshyl?hl=cs&entry=ttu"
"SiCAKE - Svět Dortů OC Palladium","4","28","Náměstí Republiky 1078/1","Petrská čtvrť",,"CZ","http://www.sicake.cz/","+420 724 363 933","Cukrárna","https://www.google.com/maps/place/SiCAKE+-+Sv%C4%9Bt+Dort%C5%AF+OC+Palladium/@50.0891861,14.4287219,17z/data=!3m1!4b1!4m6!3m5!1s0x470b9565c76de62d:0x866a333007bf8b44!8m2!3d50.0891861!4d14.4287219!16s%2Fg%2F11hdpd0gt0?hl=cs&entry=ttu"
"Cukrárna Simona","4.3","45","Sofijské nám. 3404/3","Praha 12-Modřany",,"CZ","https://www.cukrarnasimona.cz/","+420 777 849 360","Cukrárna","https://www.google.com/maps/place/Cukr%C3%A1rna+Simona/@50.0064221,14.416512,17z/data=!3m1!4b1!4m6!3m5!1s0x470b97f0dd52e107:0x95f64de0bcfae8b!8m2!3d50.0064221!4d14.416512!16s%2Fg%2F11h07fsdfn?hl=cs&entry=ttu"
"Punťova psí cukrárna","4.7","90","Soběslavská 2249/23","Žižkov",,"CZ","http://www.psicukrarna.cz/","+420 608 721 728","Psí kavárna","https://www.google.com/maps/place/Pun%C5%A5ova+ps%C3%AD+cukr%C3%A1rna/@50.0774201,14.474422,17z/data=!3m1!4b1!4m6!3m5!1s0x470b9498bb632557:0xf6677759d83bae2d!8m2!3d50.0774201!4d14.474422!16s%2Fg%2F11c1tkrlps?hl=cs&entry=ttu"
"Cukrárna","3.9","31","Ke Znaku 173","Praha-Klánovice",,"CZ",,"+420 733 401 322","Cukrárna","https://www.google.com/maps/place/Cukr%C3%A1rna/@50.0989762,14.6724826,17z/data=!3m1!4b1!4m6!3m5!1s0x470bf3407c88f19f:0x90f2875057e819f5!8m2!3d50.0989762!4d14.6724826!16s%2Fg%2F1tnhx171?hl=cs&entry=ttu"
"Cukrárna Zela",,"0","Koněvova 1703/132","Praha 3-Žižkov",,"CZ",,,"Kavárna","https://www.google.com/maps/place/Cukr%C3%A1rna+Zela/@50.0902634,14.467636,17z/data=!3m1!4b1!4m6!3m5!1s0x470b934b3dd204e7:0xcdc852bf96d6a184!8m2!3d50.0902634!4d14.467636!16s%2Fg%2F11jyr8jl0p?hl=cs&entry=ttu"
"Cukrárna Boháč a chuďas","4","133","Verneřická 559/3A","Praha 9-Prosek",,"CZ","http://www.bohacachudas.cz/","+420 602 340 368","Cukrárna","https://www.google.com/maps/place/Cukr%C3%A1rna+Boh%C3%A1%C4%8D+a+chu%C4%8Fas/@50.1236256,14.4972,17z/data=!3m1!4b1!4m6!3m5!1s0x470becbd803d9e17:0x7c9fae5affb045d4!8m2!3d50.1236256!4d14.4972!16s%2Fg%2F1tf5cg94?hl=cs&entry=ttu"
"Votre plaisir","4.8","183","Klimentská 1246/1","Nové Město",,"CZ","http://www.votreplaisir.cz/","+420 737 509 106","Cukrárna","https://www.google.com/maps/place/Votre+plaisir/@50.0915459,14.4280844,17z/data=!3m1!4b1!4m6!3m5!1s0x470b94c012e75ab3:0x964d519d785cb05b!8m2!3d50.0915459!4d14.4280844!16s%2Fg%2F11b78q2vys?hl=cs&entry=ttu"
"Pekárna a cukrárna U Divadla","3.3","16","Branická 144/61","Praha 4-Braník",,"CZ",,"+420 725 801 610","Pekařství","https://www.google.com/maps/place/Pek%C3%A1rna+a+cukr%C3%A1rna+U+Divadla/@50.0359495,14.4137031,17z/data=!3m1!4b1!4m6!3m5!1s0x470b9577bdef74a3:0xd41c3ef6a168c5ee!8m2!3d50.0359495!4d14.4137031!16s%2Fg%2F11qh3ph64c?hl=cs&entry=ttu"
"Erhartova cukrárna","4.3","453","M. Horákové 387/56","Praha 7-Holešovice",,"CZ","http://www.erhartovacukrarna.cz/","+420 233 312 148","Cukrárna","https://www.google.com/maps/place/Erhartova+cukr%C3%A1rna/@50.1000941,14.4255645,17z/data=!3m1!4b1!4m6!3m5!1s0x470b94c57359d55b:0x3f4de2245e94ee7b!8m2!3d50.1000941!4d14.4255645!16s%2Fg%2F1tcx07bg?hl=cs&entry=ttu"
"Cukrárna Jana","3.7","3","Železná 548","Staré Město",,"CZ",,"+420 224 230 776","Prodejna zákusků","https://www.google.com/maps/place/Cukr%C3%A1rna+Jana/@50.0870619,14.4214947,17z/data=!3m1!4b1!4m6!3m5!1s0x470b94e95aab3e2f:0xd5b1d6134d5ab0b!8m2!3d50.0870619!4d14.4214947!16s%2Fg%2F1tdjvr40?hl=cs&entry=ttu"
"Cukrárna Bruno","3.9","46","Jugoslávských partyzánů 1088","Praha 6",,"CZ","http://www.cukrarnabruno.cz/",,"Cukrárna","https://www.google.com/maps/place/Cukr%C3%A1rna+Bruno/@50.1065921,14.3942752,17z/data=!3m1!4b1!4m6!3m5!1s0x470b95306a88bdd7:0xdcaa11ada96303e6!8m2!3d50.1065921!4d14.3942752!16s%2Fg%2F11bwptk38l?hl=cs&entry=ttu"
"Cukrárna Tichý","4.5","340","Klapkova 161","Praha 8",,"CZ","http://www.cukrarna-praha8.cz/","+420 284 686 282","Cukrárna","https://www.google.com/maps/place/Cukr%C3%A1rna+Tich%C3%BD/@50.1261111,14.4569444,17z/data=!3m1!4b1!4m6!3m5!1s0x470beb4177900c9b:0x96bd38ee879d7fa8!8m2!3d50.1261111!4d14.4569444!16s%2Fg%2F11b6d7648v?hl=cs&entry=ttu"
"Cukrárna a pekařství Moravcovi","3.2","20","Ratibořická 2325","Praha 20",,"CZ","http://www.pekarstvimoravec.cz/","+420 776 715 599","Cukrárna","https://www.google.com/maps/place/Cukr%C3%A1rna+a+peka%C5%99stv%C3%AD+Moravcovi/@50.1118669,14.6182782,17z/data=!3m1!4b1!4m6!3m5!1s0x470bf294c3f78b1f:0xff965a4c290700fb!8m2!3d50.1118669!4d14.6182782!16s%2Fg%2F11g8p8ry1v?hl=cs&entry=ttu"
"Cukrárna Fairy Tale Bakery","4.9","65","Drahobejlova 2473/40","Praha 9-Libeň",,"CZ","http://fairytalebakery.cz/","+420 724 414 555","Cukrárna","https://www.google.com/maps/place/Cukr%C3%A1rna+Fairy+Tale+Bakery/@50.1059743,14.4908243,17z/data=!3m1!4b1!4m6!3m5!1s0x470bedf51cc8509f:0xcc5a3d177643dce7!8m2!3d50.1059743!4d14.4908243!16s%2Fg%2F11rcms4_v7?hl=cs&entry=ttu"
"Cafe La Torta - Cukrárna Zlatá konvice","4.1","214","Melantrichova 477","Staré Město",,"CZ","http://www.latorta.eu/","+420 224 214 152","Kavárna / Čajovna","https://www.google.com/maps/place/Cafe+La+Torta+-+Cukr%C3%A1rna+Zlat%C3%A1+konvice/@50.0863618,14.4207438,17z/data=!3m1!4b1!4m6!3m5!1s0x470b94e94ac25187:0xc33439b124708ddb!8m2!3d50.0863618!4d14.4207438!16s%2Fg%2F11b6dg8r43?hl=cs&entry=ttu"
"Karlovarské cukrářství","5","14","nám. Bořislavka","Praha 6",,"CZ","https://www.karlovarskecukrarstvi.cz/",,"Cukrárna","https://www.google.com/maps/place/Karlovarsk%C3%A9+cukr%C3%A1%C5%99stv%C3%AD/@50.0983495,14.3622686,17z/data=!3m1!4b1!4m6!3m5!1s0x470b954e22f2988f:0x1db59f4eebb48e9e!8m2!3d50.0983495!4d14.3622686!16s%2Fg%2F11rghmf53l?hl=cs&entry=ttu"
"Markétina cukrárna","5","3","Za Strahovem 10","Praha 6",,"CZ","https://www.marketinacukrarna.cz/kontakt","+420 775 654 041","Cukrárna","https://www.google.com/maps/place/Mark%C3%A9tina+cukr%C3%A1rna/@50.0842945,14.3792198,17z/data=!3m1!4b1!4m6!3m5!1s0x470b95465fbcf937:0x48bbe16757cfa154!8m2!3d50.0842945!4d14.3792198!16s%2Fg%2F11sfx2sbhk?hl=cs&entry=ttu"
"Kavárna - Cukrárna Elvíra","4.5","176","Francouzská 761/21","Vinohrady",,"CZ","http://www.elviracafe.com/","+420 722 373 396","Kavárna / Čajovna","https://www.google.com/maps/place/Kav%C3%A1rna+-+Cukr%C3%A1rna+Elv%C3%ADra/@50.0734244,14.4411401,17z/data=!3m1!4b1!4m6!3m5!1s0x470b9485d4a1b7b7:0xeb7ec7b3cc959cf6!8m2!3d50.0734244!4d14.4411401!16s%2Fg%2F11g07xy759?hl=cs&entry=ttu"
"Cukrárna ZSMV","3.5","15","Na Pankráci 1623","Praha 4-Nusle",,"CZ","https://www.zsmv.cz/gastro/cukrarna/","+420 974 849 702","Cukrárna","https://www.google.com/maps/place/Cukr%C3%A1rna+ZSMV/@50.0551595,14.4354379,17z/data=!3m1!4b1!4m6!3m5!1s0x470b94712981cfd5:0xd8ce98e37dd120a1!8m2!3d50.0551595!4d14.4354379!16s%2Fg%2F11c601jv2w?hl=cs&entry=ttu"
"Ovocná Cukrárna Hana Rašínová","4.7","112","Terronská 582","Praha 6-Bubeneč",,"CZ",,"+420 606 248 887","Cukrárna","https://www.google.com/maps/place/Ovocn%C3%A1+Cukr%C3%A1rna+Hana+Ra%C5%A1%C3%ADnov%C3%A1/@50.1026973,14.3985329,17z/data=!3m1!4b1!4m6!3m5!1s0x4173137ef6d5c33b:0x65f8a3678000a74e!8m2!3d50.1026973!4d14.3985329!16s%2Fg%2F11b7gxd__q?hl=cs&entry=ttu"
"Cukrárna Pankrác","4.1","7","4, Praha","Praha 4",,"CZ",,"+420 974 849 702","Cukrárna","https://www.google.com/maps/place/Cukr%C3%A1rna+Pankr%C3%A1c/@50.0551563,14.4354303,17z/data=!3m1!4b1!4m6!3m5!1s0x470b94712cade48f:0x931bf45b1bbb388e!8m2!3d50.0551563!4d14.4354303!16s%2Fg%2F11hbq0wy0n?hl=cs&entry=ttu"
"Cukrárna U Palmy","3","22","Jirečkova 17","Praha 7-Holešovice",,"CZ","http://www.upalmy.cz/","+420 233 370 083","Cukrárna","https://www.google.com/maps/place/Cukr%C3%A1rna+U+Palmy/@50.0991744,14.4225012,17z/data=!3m1!4b1!4m6!3m5!1s0x470b94c529facbb5:0x45d7ae45598970b3!8m2!3d50.0991744!4d14.4225012!16s%2Fg%2F1tfcm1jr?hl=cs&entry=ttu"
"Smetanová cukrárna s kávou","4.7","68","Opletalova 921/6","Nové Město",,"CZ","http://www.cukrarna.cz/",,"Cukrárna","https://www.google.com/maps/place/Smetanov%C3%A1+cukr%C3%A1rna+s+k%C3%A1vou/@50.0810928,14.4295529,17z/data=!3m1!4b1!4m6!3m5!1s0x470b95e5915b3d09:0x8e60269f3ec4eab1!8m2!3d50.0810928!4d14.4295529!16s%2Fg%2F11t6f_0ybt?hl=cs&entry=ttu"
"Cukrárna Apetit","4.1","314","Revoluční 1634","Petrská čtvrť",,"CZ","https://www.apetitpraha.cz/","+420 222 329 865","Prodejna zákusků","https://www.google.com/maps/place/Cukr%C3%A1rna+Apetit/@50.090476,14.428017,17z/data=!3m1!4b1!4m6!3m5!1s0x470b94ea7f124eb7:0xe34660284389fa52!8m2!3d50.090476!4d14.428017!16s%2Fg%2F1hc2_8ph8?hl=cs&entry=ttu"
"Cukrárna Sladká Monika","4.8","51","Vlkova 456","Praha 3-Žižkov",,"CZ","https://cukrarnasladkamonika.cz/","+420 222 721 813","Prodejna zákusků","https://www.google.com/maps/place/Cukr%C3%A1rna+Sladk%C3%A1+Monika/@50.0829552,14.4451072,17z/data=!3m1!4b1!4m6!3m5!1s0x470b949a26e421b1:0xb8fe82b8b037e02!8m2!3d50.0829552!4d14.4451072!16s%2Fg%2F1td1c3v_?hl=cs&entry=ttu"
"Cukrárna Klárka","5","17","Na Spojce 87/8","Praha 10-Vršovice",,"CZ","http://www.cukrarnaklarka.cz/","+420 777 474 999","Cukrárna","https://www.google.com/maps/place/Cukr%C3%A1rna+Kl%C3%A1rka/@50.0675183,14.456577,17z/data=!3m1!4b1!4m6!3m5!1s0x470b9394d9c64d19:0xec1a43677c2af2c8!8m2!3d50.0675183!4d14.456577!16s%2Fg%2F11v0nb_h_x?hl=cs&entry=ttu"
"Cukrárna Amarilis Vysočany","4.1","353","Pešlova 94/6","Praha 9",,"CZ","http://www.amarilis.cz/","+420 283 923 141","Prodejna zákusků","https://www.google.com/maps/place/Cukr%C3%A1rna+Amarilis+Vyso%C4%8Dany/@50.1112806,14.4979798,17z/data=!3m1!4b1!4m6!3m5!1s0x470b948ddda8a4a5:0xb0fc205525a6740a!8m2!3d50.1112806!4d14.4979798!16s%2Fg%2F11x9wx_d0?hl=cs&entry=ttu"
"Cukrárna Vanille","4.5","422","Náměstí Míru 342","Vinohrady",,"CZ","http://www.vanille.cz/","+420 777 836 320","Cukrárna","https://www.google.com/maps/place/Cukr%C3%A1rna+Vanille/@50.074811,14.436817,17z/data=!3m1!4b1!4m6!3m5!1s0x470b948f0ef53855:0x533fb672ceb8f2ee!8m2!3d50.074811!4d14.436817!16s%2Fg%2F11bc7mgn0k?hl=cs&entry=ttu"
"Cukrárna Kamel","4.6","116","Francouzská 42","Vinohrady, Praha 2-Vinohrady-Praha 2",,"CZ","http://www.cukrarnakamel.cz/","+420 608 507 381","Cukrárna","https://www.google.com/maps/place/Cukr%C3%A1rna+Kamel/@50.0727394,14.4421317,17z/data=!3m1!4b1!4m6!3m5!1s0x470b9485f422faaf:0x8c9daf451ce42b36!8m2!3d50.0727394!4d14.4421317!16s%2Fg%2F11cm_qfbdy?hl=cs&entry=ttu"
"Cukrárna Hájek&Hájková Krč - Modrý Pavilon","4.4","81","Štúrova 1281/10","Praha 4-Krč",,"CZ","http://www.cukrarna-hajek-hajkova.cz/","+420 736 539 864","Cukrárna","https://www.google.com/maps/place/Cukr%C3%A1rna+H%C3%A1jek%26H%C3%A1jkov%C3%A1+Kr%C4%8D+-+Modr%C3%BD+Pavilon/@50.023354,14.4517486,17z/data=!3m1!4b1!4m6!3m5!1s0x470b9198bcbbe261:0xd95bd9631cba6a82!8m2!3d50.023354!4d14.4517486!16s%2Fg%2F11rj_jqh35?hl=cs&entry=ttu"
"Cukrárna Delikates","4.4","47","Vinohradská 2266/118","Vinohrady",,"CZ","https://www.facebook.com/profile.php?id=100066665805735","+420 271 734 010","Cukrárna","https://www.google.com/maps/place/Cukr%C3%A1rna+Delikates/@50.0774632,14.457986,17z/data=!3m1!4b1!4m6!3m5!1s0x470b938ebe8c6c4b:0xf34a4961439b2741!8m2!3d50.0774632!4d14.457986!16s%2Fg%2F11fj_d2zsb?hl=cs&entry=ttu"
"Kavárna a cukrárna SMIS","4.4","137","27, J. Želivského 1860","Praha 3-Žižkov",,"CZ",,"+420 222 585 989","Kavárna / Čajovna","https://www.google.com/maps/place/Kav%C3%A1rna+a+cukr%C3%A1rna+SMIS/@50.0877796,14.4690161,17z/data=!3m1!4b1!4m6!3m5!1s0x470b935db60966c1:0xa05aadda8cb9781a!8m2!3d50.0877796!4d14.4690161!16s%2Fg%2F1tgx0r32?hl=cs&entry=ttu"
"Cukrárna - výrobna","4.5","2","Na Musilech","Praha 4",,"CZ","http://www.cukrarna-vyrobna.cz/jak%20k%20n%C3%A1m.html","+420 261 912 620","Pekařství","https://www.google.com/maps/place/Cukr%C3%A1rna+-+v%C3%BDrobna/@50.0061619,14.4651501,17z/data=!3m1!4b1!4m6!3m5!1s0x470b9173ccb6687d:0xf27e05e53cb5577e!8m2!3d50.0061619!4d14.4651501!16s%2Fg%2F11hzv5m1j8?hl=cs&entry=ttu"
"Zelenkova cukrárna","4.4","163","Nuselská 43","Praha 4-Nusle",,"CZ","http://www.zelenkovacukrarna.cz/","+420 727 927 297","Cukrárna","https://www.google.com/maps/place/Zelenkova+cukr%C3%A1rna/@50.0620185,14.4456506,17z/data=!3m1!4b1!4m6!3m5!1s0x470b959e24652b59:0x3592eea92a8c3962!8m2!3d50.0620185!4d14.4456506!16s%2Fg%2F11j5vq7nz2?hl=cs&entry=ttu"
"DOBRÁ CUKRÁRNA","4.7","89","Náměstí Jiřího z Lobkovic","Praha 3-Vinohrady",,"CZ",,"+420 702 605 988","Zákusková restaurace","https://www.google.com/maps/place/DOBR%C3%81+CUKR%C3%81RNA/@50.0775144,14.4679605,17z/data=!3m1!4b1!4m6!3m5!1s0x470b9365764486a5:0x19a0a90820415aa4!8m2!3d50.0775144!4d14.4679605!16s%2Fg%2F11clv88f_d?hl=cs&entry=ttu"
"Cukrárna Lucie","4.6","212","Koněvova 129","Praha 3-Žižkov",,"CZ","http://www.cukrarnalucie.cz/","+420 222 781 732","Cukrárna","https://www.google.com/maps/place/Cukr%C3%A1rna+Lucie/@50.0872227,14.454376,17z/data=!3m1!4b1!4m6!3m5!1s0x470b94a1df632a33:0x37713c84420122c7!8m2!3d50.0872227!4d14.454376!16s%2Fg%2F1tm__yp8?hl=cs&entry=ttu"
"Andělská cukrárna","4.3","402","Vlkova 30","Praha 3-Žižkov",,"CZ","http://andelska-cukrarna.com/","+420 721 878 761","Cukrárna","https://www.google.com/maps/place/And%C4%9Blsk%C3%A1+cukr%C3%A1rna/@50.0835097,14.4475408,17z/data=!3m1!4b1!4m6!3m5!1s0x470b95966b33bfff:0xe592251d3b2f2de5!8m2!3d50.0835097!4d14.4475408!16s%2Fg%2F11gl4ly0pf?hl=cs&entry=ttu"
"Cukrárna Charlie","4.6","54","Nuselská 595","Praha 4-Michle",,"CZ","https://cukrarnacharlie.cz/","+420 722 299 821","Prodejna zákusků","https://www.google.com/maps/place/Cukr%C3%A1rna+Charlie/@50.0593971,14.4494828,17z/data=!3m1!4b1!4m6!3m5!1s0x470b93868aaf28ad:0x9349bc395e320a65!8m2!3d50.0593971!4d14.4494828!16s%2Fg%2F1ptypmkbx?hl=cs&entry=ttu"
"Cukrárna",,"0","Na Zderaze 2","Nové Město",,"CZ",,"+44 7435 920800","Cukrárna","https://www.google.com/maps/place/Cukr%C3%A1rna/@50.0762946,14.416671,17z/data=!3m1!4b1!4m6!3m5!1s0x470b9519ea5cc931:0xe4e84bcfe7acd1f3!8m2!3d50.0762946!4d14.416671!16s%2Fg%2F11vbg78bk4?hl=cs&entry=ttu"
"Cukrárna",,"0",,"Praha 4",,"CZ",,,,"https://www.google.com/maps/place/Cukr%C3%A1rna/@50.0467429,14.4158652,17z/data=!3m1!4b1!4m6!3m5!1s0x470b941470dcb1e1:0x976e80c22ad5763!8m2!3d50.0467429!4d14.4158652!16s%2Fg%2F11kn71bts0?hl=cs&entry=ttu"
"Učňovská cukrárna & pekárna","3.4","17","Slánská 1706/2","Praha 17-Řepy",,"CZ","http://www.ucnovskacukrarna.cz/",,"Cukrárna","https://www.google.com/maps/place/U%C4%8D%C5%88ovsk%C3%A1+cukr%C3%A1rna+%26+pek%C3%A1rna/@50.0751617,14.3078679,17z/data=!3m1!4b1!4m6!3m5!1s0x470bbf4644ef6771:0x26cd27fa30d78a96!8m2!3d50.0751617!4d14.3078679!16s%2Fg%2F11h769vgqh?hl=cs&entry=ttu"
"U Borůvky","4.9","106","Kyjevská 525","Praha 6-Dejvice",,"CZ","http://www.uboruvky.cz/","+420 606 862 594","Cukrárna","https://www.google.com/maps/place/U+Bor%C5%AFvky/@50.0987404,14.398414,17z/data=!3m1!4b1!4m6!3m5!1s0x470b9523efaacd3f:0x23fac34d22007bc4!8m2!3d50.0987404!4d14.398414!16s%2Fg%2F11gblc18f3?hl=cs&entry=ttu"
"Cukrárna Koko",,"0","Jiránkova 1137","Praha 17",,"CZ",,,"Pekařství","https://www.google.com/maps/place/Cukr%C3%A1rna+Koko/@50.0629429,14.3082933,17z/data=!3m1!4b1!4m6!3m5!1s0x470bbe160f6e3a61:0xa15233a7010c7213!8m2!3d50.0629429!4d14.3082933!16s%2Fg%2F11b6v45mgq?hl=cs&entry=ttu"
"Cukrárny",,"0","288, Valdštejnská","Malá Strana",,"CZ",,,"Kavárna / Čajovna","https://www.google.com/maps/place/Cukr%C3%A1rny/@50.091489,14.4087556,17z/data=!3m1!4b1!4m6!3m5!1s0x470b94e0c1b12f39:0x82a727ac0849f08c!8m2!3d50.091489!4d14.4087556!16s%2Fg%2F11j8ll8sq7?hl=cs&entry=ttu"
"Cukrárna Marta",,"0","U Vinohradské nemocnice 2112","Praha 3-Vinohrady",,"CZ",,,"Pekařství","https://www.google.com/maps/place/Cukr%C3%A1rna+Marta/@50.0765061,14.4750739,17z/data=!3m1!4b1!4m6!3m5!1s0x470b936e7cccc4d1:0x7ecf6ddd22ff081e!8m2!3d50.0765061!4d14.4750739!16s%2Fg%2F11b6vb8690?hl=cs&entry=ttu"
"Designové a luxusní dorty, cukrárna GULJARDO","4.6","75","V Zeleném údolí 1301/9","Praha-Kunratice",,"CZ","https://www.guljardo.com/","+420 776 152 835","Kavárna / Čajovna","https://www.google.com/maps/place/Designov%C3%A9+a+luxusn%C3%AD+dorty,+cukr%C3%A1rna+GULJARDO/@50.0211777,14.465503,17z/data=!3m1!4b1!4m6!3m5!1s0x470b9162f683f3af:0x437a17ba606edc9f!8m2!3d50.0211777!4d14.465503!16s%2Fg%2F11fmx0hcpn?hl=cs&entry=ttu"
"Cukrárna Aleš","4.4","30","15, Makovského 1227","Praha 17",,"CZ","http://www.dortyales.cz/","+420 608 232 233","Prodejna zákusků","https://www.google.com/maps/place/Cukr%C3%A1rna+Ale%C5%A1/@50.0654051,14.3035426,17z/data=!3m1!4b1!4m6!3m5!1s0x470bbe3fc1cf136f:0xd46f3445fc1d498f!8m2!3d50.0654051!4d14.3035426!16s%2Fg%2F11clt7jmz8?hl=cs&entry=ttu"
"Kavárna a cukrárna Na Neklance 29","4.9","13","Na Neklance 29","Praha 5",,"CZ",,"+420 777 277 502","Kavárna","https://www.google.com/maps/place/Kav%C3%A1rna+a+cukr%C3%A1rna+Na+Neklance+29/@50.0602527,14.3986162,17z/data=!3m1!4b1!4m6!3m5!1s0x470b95911b67afb9:0x84c2f35963e9baa7!8m2!3d50.0602527!4d14.3986162!16s%2Fg%2F11kj8xdj17?hl=cs&entry=ttu"
"Cukrárna-Kavárna","4.3","23","Vídeňská 1958","Praha 4",,"CZ","http://www.ikem.cz/","+420 604 201 693","Kavárna / Čajovna","https://www.google.com/maps/place/Cukr%C3%A1rna-Kav%C3%A1rna/@50.0227903,14.463014,17z/data=!3m1!4b1!4m6!3m5!1s0x470b9162040d65f7:0xe395e2f4025c6dfb!8m2!3d50.0227903!4d14.463014!16s%2Fg%2F11bwpqqx6d?hl=cs&entry=ttu"
"IPPA Café Břevnov","4","122","134, Bělohorská 724","Praha 6",,"CZ","https://ippacafe.cz/","+420 774 465 705","Cukrárna","https://www.google.com/maps/place/IPPA+Caf%C3%A9+B%C5%99evnov/@50.0839141,14.3634034,17z/data=!3m1!4b1!4m6!3m5!1s0x470b9573e5804761:0x2dfdf766af6f12b5!8m2!3d50.0839141!4d14.3634034!16s%2Fg%2F1tct7fl3?hl=cs&entry=ttu"
"Zelenkova cukrárna","4.4","134","Koněvova 1703/132","Praha 3",,"CZ","http://www.zelenkovacukrarna.cz/","+420 702 073 544","Cukrárna","https://www.google.com/maps/place/Zelenkova+cukr%C3%A1rna/@50.090799,14.4712719,17z/data=!3m1!4b1!4m6!3m5!1s0x470b935b8ef75fc5:0x88d12f7fa06cf003!8m2!3d50.090799!4d14.4712719!16s%2Fg%2F11b6j7pn2x?hl=cs&entry=ttu"
"Erhartova cukrárna - Vinohrady","4.3","466","Vinohradská 2022/125","Praha 3-Vinohrady",,"CZ","http://www.erhartovacukrarna.cz/","+420 273 130 574","Cukrárna","https://www.google.com/maps/place/Erhartova+cukr%C3%A1rna+-+Vinohrady/@50.0777001,14.4563474,17z/data=!3m1!4b1!4m6!3m5!1s0x470b9362bf94480b:0xbb3fd20b3a71508f!8m2!3d50.0777001!4d14.4563474!16s%2Fg%2F1pwftwshr?hl=cs&entry=ttu"
"Amentes","4.2","26","Rajská Zahrada, Cíglerova 1139","Praha 14-Černý Most",,"CZ",,"+420 774 217 644","Cukrárna","https://www.google.com/maps/place/Amentes/@50.1057266,14.5582635,17z/data=!3m1!4b1!4m6!3m5!1s0x470bed47fc9819d7:0x8f758417eb3c6488!8m2!3d50.1057266!4d14.5582635!16s%2Fg%2F11c5bh5n80?hl=cs&entry=ttu"
"Cukrárna Mučenka","4.8","327","Kladenská 421","Praha 6",,"CZ","http://www.mucenka.cz/","+420 607 010 723","Kavárna / Čajovna","https://www.google.com/maps/place/Cukr%C3%A1rna+Mu%C4%8Denka/@50.0973845,14.3650844,17z/data=!3m1!4b1!4m6!3m5!1s0x470b956837095107:0x6f76f6533df927be!8m2!3d50.0973845!4d14.3650844!16s%2Fg%2F11bywkxr8t?hl=cs&entry=ttu"
"Cukrárna DonPablo","3.7","26","Libušská 395/229","Praha 4",,"CZ","http://www.donpablo.cz/","+420 731 154 000","Cukrárna","https://www.google.com/maps/place/Cukr%C3%A1rna+DonPablo/@50.0141201,14.4567641,17z/data=!3m1!4b1!4m6!3m5!1s0x470b912ce56e7f67:0x525868091195f4d!8m2!3d50.0141201!4d14.4567641!16s%2Fg%2F11h0mn_dpv?hl=cs&entry=ttu"
"Erhartova cukrárna - Vodičkova","4.6","73","Vodičkova 28","Nové Město",,"CZ","http://www.erhartovacukrarna.cz/","+420 777 227 248","Cukrárna","https://www.google.com/maps/place/Erhartova+cukr%C3%A1rna+-+Vodi%C4%8Dkova/@50.080525,14.4242719,17z/data=!3m1!4b1!4m6!3m5!1s0x470b958dff94aa91:0xf86d126f76370a11!8m2!3d50.080525!4d14.4242719!16s%2Fg%2F11fk4q_qmt?hl=cs&entry=ttu"
"Cukrárna Pralinka","4.8","99","Vršovická 866/3","Praha 10-Vršovice",,"CZ","http://www.cukrarnavrsovice.cz/","+420 777 058 005","Cukrárna","https://www.google.com/maps/place/Cukr%C3%A1rna+Pralinka/@50.0661853,14.4493461,17z/data=!3m1!4b1!4m6!3m5!1s0x470b93800ff6416f:0xbe5de33a67b5abbf!8m2!3d50.0661853!4d14.4493461!16s%2Fg%2F1tmpcn89?hl=cs&entry=ttu"
"Cukrárna a lahůdky IVA","4.8","16","23, U První baterie 1077","Praha 6-Břevnov",,"CZ",,"+420 723 504 913","Cukrárna","https://www.google.com/maps/place/Cukr%C3%A1rna+a+lah%C5%AFdky+IVA/@50.0897278,14.3689053,17z/data=!3m1!4b1!4m6!3m5!1s0x470b956da982c5a3:0x2199fd40201d7da5!8m2!3d50.0897278!4d14.3689053!16s%2Fg%2F11dx93rgqq?hl=cs&entry=ttu"
"Cukrářství Viktoria - cukrárna Písnice","4.6","262","2, V Zákopech 341","Praha 4-Písnice",,"CZ","http://www.cukrarstvi-viktoria.cz/","+420 605 464 092","Cukrárna","https://www.google.com/maps/place/Cukr%C3%A1%C5%99stv%C3%AD+Viktoria+-+cukr%C3%A1rna+P%C3%ADsnice/@49.9960413,14.4678117,17z/data=!3m1!4b1!4m6!3m5!1s0x470b91098f5045cd:0xd4f8569f93229fbc!8m2!3d49.9960413!4d14.4678117!16s%2Fg%2F1tkl20p0?hl=cs&entry=ttu"
"Dorty Domů","3.9","70","Jeremenkova 920","Praha 4-Podolí",,"CZ","http://www.dortydomu.cz/","+420 724 083 809","Cukrárna","https://www.google.com/maps/place/Dorty+Dom%C5%AF/@50.0466832,14.4160567,17z/data=!3m1!4b1!4m6!3m5!1s0x470b9414771e89fb:0x8f498826167dd5af!8m2!3d50.0466832!4d14.4160567!16s%2Fg%2F11g6bjbsgb?hl=cs&entry=ttu"
"Pekárna Cukrárna Bar","5","1","Pod Marjánkou 1397","Praha 6-Břevnov",,"CZ",,,"Pekařství","https://www.google.com/maps/place/Pek%C3%A1rna+Cukr%C3%A1rna+Bar/@50.0851719,14.3784917,17z/data=!3m1!4b1!4m6!3m5!1s0x470b950e0cfedd93:0xd7525850997a7bd1!8m2!3d50.0851719!4d14.3784917!16s%2Fg%2F11f5tzbktm?hl=cs&entry=ttu"
"CUKRÁŘSTVÍ U MICHALA","4.5","91","Podolská 29","Praha 4",,"CZ",,"+420 241 430 260","Cukrárna","https://www.google.com/maps/place/CUKR%C3%81%C5%98STV%C3%8D+U+MICHALA/@50.0590798,14.4207628,17z/data=!3m1!4b1!4m6!3m5!1s0x470b946896894feb:0x420a1056e26808c4!8m2!3d50.0590798!4d14.4207628!16s%2Fg%2F1tz74prx?hl=cs&entry=ttu"
"Cukrárna Markéta","4.4","448","Radimova 2322/40","Praha 6",,"CZ","http://www.cukrarnamarketa.cz/","+420 770 600 904","Cukrárna","https://www.google.com/maps/place/Cukr%C3%A1rna+Mark%C3%A9ta/@50.0876462,14.3656466,17z/data=!3m1!4b1!4m6!3m5!1s0x470b95720bd2b1b3:0x499cb27478fa3106!8m2!3d50.0876462!4d14.3656466!16s%2Fg%2F11clvqpjn8?hl=cs&entry=ttu"
"Cukrárna Amarilis Na Vackově","4.4","16","Olgy Havlové 2913/56","Praha 3",,"CZ","http://www.amarilis.cz/","+420 222 514 467","Cukrárna","https://www.google.com/maps/place/Cukr%C3%A1rna+Amarilis+Na+Vackov%C4%9B/@50.0877188,14.4794274,17z/data=!3m1!4b1!4m6!3m5!1s0x470b93bcd44fe329:0x8edb4dbaf7f9948!8m2!3d50.0877188!4d14.4794274!16s%2Fg%2F11rdbjdpsp?hl=cs&entry=ttu"
"Cukrárna-Kavárna Vanilka","4.5","32","Starostrašnická 960","Strašnice",,"CZ",,,"Kavárna / Čajovna","https://www.google.com/maps/place/Cukr%C3%A1rna-Kav%C3%A1rna+Vanilka/@50.0735282,14.4907267,17z/data=!3m1!4b1!4m6!3m5!1s0x470b9311951da30d:0x5ed0f98ffab7bae0!8m2!3d50.0735282!4d14.4907267!16s%2Fg%2F11csdb6lf4?hl=cs&entry=ttu"
"Cukrárna Myšák","4.3","2168","710/31, Vodičkova","Nové Město",,"CZ","https://www.mysak.ambi.cz/","+420 730 589 249","Cukrárna","https://www.google.com/maps/place/Cukr%C3%A1rna+My%C5%A1%C3%A1k/@50.0812557,14.4247099,17z/data=!3m1!4b1!4m6!3m5!1s0x470b94ed704d3d61:0x524b4b78b2aa77d3!8m2!3d50.0812557!4d14.4247099!16s%2Fg%2F1hc3j6chw?hl=cs&entry=ttu"
"Café & Cukrárna","4.5","106","Koněvova 1519/165","Praha 3",,"CZ","http://www.cafeacukrarna.cz/","+420 722 553 609","Cukrárna","https://www.google.com/maps/place/Caf%C3%A9+%26+Cukr%C3%A1rna/@50.0923302,14.480086,17z/data=!3m1!4b1!4m6!3m5!1s0x470b934505e62555:0x635e0515b93824fe!8m2!3d50.0923302!4d14.480086!16s%2Fg%2F11b740k858?hl=cs&entry=ttu"
"Sladká dílna - Petřiny","4.7","210","Na Petřinách 310/82","Praha 6",,"CZ","http://www.sladkadilna.cz/","+420 775 033 564","Cukrárna","https://www.google.com/maps/place/Sladk%C3%A1+d%C3%ADlna+-+Pet%C5%99iny/@50.0878416,14.342137,17z/data=!3m1!4b1!4m6!3m5!1s0x470bbf3b05dc71eb:0x7bd17b667c0157ad!8m2!3d50.0878416!4d14.342137!16s%2Fg%2F11pgsvc0fn?hl=cs&entry=ttu"
"cukrárna u Berušky Praha 9","3.3","80","Staroklánovická 470","Praha 9",,"CZ","http://www.cukrarnauberusky.cz/","+420 774 889 609","Cukrárna","https://www.google.com/maps/place/cukr%C3%A1rna+u+Beru%C5%A1ky+Praha+9/@50.0769601,14.6601963,17z/data=!3m1!4b1!4m6!3m5!1s0x470b8cb5ff368659:0x25c4344a7fef1655!8m2!3d50.0769601!4d14.6601963!16s%2Fg%2F12hyszl1t?hl=cs&entry=ttu"
"Cukrárna Saint Tropez","4.3","760","Karmelitská 20","Malá Strana",,"CZ","http://cukrarnatropez.cz/","+420 603 333 338","Francouzská cukrárna","https://www.google.com/maps/place/Cukr%C3%A1rna+Saint+Tropez/@50.0866101,14.4041001,17z/data=!3m1!4b1!4m6!3m5!1s0x470b94f254ad6f95:0x6e6e786730358840!8m2!3d50.0866101!4d14.4041001!16s%2Fg%2F1tkjjxt0?hl=cs&entry=ttu"
"Cukrárna na Blatově","4.4","53","Račiněveská 2444","Praha 21",,"CZ",,"+420 737 623 611","Cukrárna","https://www.google.com/maps/place/Cukr%C3%A1rna+na+Blatov%C4%9B/@50.0774653,14.6494883,17z/data=!3m1!4b1!4m6!3m5!1s0x470b8d92c308e2a9:0xa09a7cc1dae66b3f!8m2!3d50.0774653!4d14.6494883!16s%2Fg%2F11fjwzqb22?hl=cs&entry=ttu"
"Svatováclavská cukrárna","4.4","194","Václavská pasáž","Nové Město",,"CZ",,"+420 224 916 774","Cukrárna","https://www.google.com/maps/place/Svatov%C3%A1clavsk%C3%A1+cukr%C3%A1rna/@50.0745455,14.4186454,17z/data=!3m1!4b1!4m6!3m5!1s0x470b94f440e85205:0x3cc92d5e9d94d4ca!8m2!3d50.0745455!4d14.4186454!16s%2Fg%2F11c61j713m?hl=cs&entry=ttu"
"Cukrárna Lilly","3.9","203","Litevská 1273","Praha 10-Vršovice",,"CZ","http://www.cukrarnalilly.cz/","+420 774 201 040","Francouzská cukrárna","https://www.google.com/maps/place/Cukr%C3%A1rna+Lilly/@50.0715407,14.4773848,17z/data=!3m1!4b1!4m6!3m5!1s0x470b9372f93708a3:0x2d4c718162f038be!8m2!3d50.0715407!4d14.4773848!16s%2Fg%2F1tf302_0?hl=cs&entry=ttu"
"Cukrárna Tea","4.2","93","U Hostavického potoka 830","Praha 14",,"CZ",,"+420 605 218 447","Kavárna / Čajovna","https://www.google.com/maps/place/Cukr%C3%A1rna+Tea/@50.082106,14.5600112,17z/data=!3m1!4b1!4m6!3m5!1s0x470b93771750867d:0xfcc2164132609e3d!8m2!3d50.082106!4d14.5600112!16s%2Fg%2F11j8hhr8_f?hl=cs&entry=ttu"
"Cukrárna No. 3","4.4","29","K Borovíčku 104/1","Praha-Kunratice",,"CZ","https://cukrarnano3.business.site/","+420 604 265 611","Cukrárna","https://www.google.com/maps/place/Cukr%C3%A1rna+No.+3/@50.013972,14.485144,17z/data=!3m1!4b1!4m6!3m5!1s0x470b91536864d4ef:0x49482e5543e1e121!8m2!3d50.013972!4d14.485144!16s%2Fg%2F11g0kgstpr?hl=cs&entry=ttu"
"Cukrárna – kavárna Studánka","4.4","30","3, Na Zderaze 1947","Nové Město",,"CZ","http://www.cukrarna-studanka.cz/","+420 224 923 916","Cukrárna","https://www.google.com/maps/place/Cukr%C3%A1rna+%E2%80%93+kav%C3%A1rna+Stud%C3%A1nka/@50.0761356,14.4163302,17z/data=!3m1!4b1!4m6!3m5!1s0x470b94f6ad096ddf:0x3fc4ae828beb4050!8m2!3d50.0761356!4d14.4163302!16s%2Fg%2F1thtbvsq?hl=cs&entry=ttu"
"Cukrárna Fanynka","4.2","92","Hábova 2345/7","Praha 13-Stodůlky",,"CZ",,"+420 739 323 948","Cukrárna","https://www.google.com/maps/place/Cukr%C3%A1rna+Fanynka/@50.0466104,14.3106041,17z/data=!3m1!4b1!4m6!3m5!1s0x470bbe068bdbc91f:0x87a6a7d73ab0460c!8m2!3d50.0466104!4d14.3106041!16s%2Fg%2F11c5xt1lcg?hl=cs&entry=ttu"
"Italská cukrárna Amarena","3.6","10","Roztylská 2232/17","Praha 11-Chodov",,"CZ","http://www.cukrarnaamarena.cz/","+420 774 577 857","Cukrárna","https://www.google.com/maps/place/Italsk%C3%A1+cukr%C3%A1rna+Amarena/@50.0310942,14.4903543,17z/data=!3m1!4b1!4m6!3m5!1s0x470b932d956762d5:0x29ebc1ca08ca5bc!8m2!3d50.0310942!4d14.4903543!16s%2Fg%2F11h5vk1pmn?hl=cs&entry=ttu"
"Cukrárna U knoflíčků","4.4","653","Újezd 412","Malá Strana",,"CZ","http://www.uknoflicku.cz/","+420 777 235 139","Prodejna zákusků","https://www.google.com/maps/place/Cukr%C3%A1rna+U+knofl%C3%AD%C4%8Dk%C5%AF/@50.0826389,14.4042873,17z/data=!3m1!4b1!4m6!3m5!1s0x470b94fcb69b9377:0x16e8b135e44ed30a!8m2!3d50.0826389!4d14.4042873!16s%2Fg%2F1tlw7svf?hl=cs&entry=ttu"
"Cukrárna Pod Marjánkou","4.8","27","Bělohorská 1393/44","Praha 6-Břevnov",,"CZ",,"+420 704 407 363","Cukrárna","https://www.google.com/maps/place/Cukr%C3%A1rna+Pod+Marj%C3%A1nkou/@50.0848914,14.3767403,17z/data=!3m1!4b1!4m6!3m5!1s0x470b956fd942b2f3:0x7068a9fa663a3a5!8m2!3d50.0848914!4d14.3767403!16s%2Fg%2F11hyxqk949?hl=cs&entry=ttu"
"Cukrárna Ledo - Novotný J.","3.8","5","Dunovského 178","Praha 11-Chodov",,"CZ",,"+420 267 913 395","Prodejna zákusků","https://www.google.com/maps/place/Cukr%C3%A1rna+Ledo+-+Novotn%C3%BD+J./@50.0340281,14.5032349,17z/data=!3m1!4b1!4m6!3m5!1s0x470b923734dcafa1:0x9974feb531536fae!8m2!3d50.0340281!4d14.5032349!16s%2Fg%2F1vbnn375?hl=cs&entry=ttu"
"Domácí dezerty","5","11","Květoslavova 241/13","Praha-Dubeč",,"CZ","https://www.domacidezerty.cz/","+420 773 266 991","Pečení svatebního cukroví","https://www.google.com/maps/place/Dom%C3%A1c%C3%AD+dezerty/@50.059263,14.5846986,17z/data=!3m1!4b1!4m6!3m5!1s0x470b8d4f26767611:0x98b442a546581a18!8m2!3d50.059263!4d14.5846986!16s%2Fg%2F11n5n3ntyg?hl=cs&entry=ttu"
"Cukrarna Bruno","4","198","Bělohorská 250","Praha 6-Břevnov",,"CZ","http://www.cukrarnabruno.cz/","+420 774 055 042","Kavárna / Čajovna","https://www.google.com/maps/place/Cukrarna+Bruno/@50.0837792,14.3720962,17z/data=!3m1!4b1!4m6!3m5!1s0x470b950ce61a4e67:0xa2fa3253500291b5!8m2!3d50.0837792!4d14.3720962!16s%2Fg%2F11csrqk0jv?hl=cs&entry=ttu"
"Zelenkova cukrárna","4.4","43","Topolová 2915","Praha 10",,"CZ",,"+420 702 088 384","Prodej zmrzliny","https://www.google.com/maps/place/Zelenkova+cukr%C3%A1rna/@50.056555,14.5077058,17z/data=!3m1!4b1!4m6!3m5!1s0x470b932d44c52aef:0xab09932d2a23921a!8m2!3d50.056555!4d14.5077058!16s%2Fg%2F11kc7lgwlt?hl=cs&entry=ttu"
"Ovocný Světozor","3.5","48","Plzeňská 8","Praha 5-Anděl",,"CZ","http://ovocnysvetozor.cz/","+420 778 444 124","Cukrárna","https://www.google.com/maps/place/Ovocn%C3%BD+Sv%C4%9Btozor/@50.0722406,14.4022645,17z/data=!3m1!4b1!4m6!3m5!1s0x470b95ef9b8a7ad9:0xb10276ffbcbd898d!8m2!3d50.0722406!4d14.4022645!16s%2Fg%2F11pxlvjhtz?hl=cs&entry=ttu"
"Cukrárna - Kavárna Adélka","4.6","64","Matúškova 831/1","Praha 11-Háje",,"CZ","https://www.cukrarnakavarnaadelka.cz/","+420 608 309 579","Kavárna / Čajovna","https://www.google.com/maps/place/Cukr%C3%A1rna+-+Kav%C3%A1rna+Ad%C3%A9lka/@50.0374882,14.515467,17z/data=!3m1!4b1!4m6!3m5!1s0x470b934323b1b835:0xa2d14c5f2f4b3301!8m2!3d50.0374882!4d14.515467!16s%2Fg%2F11k_3qcyqq?hl=cs&entry=ttu"
"Cukrárna Hájek & Hájková s.r.o.","4","1473","32, Nádražní 762","Praha 5-Smíchov",,"CZ","http://www.cukrarna-hajek-hajkova.cz/","+420 730 150 839","Prodejna zákusků","https://www.google.com/maps/place/Cukr%C3%A1rna+H%C3%A1jek+%26+H%C3%A1jkov%C3%A1+s.r.o./@50.0617213,14.4094364,17z/data=!3m1!4b1!4m6!3m5!1s0x470b94579deef899:0x368a9c3216b7f52a!8m2!3d50.0617213!4d14.4094364!16s%2Fg%2F1hc3lmx0r?hl=cs&entry=ttu"
"CUKRÁRNA Brodského","4.8","42","Brodského 1673/13","Praha 11-Chodov",,"CZ","https://www.firmy.cz/detail/13220484-cukrarna-brodskeho-praha-chodov.html","+420 222 985 415","Prodejna zákusků","https://www.google.com/maps/place/CUKR%C3%81RNA+Brodsk%C3%A9ho/@50.0378308,14.5041452,17z/data=!3m1!4b1!4m6!3m5!1s0x470b9237c8669673:0xddf20e1ad2479d92!8m2!3d50.0378308!4d14.5041452!16s%2Fg%2F11gb3z3562?hl=cs&entry=ttu"
"Cukrárna Emilly","4.6","27","Bělohorská 134","Praha 6-Břevnov",,"CZ",,"+420 220 511 205","Cukrárna","https://www.google.com/maps/place/Cukr%C3%A1rna+Emilly/@50.0839141,14.3634034,17z/data=!3m1!4b1!4m6!3m5!1s0x470b9573e5f6b84f:0x7943514322c60649!8m2!3d50.0839141!4d14.3634034!16s%2Fg%2F11g0zx66wp?hl=cs&entry=ttu"
"Cukrárna Bruno","1","3","Bělohorská 2428/205","Praha 6",,"CZ",,,"Prodejna zákusků","https://www.google.com/maps/place/Cukr%C3%A1rna+Bruno/@50.0773286,14.339479,17z/data=!3m1!4b1!4m6!3m5!1s0x470b951561e75069:0xd529963ec707874c!8m2!3d50.0773286!4d14.339479!16s%2Fg%2F11shp0nx0n?hl=cs&entry=ttu"
"Cukrárna Bany","4.7","94","OC Park Hostivař, Švehlova 1391","Praha 15",,"CZ","http://www.parkhostivar.cz/obchod/cukrarna-bany","+420 602 287 475","Cukrárna","https://www.google.com/maps/place/Cukr%C3%A1rna+Bany/@50.053469,14.5176387,17z/data=!3m1!4b1!4m6!3m5!1s0x470b92598e653c9d:0x58d839f36460bf01!8m2!3d50.053469!4d14.5176387!16s%2Fg%2F11bxfwn9r9?hl=cs&entry=ttu"
"Italská cukrárna Amarena","4.1","42","Plzeňská 5/8","Praha 5-Anděl",,"CZ","http://cukrarna-amarena.cz/","+420 775 008 090","Cukrárna","https://www.google.com/maps/place/Italsk%C3%A1+cukr%C3%A1rna+Amarena/@50.0723936,14.4030815,17z/data=!3m1!4b1!4m6!3m5!1s0x470b945625d8d201:0x15c86b2aead68388!8m2!3d50.0723936!4d14.4030815!16s%2Fg%2F1ptvrkxr_?hl=cs&entry=ttu"
"Cukrárna","4.5","29","Vajdova 1047","Praha 15-Hostivař",,"CZ",,"+420 272 924 383","Cukrárna","https://www.google.com/maps/place/Cukr%C3%A1rna/@50.047416,14.5201962,17z/data=!3m1!4b1!4m6!3m5!1s0x470b925cad3a8451:0x48fe384aca9e46d0!8m2!3d50.047416!4d14.5201962!16s%2Fg%2F11dflk1vn6?hl=cs&entry=ttu"
"Cukrářství Hostivař","4.5","101","Pražská 7/11","Praha 15-Hostivař",,"CZ","https://www.cukrarstvi-hostivar.cz/","+420 604 332 332","Cukrárna","https://www.google.com/maps/place/Cukr%C3%A1%C5%99stv%C3%AD+Hostiva%C5%99/@50.0511866,14.5232298,17z/data=!3m1!4b1!4m6!3m5!1s0x470b93ef13900ef3:0xcc10e2fda5c6ce32!8m2!3d50.0511866!4d14.5232298!16s%2Fg%2F11fk1j1tw7?hl=cs&entry=ttu"
"Zámecká cukrárna","4.5","67","Slivenecká 77/1","Praha 5",,"CZ","https://www.cukrarnahlubocepy.cz/","+420 606 519 478","Kavárna","https://www.google.com/maps/place/Z%C3%A1meck%C3%A1+cukr%C3%A1rna/@50.0411736,14.3940996,17z/data=!3m1!4b1!4m6!3m5!1s0x470b955e5895460f:0xafbafa77e43a97e2!8m2!3d50.0411736!4d14.3940996!16s%2Fg%2F11hfsc69fb?hl=cs&entry=ttu"
"Cukrárna s kavárnou Domácí Dezerty","4.9","11","Proutěná 427/28","Praha-Újezd",,"CZ","http://domacidezerty.cz/","+420 776 177 880","Prodej zmrzliny","https://www.google.com/maps/place/Cukr%C3%A1rna+s+kav%C3%A1rnou+Dom%C3%A1c%C3%AD+Dezerty/@50.0224626,14.5252318,17z/data=!3m1!4b1!4m6!3m5!1s0x470b93dabd11de9b:0x90b0e4f999f4da35!8m2!3d50.0224626!4d14.5252318!16s%2Fg%2F11t_ky110d?hl=cs&entry=ttu"
"La Zmrzka Nové Butovice","4.6","90","Petržílkova 2835","Praha 13",,"CZ","http://lazmrzka.cz/","+420 725 726 727","Prodej zmrzliny","https://www.google.com/maps/place/La+Zmrzka+Nov%C3%A9+Butovice/@50.0513138,14.3492698,17z/data=!3m1!4b1!4m6!3m5!1s0x470b957cfddce2e9:0xa709e08d396899e7!8m2!3d50.0513138!4d14.3492698!16s%2Fg%2F11jpqn7pb_?hl=cs&entry=ttu"
"V sedmém nebi","4.4","107","Hostivařská 22","Praha 15",,"CZ","https://m.facebook.com/Cukr%C3%A1rna-V-sedm%C3%A9m-nebi-639506186152110/#!/Cukr%C3%A1rna-V-sedm%C3%A9m-nebi-639506186152110/","+420 604 215 191","Cukrárna","https://www.google.com/maps/place/V+sedm%C3%A9m+nebi/@50.0520929,14.5284265,17z/data=!3m1!4b1!4m6!3m5!1s0x470b925e0572f9fd:0xeaef933e3aa30e3a!8m2!3d50.0520929!4d14.5284265!16s%2Fg%2F11cn9dj0gj?hl=cs&entry=ttu"
"Cukrárna Malvazinky (Snídejte Šampaňské)","4.3","135","Xaveriova 1941/56","Praha 5",,"CZ",,"+420 777 242 942","Prodejna zákusků","https://www.google.com/maps/place/Cukr%C3%A1rna+Malvazinky+(Sn%C3%ADdejte+%C5%A0ampa%C5%88sk%C3%A9)/@50.0629746,14.3899874,17z/data=!3m1!4b1!4m6!3m5!1s0x470b944d42168fdf:0xbee0e285f1aec38c!8m2!3d50.0629746!4d14.3899874!16s%2Fg%2F1pp2x8lgx?hl=cs&entry=ttu"
"Cukrárna Amarilis Háje","4.3","538","Arkalycká 757","Praha 11-Háje",,"CZ","http://www.amarilis.cz/","+420 272 941 898","Cukrárna","https://www.google.com/maps/place/Cukr%C3%A1rna+Amarilis+H%C3%A1je/@50.0318583,14.5288848,17z/data=!3m1!4b1!4m6!3m5!1s0x470b9213ca45cb53:0xd0a476d6e8656f74!8m2!3d50.0318583!4d14.5288848!16s%2Fg%2F11gzp15j5?hl=cs&entry=ttu"
"cukrárna Věrka - cukrárna s tradicí","4.7","94","8, Křešínská 131","Praha 22",,"CZ",,"+420 267 710 188","Cukrárna","https://www.google.com/maps/place/cukr%C3%A1rna+V%C4%9Brka+-+cukr%C3%A1rna+s+tradic%C3%AD/@50.0318003,14.5981323,17z/data=!3m1!4b1!4m6!3m5!1s0x470b8db6b19bae3b:0xb1bc88f101de7f3a!8m2!3d50.0318003!4d14.5981323!16s%2Fg%2F1hc6q42dl?hl=cs&entry=ttu"
"Bertíkova cukrárna Praha 10","3.1","26","Hornoměcholupská 763/10","Praha 15-Hostivař",,"CZ","http://bertikovacukrarna.cz/","+420 733 144 311","Cukrárna","https://www.google.com/maps/place/Bert%C3%ADkova+cukr%C3%A1rna+Praha+10/@50.0442471,14.5689524,17z/data=!3m1!4b1!4m6!3m5!1s0x470b9260c8c2ebeb:0x14f72c478feae523!8m2!3d50.0442471!4d14.5689524!16s%2Fg%2F11c5sv_ff_?hl=cs&entry=ttu"
"CUKRÁRNA HÁJEK&HÁJKOVÁ OC GALERIE NOVÉ BUTOVICE ( přízemí galerie )","3.9","10","Radlická 520/117","Praha 5-Jinonice",,"CZ","http://www.cukrarna-hajek-hajkova.cz/","+420 703 143 501","Cukrárna","https://www.google.com/maps/place/CUKR%C3%81RNA+H%C3%81JEK%26H%C3%81JKOV%C3%81+OC+GALERIE+NOV%C3%89+BUTOVICE+(+p%C5%99%C3%ADzem%C3%AD+galerie+)/@50.0476058,14.3537456,17z/data=!3m1!4b1!4m6!3m5!1s0x470b952fe239eb3d:0xcee2db3b821077a1!8m2!3d50.0476058!4d14.3537456!16s%2Fg%2F11swv98th1?hl=cs&entry=ttu"
"Pekárna-Cukrárna Ječmínek","3.3","3","Metro Nové Butovice vestibul metra, autob.nádr. 158 00","Praha 13",,"CZ",,,"Pekařství","https://www.google.com/maps/place/Pek%C3%A1rna-Cukr%C3%A1rna+Je%C4%8Dm%C3%ADnek/@50.0507692,14.3509213,17z/data=!3m1!4b1!4m6!3m5!1s0x470b954fadfea8b7:0xf94e50e4eb00170f!8m2!3d50.0507692!4d14.3509213!16s%2Fg%2F11gy07vx01?hl=cs&entry=ttu"
"Cukrárna Paraplíčko","3.9","9","Morseova 253","Praha-Petrovice",,"CZ","https://m.facebook.com/pages/Cukr%C3%A1rna-Parapl%C3%AD%C4%8Dko/153189688073768#!/pages/Cukr%C3%A1rna-Parapl%C3%AD%C4%8Dko/153189688073768","+420 274 867 374","Kavárna / Čajovna","https://www.google.com/maps/place/Cukr%C3%A1rna+Parapl%C3%AD%C4%8Dko/@50.0357361,14.5580854,17z/data=!3m1!4b1!4m6!3m5!1s0x470b8d8c7247fe41:0x5676169b077e861c!8m2!3d50.0357361!4d14.5580854!16s%2Fg%2F11b6v9b6bp?hl=cs&entry=ttu"
"Zelenkova cukrárna","4","114","Veronské nám. 403","Praha 15",,"CZ","http://www.zelenkovacukrarna.cz/","+420 702 088 383","Cukrárna","https://www.google.com/maps/place/Zelenkova+cukr%C3%A1rna/@50.0408642,14.5593564,17z/data=!3m1!4b1!4m6!3m5!1s0x470b8d88c512a877:0xc2fb2302db3bfa16!8m2!3d50.0408642!4d14.5593564!16s%2Fg%2F1pp2x7ys2?hl=cs&entry=ttu"
"Jsem Cukrář",,"0","Ovčí hájek 2","Praha 13",,"CZ",,"+420 725 766 395","Cukrárna","https://www.google.com/maps/place/Jsem+Cukr%C3%A1%C5%99/@50.0500151,14.349282,17z/data=!3m1!4b1!4m6!3m5!1s0x470b95b7a0bf30c7:0x47f744b4d3d63d3b!8m2!3d50.0500151!4d14.349282!16s%2Fg%2F11n5wp1sq9?hl=cs&entry=ttu"
"Dorty a Dortiky","4.3","22","Ovčí hájek 2153/2","Praha 13-Stodůlky",,"CZ","http://www.dortyadortiky.cz/","+420 725 766 395","Cukrárna","https://www.google.com/maps/place/Dorty+a+Dortiky/@50.049832,14.3494099,17z/data=!3m1!4b1!4m6!3m5!1s0x470b95e844d770a3:0x1862a83b3de71eb6!8m2!3d50.049832!4d14.3494099!16s%2Fg%2F11gdsfvsbq?hl=cs&entry=ttu"
"Zavalianis Sweet","4.7","406","62, Musílkova 335","Praha 5",,"CZ","http://www.zavalianissweet.cz/","+420 725 860 351","Cukrárna","https://www.google.com/maps/place/Zavalianis+Sweet/@50.0676494,14.3666353,17z/data=!3m1!4b1!4m6!3m5!1s0x470b95a33900728f:0xcc3ca0fa4ca9b86b!8m2!3d50.0676494!4d14.3666353!16s%2Fg%2F11b76vycnx?hl=cs&entry=ttu"
"Cukrárna Hájek & Hájková","3.8","241","15, Petržílkova 2583","Praha 13",,"CZ","http://www.cukrarna-hajek-hajkova.cz/","+420 730 150 840","Cukrárna","https://www.google.com/maps/place/Cukr%C3%A1rna+H%C3%A1jek+%26+H%C3%A1jkov%C3%A1/@50.0503871,14.3453691,17z/data=!3m1!4b1!4m6!3m5!1s0x470b95ef2c84c2f3:0xf83cf6ab8b42fe04!8m2!3d50.0503871!4d14.3453691!16s%2Fg%2F11bc7p20zq?hl=cs&entry=ttu"
"Sladká Pohotovost","4.6","36","Hábova 2345/7","Praha 13-Stodůlky",,"CZ","https://www.sladkapohotovost.cz/","+420 739 323 948","Cukrárna","https://www.google.com/maps/place/Sladk%C3%A1+Pohotovost/@50.0466052,14.3107516,17z/data=!3m1!4b1!4m6!3m5!1s0x470bbe068c155555:0x4bd7553460b3912f!8m2!3d50.0466052!4d14.3107516!16s%2Fg%2F11hsk3yhcw?hl=cs&entry=ttu"
"La Zmrzka Stodůlky","4.6","438","Náměstí Junkových 2870/3","Praha 13",,"CZ","http://lazmrzka.cz/","+420 725 726 727","Prodej zmrzliny","https://www.google.com/maps/place/La+Zmrzka+Stod%C5%AFlky/@50.0462191,14.3037666,17z/data=!3m1!4b1!4m6!3m5!1s0x470bbe08f6b5e831:0xaef1a0b26c88514e!8m2!3d50.0462191!4d14.3037666!16s%2Fg%2F11df7jy8hh?hl=cs&entry=ttu"
"Ovocný Světozor","4.4","726","Plzeňská 1234/279","Praha 13-Stodůlky",,"CZ","https://www.ovocnysvetozor.cz/","+420 774 444 868","Cukrárna","https://www.google.com/maps/place/Ovocn%C3%BD+Sv%C4%9Btozor/@50.0627881,14.3142642,17z/data=!3m1!4b1!4m6!3m5!1s0x470bbe17fdacebbd:0x2260f5a7bb7cd98e!8m2!3d50.0627881!4d14.3142642!16s%2Fg%2F11f3vdg47_?hl=cs&entry=ttu"
"Ovocný Světozor","4.5","707","15, Havlíčkova 1682","Nové Město",,"CZ","http://www.ovocnysvetozor.cz/","+420 774 444 873","Cukrárna","https://www.google.com/maps/place/Ovocn%C3%BD+Sv%C4%9Btozor/@50.0893259,14.432248,17z/data=!3m1!4b1!4m6!3m5!1s0x470b94955001a161:0x62de9eee8308a9be!8m2!3d50.0893259!4d14.432248!16s%2Fg%2F1tpljfzh?hl=cs&entry=ttu"
"Cukrář Skála","4.7","798","V Celnici 1034/6","Nové Město",,"CZ","http://www.cukrarskala.cz/","+420 220 199 381","Cukrárna","https://www.google.com/maps/place/Cukr%C3%A1%C5%99+Sk%C3%A1la/@50.08784,14.4308377,17z/data=!3m1!4b1!4m6!3m5!1s0x470b94952d448a37:0x7ee594b941c6f7f4!8m2!3d50.08784!4d14.4308377!16s%2Fg%2F11f3bnk7yx?hl=cs&entry=ttu"
"Ovocný Světozor","4.5","2324","Vodičkova 39","Nové Město",,"CZ","http://www.ovocnysvetozor.cz/","+420 774 444 874","Prodejna zákusků","https://www.google.com/maps/place/Ovocn%C3%BD+Sv%C4%9Btozor/@50.0818334,14.4249549,17z/data=!3m1!4b1!4m6!3m5!1s0x470b94ed6b2b4901:0x903a72560e94902f!8m2!3d50.0818334!4d14.4249549!16s%2Fg%2F1tg_drxp?hl=cs&entry=ttu"
"Pekárna a Cukrárna Václav Kotyza","4.7","3","Katovická 411","Praha 8-Bohnice",,"CZ",,,"Kavárna","https://www.google.com/maps/place/Pek%C3%A1rna+a+Cukr%C3%A1rna+V%C3%A1clav+Kotyza/@50.1314327,14.4240534,17z/data=!3m1!4b1!4m6!3m5!1s0x470bebf9a66653ed:0x209fac960540d64f!8m2!3d50.1314327!4d14.4240534!16s%2Fg%2F11p0vr_chk?hl=cs&entry=ttu"
"Karlovarské cukrářství","5","19","Hlaváčova 12","Praha 8-Kobylisy",,"CZ","https://www.karlovarskecukrarstvi.cz/","+420 723 726 644","Cukrárna","https://www.google.com/maps/place/Karlovarsk%C3%A9+cukr%C3%A1%C5%99stv%C3%AD/@50.1291141,14.4702717,17z/data=!3m1!4b1!4m6!3m5!1s0x470beb67a7876a7d:0x77f306be40317fa1!8m2!3d50.1291141!4d14.4702717!16s%2Fg%2F11gh2vqy75?hl=cs&entry=ttu"
"Cukrárna Hájek&Hájková","4.4","38","Střelničná 1660","Praha 8",,"CZ","http://www.cukrarna-hajek-hajkova.cz/","+420 773 704 324","Cukrárna","https://www.google.com/maps/place/Cukr%C3%A1rna+H%C3%A1jek%26H%C3%A1jkov%C3%A1/@50.1272151,14.4692717,17z/data=!3m1!4b1!4m6!3m5!1s0x470beb9d5bfabbdb:0x37bb7951b91026b7!8m2!3d50.1272151!4d14.4692717!16s%2Fg%2F11t75d1780?hl=cs&entry=ttu"
"Dorty na svatbu",,"0","Staroměstské nám. 22","Staré Město",,"CZ","http://www.dortynasvatbu.cz/","+420 221 632 522","Cukrárna","https://www.google.com/maps/place/Dorty+na+svatbu/@50.0868368,14.4211099,17z/data=!3m1!4b1!4m6!3m5!1s0x470b94e94881f603:0xea5031aa94bcfe26!8m2!3d50.0868368!4d14.4211099!16s%2Fg%2F11bbt8qdtz?hl=cs&entry=ttu"
"Kavárna Šlágr","4.7","1151","Francouzská 72","Praha 10-Vinohrady",,"CZ","http://www.kavarnaslagr.cz/","+420 607 277 688","Kavárna / Čajovna","https://www.google.com/maps/place/Kav%C3%A1rna+%C5%A0l%C3%A1gr/@50.072,14.4456798,17z/data=!3m1!4b1!4m6!3m5!1s0x470b948143533f77:0xd1887da5e5ecde5d!8m2!3d50.072!4d14.4456798!16s%2Fg%2F1v6l66gq?hl=cs&entry=ttu"
"Trdelník Sweet Dreams","4.2","676","Celetná 565","Staré Město",,"CZ",,,"Francouzská cukrárna","https://www.google.com/maps/place/Trdeln%C3%ADk+Sweet+Dreams/@50.0871135,14.4247545,17z/data=!3m1!4b1!4m6!3m5!1s0x470b94ebbfeb5b37:0xa41c43bd01842f48!8m2!3d50.0871135!4d14.4247545!16s%2Fg%2F11ddwxs90j?hl=cs&entry=ttu"
"Libeřské lahůdky","4.4","671","Na Žertvách 107/8","Praha 8-Palmovka",,"CZ","http://www.liberskelahudky.cz/","+420 731 151 317","Lahůdky","https://www.google.com/maps/place/Libe%C5%99sk%C3%A9+lah%C5%AFdky/@50.1035081,14.4742995,17z/data=!3m1!4b1!4m6!3m5!1s0x470b93548f42260b:0xf8fc84055550a45f!8m2!3d50.1035081!4d14.4742995!16s%2Fg%2F1tr7bjbw?hl=cs&entry=ttu"
"Cukrárna Apricot","4.3","6","Veltruská 559/31","Praha 9-Prosek",,"CZ",,"+420 725 447 199","Prodej zmrzliny","https://www.google.com/maps/place/Cukr%C3%A1rna+Apricot/@50.1211009,14.4939464,17z/data=!3m1!4b1!4m6!3m5!1s0x470bed4ffe04a213:0xb8ad2df9a209a6!8m2!3d50.1211009!4d14.4939464!16s%2Fg%2F11kpmb8sdx?hl=cs&entry=ttu"
"Karlíkova továrna na dorty","4.5","41","Českomoravská 1308","Praha 9-Libeň",,"CZ","http://www.karlikovy-dorty.cz/","+420 728 379 380","Prodejna zákusků","https://www.google.com/maps/place/Karl%C3%ADkova+tov%C3%A1rna+na+dorty/@50.104176,14.4856889,17z/data=!3m1!4b1!4m6!3m5!1s0x470b934d3248aec3:0x1908014366b36f42!8m2!3d50.104176!4d14.4856889!16s%2Fg%2F1tfj1w_d?hl=cs&entry=ttu"
"Le Caveau Cukrárna, kavárna, čajovna","4.5","633","nám. J. z Poděbrad 9","Praha 3-Vinohrady",,"CZ","http://www.broz-d.cz/","+420 775 294 864","Kavárna / Čajovna","https://www.google.com/maps/place/Le+Caveau+Cukr%C3%A1rna,+kav%C3%A1rna,+%C4%8Dajovna/@50.0786484,14.449994,17z/data=!3m1!4b1!4m6!3m5!1s0x470b949cea1a85ef:0xd71e0b6894933784!8m2!3d50.0786484!4d14.449994!16s%2Fg%2F1q5bmk6p5?hl=cs&entry=ttu"
"Delice Café","4.7","387","Sokolovská 222/39","Karlín",,"CZ","http://www.delicecafe.cz/","+420 222 950 616","Kavárna","https://www.google.com/maps/place/Delice+Caf%C3%A9/@50.092425,14.4434033,17z/data=!3m1!4b1!4m6!3m5!1s0x470b94bc5dc8bb77:0xb118093100d9e84f!8m2!3d50.092425!4d14.4434033!16s%2Fg%2F11c6v92qc3?hl=cs&entry=ttu"
"Cukrářství čp.1","4.9","236","Čáslavská 1791/1","Vinohrady",,"CZ","https://www.cukrarstvicp1.cz/","+420 608 218 230","Cukrárna","https://www.google.com/maps/place/Cukr%C3%A1%C5%99stv%C3%AD+%C4%8Dp.1/@50.0756956,14.4602206,17z/data=!3m1!4b1!4m6!3m5!1s0x470b93ccd01e94f1:0xe5ec0d7352dc6717!8m2!3d50.0756956!4d14.4602206!16s%2Fg%2F11fhn3fv6v?hl=cs&entry=ttu"
"Zavalianis Sweet","4.8","74","Puškinovo nám. 691/16","Praha 6-Bubeneč",,"CZ","https://zavalianissweet.cz/","+420 724 304 059","Francouzská cukrárna","https://www.google.com/maps/place/Zavalianis+Sweet/@50.1028059,14.4020109,17z/data=!3m1!4b1!4m6!3m5!1s0x470b9565f9bfc445:0x50c2fa9fa0ac7e1a!8m2!3d50.1028059!4d14.4020109!16s%2Fg%2F11v0gmjdpq?hl=cs&entry=ttu"
"Kavárna - Cukrárna Elvíra","4.6","197","Kozí 858/13","Staré Město",,"CZ","http://elviracafe.com/","+420 721 600 502","Kavárna / Čajovna","https://www.google.com/maps/place/Kav%C3%A1rna+-+Cukr%C3%A1rna+Elv%C3%ADra/@50.0909425,14.4220795,17z/data=!3m1!4b1!4m6!3m5!1s0x470b9509d0f2e021:0xeaa6bfe73ad435e8!8m2!3d50.0909425!4d14.4220795!16s%2Fg%2F11h5qpmm2p?hl=cs&entry=ttu"
"Lahůdky a kavárna na faře","4.7","144","Křižíkova 7/57","Karlín",,"CZ","http://www.lahudkynafare.cz/","+420 725 930 748","Kavárna / Čajovna","https://www.google.com/maps/place/Lah%C5%AFdky+a+kav%C3%A1rna+na+fa%C5%99e/@50.0922534,14.4494862,17z/data=!3m1!4b1!4m6!3m5!1s0x470b94a3429d7a9f:0x3d31b97f1d232cc8!8m2!3d50.0922534!4d14.4494862!16s%2Fg%2F11bxc5t8cq?hl=cs&entry=ttu"
"Café Millème","4.5","258","Klimentská 2067/34","Petrská čtvrť",,"CZ","http://www.milleme.cz/","+420 775 096 621","Cukrárna","https://www.google.com/maps/place/Caf%C3%A9+Mill%C3%A8me/@50.0920398,14.4315258,17z/data=!3m1!4b1!4m6!3m5!1s0x470b94c06f6f17a5:0x51bb285aa8726376!8m2!3d50.0920398!4d14.4315258!16s%2Fg%2F11gfck3h3y?hl=cs&entry=ttu"
"Ovocný Světozor","4.4","1704","Dejvická 9","Praha 6",,"CZ","https://www.ovocnysvetozor.cz/","+420 774 444 845","Cukrárna","https://www.google.com/maps/place/Ovocn%C3%BD+Sv%C4%9Btozor/@50.0981751,14.3998908,17z/data=!3m1!4b1!4m6!3m5!1s0x470b95215dbadca7:0x76cd8f5ef75f1ced!8m2!3d50.0981751!4d14.3998908!16s%2Fg%2F11bc73cqd6?hl=cs&entry=ttu"
"OLLIES Praha - Holešovice","5","7","Tusarova 39a","Praha 7-Holešovice",,"CZ","http://www.ollies.cz/","+420 603 424 268","Cukrárna","https://www.google.com/maps/place/OLLIES+Praha+-+Hole%C5%A1ovice/@50.1020286,14.4510813,17z/data=!3m1!4b1!4m6!3m5!1s0x470b95d9946543eb:0xa7e427e3cc281533!8m2!3d50.1020286!4d14.4510813!16s%2Fg%2F11kj3kskjk?hl=cs&entry=ttu"
"Ovocný Světozor","4.5","1453","22, Sokolovská 32","Karlín",,"CZ","http://www.ovocnysvetozor.cz/","+420 774 444 872","Prodejna zákusků","https://www.google.com/maps/place/Ovocn%C3%BD+Sv%C4%9Btozor/@50.0915278,14.4408669,17z/data=!3m1!4b1!4m6!3m5!1s0x470b94bc32a29d95:0x5b63d6287bf2701!8m2!3d50.0915278!4d14.4408669!16s%2Fg%2F1tglxpxv?hl=cs&entry=ttu"
"Dortnaobjednavku.cz","4.8","21","Křižíkova 7","Praha 8-Karlín",,"CZ","http://www.dortnaobjednavku.cz/","+420 777 322 153","Cukrárna","https://www.google.com/maps/place/Dortnaobjednavku.cz/@50.0922593,14.4494797,17z/data=!3m1!4b1!4m6!3m5!1s0x470b94a4911bf37f:0x52c196b836969300!8m2!3d50.0922593!4d14.4494797!16s%2Fg%2F11gczsz7lk?hl=cs&entry=ttu"
"Sladké","4.8","6","Křižíkova 105","Praha 8-Karlín",,"CZ","https://sladke.shop/","+420 314 004 550","Cukrárna","https://www.google.com/maps/place/Sladk%C3%A9/@50.0935231,14.4550788,17z/data=!3m1!4b1!4m6!3m5!1s0x470b94a41f52bb07:0x644d595eda32daaa!8m2!3d50.0935231!4d14.4550788!16s%2Fg%2F11bbrn0d1k?hl=cs&entry=ttu"
"Dortíkovo","4.7","99","Mečislavova 208","Praha 4-Nusle",,"CZ","http://www.dortikovo.cz/","+420 773 663 991","Cukrárna","https://www.google.com/maps/place/Dort%C3%ADkovo/@50.0633211,14.4443509,17z/data=!3m1!4b1!4m6!3m5!1s0x470b947f3c774929:0x4033d7a0b3351e9f!8m2!3d50.0633211!4d14.4443509!16s%2Fg%2F1tdj_9f_?hl=cs&entry=ttu"
"Sluneční cukrárna","4.4","111","Pelzova","Zbraslav",,"CZ",,"+420 725 758 606","Prodej zmrzliny","https://www.google.com/maps/place/Slune%C4%8Dn%C3%AD+cukr%C3%A1rna/@49.9681295,14.3859501,17z/data=!3m1!4b1!4m6!3m5!1s0x470b97484e12e419:0x4609e134beaa5a6d!8m2!3d49.9681295!4d14.3859501!16s%2Fg%2F119vy2pqp?hl=cs&entry=ttu"
"MEC3","5","5","Psohlavců 1731/8a","Praha 4-Braník",,"CZ","https://www.mec3.cz/","+420 241 001 271","Velkoobchod s potravinami","https://www.google.com/maps/place/MEC3/@50.027284,14.4152878,17z/data=!3m1!4b1!4m6!3m5!1s0x470b917347c324a1:0x6f02b746cbf03a2b!8m2!3d50.027284!4d14.4152878!16s%2Fg%2F1tw_lz21?hl=cs&entry=ttu"
"Cukrárna Hanny Zbraslav","3.3","181","Zbraslavské nám. 467","Zbraslav",,"CZ","http://www.cukrarnahanny.cz/","+420 257 225 890","Prodejna zákusků","https://www.google.com/maps/place/Cukr%C3%A1rna+Hanny+Zbraslav/@49.9764329,14.394102,17z/data=!3m1!4b1!4m6!3m5!1s0x470b97317c566b69:0xc1018f4f10fbb1d2!8m2!3d49.9764329!4d14.394102!16s%2Fg%2F11cn304w61?hl=cs&entry=ttu"
"Cukrárna U Zámku","4.1","24","Zbraslavské nám. 457","Zbraslav",,"CZ",,"+420 777 130 366","Cukrárna","https://www.google.com/maps/place/Cukr%C3%A1rna+U+Z%C3%A1mku/@49.9763616,14.3930236,17z/data=!3m1!4b1!4m6!3m5!1s0x470b97316ca750d9:0x2e58b7da7ab01bd5!8m2!3d49.9763616!4d14.3930236!16s%2Fg%2F11c1lf0t26?hl=cs&entry=ttu"
"Cheecup","4.6","306","Nedvědovo nám. 14","Praha 4-Podolí",,"CZ","http://www.cheecup.cz/","+420 731 301 769","Cukrárna","https://www.google.com/maps/place/Cheecup/@50.0567556,14.4209393,17z/data=!3m1!4b1!4m6!3m5!1s0x470b94692efb7361:0x475d9a0355193ad0!8m2!3d50.0567556!4d14.4209393!16s%2Fg%2F119vlyzw0?hl=cs&entry=ttu"
"Caffé U Makronky","4.5","132","K Sídlišti 11","Praha 4",,"CZ","http://u-makronky.webnode.cz/","+420 603 914 459","Kavárna","https://www.google.com/maps/place/Caff%C3%A9+U+Makronky/@50.0461044,14.4299918,17z/data=!3m1!4b1!4m6!3m5!1s0x470b940c85cfe387:0x40864b66f49d3f50!8m2!3d50.0461044!4d14.4299918!16s%2Fg%2F11f0l1dt94?hl=cs&entry=ttu"
"OVOCNÝ SEMAFOR","2.9","18","Budějovická 615/47","Praha 4-Krč",,"CZ",,"+420 722 000 014","Cukrárna","https://www.google.com/maps/place/OVOCN%C3%9D+SEMAFOR/@50.0420162,14.4597433,17z/data=!3m1!4b1!4m6!3m5!1s0x470b93c7f792fe25:0x807a041dd0c971f9!8m2!3d50.0420162!4d14.4597433!16s%2Fg%2F11h8wn_z4v?hl=cs&entry=ttu"
"Ovocný Světozor","4.5","1307","Počátecká 412","Praha 4-Michle",,"CZ","https://www.ovocnysvetozor.cz/","+420 774 444 871","Cukrárna","https://www.google.com/maps/place/Ovocn%C3%BD+Sv%C4%9Btozor/@50.044121,14.4560547,17z/data=!3m1!4b1!4m6!3m5!1s0x470b93ecdc63cd69:0x15b4a71f929bed19!8m2!3d50.044121!4d14.4560547!16s%2Fg%2F1tfqdj5p?hl=cs&entry=ttu"
"Edita Paulusová",,"0","Ke Krči 759/26","Praha 4",,"CZ","http://www.editapaulusova.cz/","+420 606 843 368","Cukrárna","https://www.google.com/maps/place/Edita+Paulusov%C3%A1/@50.0368301,14.4107672,17z/data=!3m1!4b1!4m6!3m5!1s0x470b95daddc95977:0xa2ae2c0c9065e203!8m2!3d50.0368301!4d14.4107672!16s%2Fg%2F11sstl_73d?hl=cs&entry=ttu"
"Bezva dorty","4.9","13","Pertoldova 3344/6","Praha 12",,"CZ","http://www.bezvadorty.cz/","+420 732 186 496","Cukrárna","https://www.google.com/maps/place/Bezva+dorty/@50.0003671,14.426643,17z/data=!3m1!4b1!4m6!3m5!1s0x470b91d62942264b:0x961558e0e9fdd3b6!8m2!3d50.0003671!4d14.426643!16s%2Fg%2F11gnpvw4fy?hl=cs&entry=ttu"
"TOP DORTY - zakázková cukrářská výrobna","5","2","Pšenčíkova 674/24","Praha 12-Kamýk",,"CZ","https://www.facebook.com/TopDorty/","+420 777 242 452","Cukrárna","https://www.google.com/maps/place/TOP+DORTY+-+zak%C3%A1zkov%C3%A1+cukr%C3%A1%C5%99sk%C3%A1+v%C3%BDrobna/@50.0154679,14.4455096,17z/data=!3m1!4b1!4m6!3m5!1s0x470b912c52eff973:0x951b98f281b5e15f!8m2!3d50.0154679!4d14.4455096!16s%2Fg%2F11gzqrl92c?hl=cs&entry=ttu"
"Luxury Cakes","5","1","K Sádkám","Zbraslav",,"CZ",,"+420 777 812 296","Cukrárna","https://www.google.com/maps/place/Luxury+Cakes/@50.0043447,14.3966308,17z/data=!3m1!4b1!4m6!3m5!1s0x470b96c4394a039f:0x4ae52c9b1d441775!8m2!3d50.0043447!4d14.3966308!16s%2Fg%2F11clsz7mj0?hl=cs&entry=ttu"
"Anna Magdaléna","4.8","9","U Modřanské školy 143 00","Praha 12",,"CZ","http://www.annamagdalena.cz/kontakt","+420 734 473 420","Cukrárna","https://www.google.com/maps/place/Anna+Magdal%C3%A9na/@50.0068607,14.4042662,17z/data=!3m1!4b1!4m6!3m5!1s0x470b9132b6963ba7:0x925a350045658bb0!8m2!3d50.0068607!4d14.4042662!16s%2Fg%2F11gflymhvs?hl=cs&entry=ttu"
"Cukrárny",,"0","Pelzova 1513","Zbraslav",,"CZ",,,,"https://www.google.com/maps/place/Cukr%C3%A1rny/@49.9681459,14.3860542,17z/data=!3m1!4b1!4m6!3m5!1s0x470b97484d8a974d:0x2b64d4ed434f2172!8m2!3d49.9681459!4d14.3860542!16s%2Fg%2F11fsmt4p27?hl=cs&entry=ttu"
"Výdejní místo DHL (Cukrárna Poja)","4","6","Matějovského 153/11","Praha 16",,"CZ","https://locator.dhl.com/results?address=id:PRG03P&language=cs&lc=CZ&resultUom=km&clientAppCode=GYD","+420 840 103 000","Kurýrní služba","https://www.google.com/maps/place/V%C3%BDdejn%C3%AD+m%C3%ADsto+DHL+(Cukr%C3%A1rna+Poja)/@49.9848168,14.365188,17z/data=!3m1!4b1!4m6!3m5!1s0x470b97688659d629:0xbb84aa39f6a4d97e!8m2!3d49.9848168!4d14.365188!16s%2Fg%2F11gr14gh23?hl=cs&entry=ttu"
"PPL Parcelshop - Cukrárna Poja s.r.o","4.1","11","Matějovského 153/11","Praha 16",,"CZ",,"+420 225 331 500","Prodejna cukrovinek","https://www.google.com/maps/place/PPL+Parcelshop+-+Cukr%C3%A1rna+Poja+s.r.o/@49.9847911,14.3652999,17z/data=!3m1!4b1!4m6!3m5!1s0x470b974a7398f853:0x6c29b6914655ef07!8m2!3d49.9847911!4d14.3652999!16s%2Fg%2F11h3g9hs_4?hl=cs&entry=ttu"
"Ovocný Světozor","4.4","550","Roztylská 2321/19","Praha 4-Chodov",,"CZ","http://www.ovocnysvetozor.cz/","+420 774 444 876","Prodejna zákusků","https://www.google.com/maps/place/Ovocn%C3%BD+Sv%C4%9Btozor/@50.0306545,14.4912604,17z/data=!3m1!4b1!4m6!3m5!1s0x470b9232c2d3f475:0x9f0ae6a00d80b010!8m2!3d50.0306545!4d14.4912604!16s%2Fg%2F1v46z1q5?hl=cs&entry=ttu"
"Pekárna u Rudolfa","4","42","Mukařovského 2590","Praha 13-Stodůlky",,"CZ",,"+420 724 831 924","Pekařství","https://www.google.com/maps/place/Pek%C3%A1rna+u+Rudolfa/@50.0454219,14.3229013,17z/data=!3m1!4b1!4m6!3m5!1s0x470b95ff3a1125e9:0x49585421138f5f55!8m2!3d50.0454219!4d14.3229013!16s%2Fg%2F11f3n90cyr?hl=cs&entry=ttu"
"LaraFi výroba dortů","3.4","5","Štěpařská 892/13","Praha 5-Hlubočepy",,"CZ","http://www.hanasouckova.cz/","+420 773 222 061","Cukrárna","https://www.google.com/maps/place/LaraFi+v%C3%BDroba+dort%C5%AF/@50.0299731,14.3748988,17z/data=!3m1!4b1!4m6!3m5!1s0x470b968127053599:0x16a58c4e8fa8e4ef!8m2!3d50.0299731!4d14.3748988!16s%2Fg%2F11h9wg8nvy?hl=cs&entry=ttu"
"Pod okny","4.2","41","Praha 11 CZ, Jarníkova 1894/21","Praha 4-Chodov",,"CZ",,"+420 721 818 182","Kavárna / Čajovna","https://www.google.com/maps/place/Pod+okny/@50.0257371,14.490741,17z/data=!3m1!4b1!4m6!3m5!1s0x470b922c6feaa7b3:0xaef3063a5c8b8576!8m2!3d50.0257371!4d14.490741!16s%2Fg%2F11c0qnt6lk?hl=cs&entry=ttu"
"Cukrářská Výroba","5","1","Tererova 1355/4","Praha 11-Chodov",,"CZ",,,"Prodejna","https://www.google.com/maps/place/Cukr%C3%A1%C5%99sk%C3%A1+V%C3%BDroba/@50.0242457,14.5212918,17z/data=!3m1!4b1!4m6!3m5!1s0x470b921985bdae65:0x36bd4a2b06c3b094!8m2!3d50.0242457!4d14.5212918!16s%2Fg%2F11j2ynpnml?hl=cs&entry=ttu"
"Cafe Max Relax","4.8","16","Donovalská 31","Praha 11-Chodov",,"CZ","https://www.facebook.com/pg/cafemaxrelax/about/?ref=page_internal","+420 774 641 916","Kavárna / Čajovna","https://www.google.com/maps/place/Cafe+Max+Relax/@50.0365794,14.5058121,17z/data=!3m1!4b1!4m6!3m5!1s0x470b9237844b06d3:0x52249105ce31a603!8m2!3d50.0365794!4d14.5058121!16s%2Fg%2F11gdknqdvn?hl=cs&entry=ttu"
"La Zmrzka Café - Barrandov","4.6","57","Náměstí Olgy Scheinpflugové 1284/2","Praha 5-Barrandov",,"CZ","http://www.lazmrzka.cz/","+420 725 726 727","Prodej zmrzliny","https://www.google.com/maps/place/La+Zmrzka+Caf%C3%A9+-+Barrandov/@50.0301401,14.3621704,17z/data=!3m1!4b1!4m6!3m5!1s0x470b97b62c6bdc47:0xd844f58049db7310!8m2!3d50.0301401!4d14.3621704!16s%2Fg%2F11rfwkfm7m?hl=cs&entry=ttu"
"Jedlý papír na dort",,"0","Brigádnická","Ďáblice",,"CZ",,"+420 602 305 898","Cukrárna","https://www.google.com/maps/place/Jedl%C3%BD+pap%C3%ADr+na+dort/@50.1446575,14.4775268,17z/data=!3m1!4b1!4m6!3m5!1s0x470beb79acccdbb3:0x7eecaae0cac4791!8m2!3d50.1446575!4d14.4775268!16s%2Fg%2F11fmx0_2z3?hl=cs&entry=ttu"
"Monika Bohosova - potahovací hmota Formix",,"0","Prosecká 682","Praha 9-Prosek",,"CZ","http://www.potahovaci-hmota-formix.eu/","+420 608 380 039","Cukrárna","https://www.google.com/maps/place/Monika+Bohosova+-+potahovac%C3%AD+hmota+Formix/@50.1207571,14.5024757,17z/data=!3m1!4b1!4m6!3m5!1s0x470becbe541b74b3:0x4ab70266d3ac250b!8m2!3d50.1207571!4d14.5024757!16s%2Fg%2F12lsx7d0y?hl=cs&entry=ttu"
"Piaf House","4.5","55","Hřenská 1","Ďáblice",,"CZ","http://www.dortypiaf.cz/","+420 774 220 921","Cukrárna","https://www.google.com/maps/place/Piaf+House/@50.1439209,14.4734585,17z/data=!3m1!4b1!4m6!3m5!1s0x470beb7769cbbb83:0xf0482f2ad0ff3b16!8m2!3d50.1439209!4d14.4734585!16s%2Fg%2F11dzss4017?hl=cs&entry=ttu"
"Sladká dílna - Čakovice","4.8","603","Cukrovarská 15/20","Praha-Čakovice",,"CZ","http://www.sladkadilna.cz/","+420 775 033 520","Cukrárna","https://www.google.com/maps/place/Sladk%C3%A1+d%C3%ADlna+-+%C4%8Cakovice/@50.1515518,14.5228229,17z/data=!3m1!4b1!4m6!3m5!1s0x470bec5d086ca579:0xb593dd48d02d8585!8m2!3d50.1515518!4d14.5228229!16s%2Fg%2F11gff2t3_7?hl=cs&entry=ttu"
"Cukrárna DORTINI - WWW.DORTINI.CZ","4.8","175","Freyova 82/27","Praha 9-Vysočany",,"CZ","http://www.dortini.cz/","+420 775 114 242","Zákusková restaurace","https://www.google.com/maps/place/Cukr%C3%A1rna+DORTINI+-+WWW.DORTINI.CZ/@50.1084438,14.5011572,17z/data=!3m1!4b1!4m6!3m5!1s0x470b95842e9903e3:0x64a7e8322bc8ccee!8m2!3d50.1084438!4d14.5011572!16s%2Fg%2F11gzmbk1md?hl=cs&entry=ttu"
"Cukrářství Tichý","4","1","Klapkova 156","Praha 8-Kobylisy",,"CZ",,"+420 284 686 282","Pekařství","https://www.google.com/maps/place/Cukr%C3%A1%C5%99stv%C3%AD+Tich%C3%BD/@50.1244988,14.4559056,17z/data=!3m1!4b1!4m6!3m5!1s0x470beb41499237fb:0xfc9ff34d290e4820!8m2!3d50.1244988!4d14.4559056!16s%2Fg%2F11bc7r0n_8?hl=cs&entry=ttu"
"Terky Kejky","5","14","Dolnocholupická 18","Praha 12",,"CZ","https://www.facebook.com/terkykejky/","+420 605 543 366","Cukrárna","https://www.google.com/maps/place/Terky+Kejky/@49.999076,14.4139455,17z/data=!3m1!4b1!4m6!3m5!1s0x470b91c5039ccf85:0x88663838a38ae0f1!8m2!3d49.999076!4d14.4139455!16s%2Fg%2F11lkfw1kc9?hl=cs&entry=ttu"
"Dorty Havelková","4.7","13","Děčínská 464","Praha 9-Střížkov",,"CZ","http://www.dortyhavelkova.cz/","+420 720 161 168","Cukrárna","https://www.google.com/maps/place/Dorty+Havelkov%C3%A1/@50.125649,14.482572,17z/data=!3m1!4b1!4m6!3m5!1s0x470ecabec05218cb:0x6bd8937e2afc7252!8m2!3d50.125649!4d14.482572!16s%2Fg%2F12hk2h1zv?hl=cs&entry=ttu"
"SiCAKE - Svět Dortů OC Letňany",,"0","Veselská 663","Praha 18",,"CZ","https://www.sicake.cz/","+420 724 363 933","Cukrárna","https://www.google.com/maps/place/SiCAKE+-+Sv%C4%9Bt+Dort%C5%AF+OC+Let%C5%88any/@50.1377563,14.4983049,17z/data=!3m1!4b1!4m6!3m5!1s0x470bedbb9b79fa55:0xac43cbfa23394286!8m2!3d50.1377563!4d14.4983049!16s%2Fg%2F11v9vp4x6n?hl=cs&entry=ttu"
"Upečeme.cz","4.5","37","Rýmařovská 561","Letňany",,"CZ","https://www.upeceme.cz/","+420 778 461 955","Cukrárna","https://www.google.com/maps/place/Upe%C4%8Deme.cz/@50.135848,14.5104085,17z/data=!3m1!4b1!4m6!3m5!1s0x470bede960bef51b:0x1c1b2d609150513c!8m2!3d50.135848!4d14.5104085!16s%2Fg%2F11nfpnn6ks?hl=cs&entry=ttu"
"Cukrářství v zahradě","4.9","93","Ve žlíbku 72","Praha 20",,"CZ","http://www.cukrarstvivzahrade.cz/","+420 721 100 146","Cukrárna","https://www.google.com/maps/place/Cukr%C3%A1%C5%99stv%C3%AD+v+zahrad%C4%9B/@50.1124435,14.6253297,17z/data=!3m1!4b1!4m6!3m5!1s0x470bf3687da16037:0x72a11ec564b5a1b!8m2!3d50.1124435!4d14.6253297!16s%2Fg%2F11gxn81_dp?hl=cs&entry=ttu"
"Junior Cafe","3.6","97","Slavětínská 11","Praha-Klánovice",,"CZ",,,"Cukrárna","https://www.google.com/maps/place/Junior+Cafe/@50.0970206,14.6699746,17z/data=!3m1!4b1!4m6!3m5!1s0x470bf338a255f8fd:0x1115c07d44c328!8m2!3d50.0970206!4d14.6699746!16s%2Fg%2F113k31lln?hl=cs&entry=ttu"
"Dortini Cakes & Coffee","5","1","Chlumecká 765/6","Praha 9-Černý Most",,"CZ","https://www.dortini.cz/","+420 775 114 242","Cukrárna","https://www.google.com/maps/place/Dortini+Cakes+%26+Coffee/@50.108647,14.5850325,17z/data=!3m1!4b1!4m6!3m5!1s0x470bed42db392fe9:0xe011c5909f532f8d!8m2!3d50.108647!4d14.5850325!16s%2Fg%2F11kqr7ck5s?hl=cs&entry=ttu"
"Wink Cake","4.7","46","Náchodská 789/27","Praha 20",,"CZ","http://www.winkcake.cz/","+420 777 872 891","Cukrárna","https://www.google.com/maps/place/Wink+Cake/@50.1127035,14.5949969,17z/data=!3m1!4b1!4m6!3m5!1s0x470bf29f0d3e8e65:0xfc8a1e1a9f34a250!8m2!3d50.1127035!4d14.5949969!16s%2Fg%2F1jkxtns8x?hl=cs&entry=ttu"
"Dorty Daneta","5","5","Jordánská 701","Praha 14-Kyje",,"CZ","http://dortydaneta.cz/kontakt/","+420 604 217 108","Cukrárna","https://www.google.com/maps/place/Dorty+Daneta/@50.108676,14.5593843,17z/data=!3m1!4b1!4m6!3m5!1s0x470bed47637dbfe9:0x95797d7e029e412a!8m2!3d50.108676!4d14.5593843!16s%2Fg%2F11fmx0qcc8?hl=cs&entry=ttu"
"Ovocný Světozor","4.5","665","Chlumecká 6","Praha 9-Černý Most",,"CZ","http://www.ovocnysvetozor.cz/","+420 774 444 869","Cukrárna","https://www.google.com/maps/place/Ovocn%C3%BD+Sv%C4%9Btozor/@50.108458,14.5858114,17z/data=!3m1!4b1!4m6!3m5!1s0x470bed5f14c99e2f:0x87cb105211c72ab3!8m2!3d50.108458!4d14.5858114!16s%2Fg%2F1pxwkjg83?hl=cs&entry=ttu"
"Tichá kavárna","4.6","517","Burešova 1151/12","Praha 8",,"CZ","http://www.tichakavarna.cz/","+420 739 245 270","Kavárna / Čajovna","https://www.google.com/maps/place/Tich%C3%A1+kav%C3%A1rna/@50.1298495,14.4686951,17z/data=!3m1!4b1!4m6!3m5!1s0x470beb67ca6cf437:0x868f807a8a186319!8m2!3d50.1298495!4d14.4686951!16s%2Fg%2F11b7yvb54m?hl=cs&entry=ttu"
"Cukřenka","5","5","Brandejsovo nám. 1251/3","Praha-Suchdol",,"CZ","https://www.facebook.com/CukrenkaPraha",,"Cukrárna","https://www.google.com/maps/place/Cuk%C5%99enka/@50.1333008,14.377853,17z/data=!3m1!4b1!4m6!3m5!1s0x470beaa484786e4b:0xdc79650cabbf5706!8m2!3d50.1333008!4d14.377853!16s%2Fg%2F11hzvdjssc?hl=cs&entry=ttu"
"Nasladko.cz","4.7","218","6, Brandejsovo nám. 1234","Praha-Suchdol",,"CZ","https://www.nasladko.cz/","+420 777 031 214","Cukrárna","https://www.google.com/maps/place/Nasladko.cz/@50.1337118,14.3769166,17z/data=!3m1!4b1!4m6!3m5!1s0x470beaa478afe85f:0x6172290067d3bfd6!8m2!3d50.1337118!4d14.3769166!16s%2Fg%2F11b8_sk2_m?hl=cs&entry=ttu"
"Viňas","4.6","42","Počernická 81","Praha 10",,"CZ","https://vina.eatbu.com/","+420 777 154 940","Kavárna / Čajovna","https://www.google.com/maps/place/Vi%C5%88as/@50.0832353,14.5064285,17z/data=!3m1!4b1!4m6!3m5!1s0x470b93586ca23d73:0xda6a324b3d64fd31!8m2!3d50.0832353!4d14.5064285!16s%2Fg%2F11f08rthjp?hl=cs&entry=ttu"
"Bertíkova cukrárna","3","2","Českobrodská 1174","Praha 9-Kyje",,"CZ","https://www.e-cukrarna.cz/kontakty/",,"Restaurace / Kavárna","https://www.google.com/maps/place/Bert%C3%ADkova+cukr%C3%A1rna/@50.0898146,14.5512341,17z/data=!3m1!4b1!4m6!3m5!1s0x470b92b66c52d077:0x58d346af1f259984!8m2!3d50.0898146!4d14.5512341!16s%2Fg%2F11frt44nrt?hl=cs&entry=ttu"
"Trdlokafe","3.9","11","Park Hostivař, Švehlova 32","Praha 15",,"CZ",,,"Cukrárna","https://www.google.com/maps/place/Trdlokafe/@50.0537105,14.5182539,17z/data=!3m1!4b1!4m6!3m5!1s0x470b9393813dc47b:0x6a4ab38ff47ca3db!8m2!3d50.0537105!4d14.5182539!16s%2Fg%2F11ptrrd78d?hl=cs&entry=ttu"
"Park Café 67","4.1","265","Tilleho nám. 792","Praha 5-Hlubočepy",,"CZ",,"+420 777 747 400","Kavárna / Čajovna","https://www.google.com/maps/place/Park+Caf%C3%A9+67/@50.0344388,14.3769676,17z/data=!3m1!4b1!4m6!3m5!1s0x470b942a874df897:0x7e691f87b71f4bea!8m2!3d50.0344388!4d14.3769676!16s%2Fg%2F11cltchct_?hl=cs&entry=ttu"
"Homecakes","4","8","Renoirova 645","Praha 5",,"CZ","http://www.homecakes.cz/","+420 604 990 476","Cukrárna","https://www.google.com/maps/place/Homecakes/@50.0367461,14.3800109,17z/data=!3m1!4b1!4m6!3m5!1s0x470b942bb64b9d8b:0x3f9bb2346caca241!8m2!3d50.0367461!4d14.3800109!16s%2Fg%2F113gz2p5c?hl=cs&entry=ttu"
"Pekárna a cukrárna (výrobna) Wine Food","4.2","10","U Královské louky 892","Praha 5-Smíchov",,"CZ",,"+420 775 121 881","Ústředí společnosti","https://www.google.com/maps/place/Pek%C3%A1rna+a+cukr%C3%A1rna+(v%C3%BDrobna)+Wine+Food/@50.0630145,14.4102263,17z/data=!3m1!4b1!4m6!3m5!1s0x470b945b6354f9bf:0x3a2fd60224dc37a5!8m2!3d50.0630145!4d14.4102263!16s%2Fg%2F11dfjyl70y?hl=cs&entry=ttu"
"Si cake","4.3","4","OC Nový, Plzeňská 8","Praha 5-Smíchov",,"CZ","http://www.sicake.cz/","+420 777 266 933","Cukrárna","https://www.google.com/maps/place/Si+cake/@50.0725094,14.4026182,17z/data=!3m1!4b1!4m6!3m5!1s0x470b95a90fa4435d:0xf4e02b8b44ccdb47!8m2!3d50.0725094!4d14.4026182!16s%2Fg%2F11hn7nschf?hl=cs&entry=ttu"
"Dolce Carosello","4.4","600","Turnovského 497/2","Strašnice",,"CZ","http://www.dolce-carosello.cz/","+420 274 774 251","Cukrárna","https://www.google.com/maps/place/Dolce+Carosello/@50.0757506,14.5003605,17z/data=!3m1!4b1!4m6!3m5!1s0x470b931a2f0d3189:0x9c54ec8a2faf17ac!8m2!3d50.0757506!4d14.5003605!16s%2Fg%2F1q5bqw3rt?hl=cs&entry=ttu"
"DobrýCukrář.cz",,"0","U Císařské cesty 178","Praha-Benice",,"CZ","http://www.dobry-cukrar.cz/","+420 777 849 161","Pečení svatebního cukroví","https://www.google.com/maps/place/Dobr%C3%BDCukr%C3%A1%C5%99.cz/@50.014671,14.6053363,17z/data=!3m1!4b1!4m6!3m5!1s0x470b8dc771044443:0xcbd448bc05872cbb!8m2!3d50.014671!4d14.6053363!16s%2Fg%2F11jfcc6519?hl=cs&entry=ttu"
"Smetanová cukrárna Výrobna lahůdek","3","31","Metodějova 1464/11","Praha 11-Chodov",,"CZ","http://www.smetanova-cukrarna.cz/","+420 242 487 432","Výroba a dodávky potravin","https://www.google.com/maps/place/Smetanov%C3%A1+cukr%C3%A1rna+V%C3%BDrobna+lah%C5%AFdek/@50.0280598,14.5203903,17z/data=!3m1!4b1!4m6!3m5!1s0x470b9217099440e7:0xcc9c9b0688cbb7b3!8m2!3d50.0280598!4d14.5203903!16s%2Fg%2F11f2wlrcx2?hl=cs&entry=ttu"
"Pekařství Cukrářství","3.3","4","Na Okraji 439/46","Praha 6-Veleslavín",,"CZ",,,"Pekařství","https://www.google.com/maps/place/Peka%C5%99stv%C3%AD+Cukr%C3%A1%C5%99stv%C3%AD/@50.0898562,14.3436105,17z/data=!3m1!4b1!4m6!3m5!1s0x470bbfd7e3db426d:0x5c34ab2c332e8dc!8m2!3d50.0898562!4d14.3436105!16s%2Fg%2F11j8llcblb?hl=cs&entry=ttu"
"Sweet & Fresh","3.7","3","Obora Hvězda","Praha 6",,"CZ",,"+420 777 215 344","Cukrárna","https://www.google.com/maps/place/Sweet+%26+Fresh/@50.0774883,14.339594,17z/data=!3m1!4b1!4m6!3m5!1s0x470b9580f1dda083:0x97b581688022f81d!8m2!3d50.0774883!4d14.339594!16s%2Fg%2F11gcx_7gr9?hl=cs&entry=ttu"
"Ovocný světozor","4.6","145","Nuselská 133/134","Praha 4-Michle",,"CZ","https://www.ovocnysvetozor.cz/pobocky/nuselska","+420 774 444 846","Cukrárna","https://www.google.com/maps/place/Ovocn%C3%BD+sv%C4%9Btozor/@50.0547252,14.4523426,17z/data=!3m1!4b1!4m6!3m5!1s0x470b938f12db7c7b:0x32b33d137733056e!8m2!3d50.0547252!4d14.4523426!16s%2Fg%2F11f4qxyn_g?hl=cs&entry=ttu"
"Makronky z Vinohrad",,"0","Šrobárova 2077","Vinohrady",,"CZ","https://www.makronkyzvinohrad.cz/","+420 777 610 744","Cukrárna","https://www.google.com/maps/place/Makronky+z+Vinohrad/@50.0763306,14.4718947,17z/data=!3m1!4b1!4m6!3m5!1s0x470b9343d4caa9eb:0xf2c0ee530e426068!8m2!3d50.0763306!4d14.4718947!16s%2Fg%2F11sf8t0jh3?hl=cs&entry=ttu"
"DESERTERIE",,"0","Táboritská","Praha 3-Žižkov",,"CZ",,,"Cukrárna","https://www.google.com/maps/place/DESERTERIE/@50.0825816,14.4562772,17z/data=!3m1!4b1!4m6!3m5!1s0x470b95dd9a63ca07:0x71744f3a657e1e7a!8m2!3d50.0825816!4d14.4562772!16s%2Fg%2F11k46pyycf?hl=cs&entry=ttu"
"Moravské koláčky Doležal","4.9","75","Žitomírská 650","Praha 10-Vršovice",,"CZ","http://www.moravskacukrarna.cz/","+420 607 084 545","Cukrárna","https://www.google.com/maps/place/Moravsk%C3%A9+kol%C3%A1%C4%8Dky+Dole%C5%BEal/@50.0705964,14.4577227,17z/data=!3m1!4b1!4m6!3m5!1s0x470b937eae845e21:0xe3748fbd0e29ba77!8m2!3d50.0705964!4d14.4577227!16s%2Fg%2F11c70bkrnp?hl=cs&entry=ttu"
"Sugar MaMa","5","28","Milešovská 1609/8","Praha 2-Vinohrady",,"CZ","http://www.sugarmama.cz/","+420 773 504 183","Cukrárna","https://www.google.com/maps/place/Sugar+MaMa/@50.0794474,14.451689,17z/data=!3m1!4b1!4m6!3m5!1s0x470b953750589775:0x1466046e1a9ccf4a!8m2!3d50.0794474!4d14.451689!16s%2Fg%2F11sz2w102d?hl=cs&entry=ttu"
"Sladká tečka","5","2","Biskupcova 1718/40","Praha 3",,"CZ",,"+420 775 987 578","Cukrárna","https://www.google.com/maps/place/Sladk%C3%A1+te%C4%8Dka/@50.0900751,14.4731495,17z/data=!3m1!4b1!4m6!3m5!1s0x470b93b442b5aaeb:0xa26cbaab3e593698!8m2!3d50.0900751!4d14.4731495!16s%2Fg%2F11sb9lbcb1?hl=cs&entry=ttu"
"Vinohradské dorty","5","10","Polská 1664/15","Vinohrady",,"CZ","http://www.vinohradskedorty.cz/",,"Cukrárna","https://www.google.com/maps/place/Vinohradsk%C3%A9+dorty/@50.078909,14.447322,17z/data=!3m1!4b1!4m6!3m5!1s0x470b9500727f6bdd:0xcac5de5f11a1dc88!8m2!3d50.078909!4d14.447322!16s%2Fg%2F11fj7xkxsy?hl=cs&entry=ttu"
"Ovocný Světozor","4.4","1427","V Olšinách 1022","Strašnice",,"CZ","http://www.ovocnysvetozor.cz/","+420 774 444 847","Prodejna zákusků","https://www.google.com/maps/place/Ovocn%C3%BD+Sv%C4%9Btozor/@50.0710157,14.4843196,17z/data=!3m1!4b1!4m6!3m5!1s0x470b930da654a81d:0x5578d0341fb3e598!8m2!3d50.0710157!4d14.4843196!16s%2Fg%2F12mj7knl6?hl=cs&entry=ttu"
"Ovocný Světozor","3.6","188","Vinohradská 2828/151","Praha 3-Žižkov",,"CZ","http://www.ovocnysvetozor.cz/","+420 774 444 878","Cukrárna","https://www.google.com/maps/place/Ovocn%C3%BD+Sv%C4%9Btozor/@50.0782584,14.4610952,17z/data=!3m1!4b1!4m6!3m5!1s0x470b9363a1903713:0x19ba0ef869228256!8m2!3d50.0782584!4d14.4610952!16s%2Fg%2F1ts3jy9c?hl=cs&entry=ttu"
"Joy Bakery","5","82","Petrohradská 1478/41","Praha 10-Vršovice",,"CZ","http://www.joy-bakery.cz/","+420 775 069 519","Cukrárna","https://www.google.com/maps/place/Joy+Bakery/@50.0683032,14.4508018,17z/data=!3m1!4b1!4m6!3m5!1s0x470b937899336af5:0x4d38a8fe6619065!8m2!3d50.0683032!4d14.4508018!16s%2Fg%2F11ssqb1xcl?hl=cs&entry=ttu"
"Koláčové království","4.8","191","28, Táborská 583","Praha 4-Nusle",,"CZ","http://www.kolacovekralovstvi.cz/","+420 730 504 356","Pekařství","https://www.google.com/maps/place/Kol%C3%A1%C4%8Dov%C3%A9+kr%C3%A1lovstv%C3%AD/@50.0618722,14.4377321,17z/data=!3m1!4b1!4m6!3m5!1s0x470b947be9d830c7:0xb842a5d26419f121!8m2!3d50.0618722!4d14.4377321!16s%2Fg%2F11d_bh0fqx?hl=cs&entry=ttu"
"obchod se sladkostmi",,"0","Bystrá 761/10","Horní Počernice",,"CZ",,"+31 6 37928738","Cukrárna","https://www.google.com/maps/place/obchod+se+sladkostmi/@50.1149183,14.6020435,17z/data=!3m1!4b1!4m6!3m5!1s0x470bf386eb78ffc9:0x91381fcb5d459548!8m2!3d50.1149183!4d14.6020435!16s%2Fg%2F11vbrrx3xh?hl=cs&entry=ttu"
"Castella Bistro & Cukrarna","4.2","5","Kodaňská 649/20","Praha 10-Vršovice",,"CZ","https://castella-lounge.cz/","+420 777 521 181","Francouzská cukrárna","https://www.google.com/maps/place/Castella+Bistro+%26+Cukrarna/@50.0707088,14.4581714,17z/data=!3m1!4b1!4m6!3m5!1s0x470b9392a16490c3:0x4c8f116da4aab545!8m2!3d50.0707088!4d14.4581714!16s%2Fg%2F11ty79zl16?hl=cs&entry=ttu"
"U Chlupáče","4.6","51","Libošovická 1705/9","Praha 20",,"CZ",,,"Vinárna","https://www.google.com/maps/place/U+Chlup%C3%A1%C4%8De/@50.1110891,14.6011933,17z/data=!3m1!4b1!4m6!3m5!1s0x470bf298632a3fe9:0xbdceb52372896dcf!8m2!3d50.1110891!4d14.6011933!16s%2Fg%2F11cjhzn13_?hl=cs&entry=ttu"
"Ovocný Světozor",,"0","Ratibořická 20/2325/36","Praha 20",,"CZ",,,"Cukrárna","https://www.google.com/maps/place/Ovocn%C3%BD+Sv%C4%9Btozor/@50.1118395,14.6182569,17z/data=!3m1!4b1!4m6!3m5!1s0x470bf294c3f4ffff:0x140812fb4a14bf4c!8m2!3d50.1118395!4d14.6182569!16s%2Fg%2F11j2ynqzg0?hl=cs&entry=ttu"
"Baštova zmrzlinárna","4.5","576","nám. Bratří Synků 612","Praha 4-Nusle",,"CZ","http://www.bastovazmrzlina.cz/","+420 739 041 133","Prodejna zákusků","https://www.google.com/maps/place/Ba%C5%A1tova+zmrzlin%C3%A1rna/@50.0641278,14.4404745,17z/data=!3m1!4b1!4m6!3m5!1s0x470b947e9f6bee91:0x51c163d3b85c842a!8m2!3d50.0641278!4d14.4404745!16s%2Fg%2F11b_2t03jz?hl=cs&entry=ttu"
"Kavárna Sladký Život","4.7","143","Na Pískách 1256/39","Praha 6-Dejvice",,"CZ","https://sladkyzivot.cafe/?utm_source=gmb&utm_medium=referral","+420 602 728 266","Kavárna / Čajovna","https://www.google.com/maps/place/Kav%C3%A1rna+Sladk%C3%BD+%C5%BDivot/@50.1059,14.3731893,17z/data=!3m1!4b1!4m6!3m5!1s0x470b9506d997e2bb:0x795743b003ce8631!8m2!3d50.1059!4d14.3731893!16s%2Fg%2F11h5v4_zs4?hl=cs&entry=ttu"
"Café Globus","4","79","Kostelecká 823/77","Praha-Čakovice",,"CZ","https://www.globus.cz/praha-cakovice/nabidka/cafe-globus.html?y_source=1_MTYyODI4ODktNzE1LWxvY2F0aW9uLndlYnNpdGU%3D","+420 800 241 242","Samoobslužná jídelna","https://www.google.com/maps/place/Caf%C3%A9+Globus/@50.1508526,14.5065883,17z/data=!3m1!4b1!4m6!3m5!1s0x470bedf450d24177:0x785bed153b78e247!8m2!3d50.1508526!4d14.5065883!16s%2Fg%2F11h3m7knyt?hl=cs&entry=ttu"
"Síma Peče Sladkosti","4.5","16","Hrozenkovská 52","Praha 5",,"CZ","http://www.simapecesladkosti.cz/","+420 608 818 545","Cukrárna","https://www.google.com/maps/place/S%C3%ADma+Pe%C4%8De+Sladkosti/@50.0599794,14.2940764,17z/data=!3m1!4b1!4m6!3m5!1s0x470bbe6c77217e31:0x429fabe172050d7!8m2!3d50.0599794!4d14.2940764!16s%2Fg%2F11hzv5v0bf?hl=cs&entry=ttu"
"Be-nice cake","5","1","Okrasná","Praha-Benice",,"CZ",,"+420 602 107 500","Cukrárna","https://www.google.com/maps/place/Be-nice+cake/@50.0126391,14.5999264,17z/data=!3m1!4b1!4m6!3m5!1s0x470b8d98512d9237:0xf6cc3a3bc3fa9eb!8m2!3d50.0126391!4d14.5999264!16s%2Fg%2F11rn8brmhq?hl=cs&entry=ttu"
"Dorty Božská",,"0","Hořanská 1513/4","Praha 3-Žižkov",,"CZ","http://www.dorty-bozska.cz/","+420 607 554 035","Cukrárna","https://www.google.com/maps/place/Dorty+Bo%C5%BEsk%C3%A1/@50.0907515,14.4796119,17z/data=!3m1!4b1!4m6!3m5!1s0x470b937f30aada9d:0xd1c0c25a84716548!8m2!3d50.0907515!4d14.4796119!16s%2Fg%2F11hzvcv71h?hl=cs&entry=ttu"
"Sladky hrad","5","1","Freyova 983/25","Praha 9",,"CZ","http://sladkyhrad.cz/","+420 776 321 672","Cukrárna","https://www.google.com/maps/place/Sladky+hrad/@50.1053168,14.5019662,17z/data=!3m1!4b1!4m6!3m5!1s0x470bede56e01ba7f:0xe13a12a14db1a08e!8m2!3d50.1053168!4d14.5019662!16s%2Fg%2F11ftjnrdb6?hl=cs&entry=ttu"
"Dortiris - Dortové studio","4.8","4","Kuželova 574","Praha 18",,"CZ","https://dortiris.webnode.cz/","+420 777 033 251","Cukrárna","https://www.google.com/maps/place/Dortiris+-+Dortov%C3%A9+studio/@50.1408566,14.5097735,17z/data=!3m1!4b1!4m6!3m5!1s0x470bed8fe89950b3:0xf5e652aad4060e38!8m2!3d50.1408566!4d14.5097735!16s%2Fg%2F11m8wm95c_?hl=cs&entry=ttu"
"Dorty z Bifé",,"0","Vodní 544/4","Praha 5-Smíchov",,"CZ","http://dortyzbife.cz/",,"Cukrárna","https://www.google.com/maps/place/Dorty+z+Bif%C3%A9/@50.0785575,14.4075496,17z/data=!3m1!4b1!4m6!3m5!1s0x470b952796b74c61:0xf9ac5530a1c67daf!8m2!3d50.0785575!4d14.4075496!16s%2Fg%2F11td3g_6s5?hl=cs&entry=ttu"
"SiCAKE - Svět Dortů OC Nový Smíchov","3.9","7","Plzeňská 8","Praha 5-Anděl",,"CZ","http://www.sicake.cz/","+420 724 363 933","Cukrárna","https://www.google.com/maps/place/SiCAKE+-+Sv%C4%9Bt+Dort%C5%AF+OC+Nov%C3%BD+Sm%C3%ADchov/@50.0731616,14.4022526,17z/data=!3m1!4b1!4m6!3m5!1s0x470b95cc35f53035:0xd2df014304e20443!8m2!3d50.0731616!4d14.4022526!16s%2Fg%2F11hst2mmf6?hl=cs&entry=ttu"
