ID,distance,latitude,longitude,geometry,id_cukrarna,distance_mhd,stop_name_mhd,district,admin_district,street,house_num
2,4.0108473083641,49.9518,14.3394,POINT (14.3394 49.9518),589,0.17924822343768,Kazín,Lipence,Praha 16,Oddechová,804
4,3.597396529084826,49.9518,14.3494,POINT (14.3494 49.9518),589,0.9366256098755206,Ke Kazínu,Lipence,Praha 16,Kazín,ev. č. 109
5,3.4951356899665784,49.9518,14.3544,POINT (14.3544 49.9518),278,0.8893367007243345,Lipence,Lipence,Praha 16,K Obsinám,ev. č. 60
6,3.4049111913614096,49.9518,14.3594,POINT (14.3594 49.9518),278,1.0022082463793078,Na Lhotkách,Lipence,Praha 16,Pod Cukrákem,770/9
7,3.0055478904344115,49.9518,14.3644,POINT (14.3644 49.9518),271,0.4650766421900724,Na Lhotkách,Lipence,Praha 16,Na Lhotkách,865
8,2.58505593726218,49.9518,14.3694,POINT (14.3694 49.9518),271,0.2102883665605423,Na Lhotkách,Lipence,Praha 16,Jílovišťská,ev. č. 513
9,2.224356148609043,49.9518,14.3744,POINT (14.3744 49.9518),271,0.4408754515511424,K Chatám,Zbraslav,Praha 16,Za dálnicí,1329
10,1.956797473663212,49.9518,14.3794,POINT (14.3794 49.9518),271,0.101707628263292,Baně,Zbraslav,Praha 16,Na Baních,ev. č. 128
11,1.823842764608524,49.9518,14.3844,POINT (14.3844 49.9518),271,0.5615131143019972,Pod Zatáčkou,Zbraslav,Praha 16,Pod vysílačkou,1150
19,2.9535997448655094,49.9568,14.3544,POINT (14.3544 49.9568),589,0.3587348035173863,Lipence,Lipence,Praha 16,Spotřebitelská,370
20,2.8522103981940576,49.9568,14.3594,POINT (14.3594 49.9568),278,0.5566599934677219,Škola Lipence,Lipence,Praha 16,Českého červeného kříže,270
21,2.7067055677010754,49.9568,14.3644,POINT (14.3644 49.9568),271,0.4133568111672697,U Žlábku,Lipence,Praha 16,Pod Lečí,598
22,2.230571923813197,49.9568,14.3694,POINT (14.3694 49.9568),271,0.2421336742373452,Ke Štěrkovně,Lipence,Praha 16,Jílovišťská,699
24,1.4567063058365568,49.9568,14.3794,POINT (14.3794 49.9568),271,0.258399083847592,Pod Zatáčkou,Zbraslav,Praha 16,K Vejvoďáku,1597
25,1.2725326473392045,49.9568,14.3844,POINT (14.3844 49.9568),271,0.3063455867532881,Zbraslav,Zbraslav,Praha 16,K ubytovnám,1317
34,2.30061689337418,49.9618,14.3594,POINT (14.3594 49.9618),278,0.1437330749338594,U Kapličky,Lipence,Praha 16,Josefa Houdka,822
35,2.2992030836485,49.9618,14.3644,POINT (14.3644 49.9618),278,0.3564066993453703,U Žlábku,Lipence,Praha 16,Nad žlábkem,493
36,1.9708977689963296,49.9618,14.3694,POINT (14.3694 49.9618),271,0.374938442065224,U Žlábku,Lipence,Praha 16,Na Kyjově,890
39,0.7268605416963608,49.9618,14.3844,POINT (14.3844 49.9618),271,0.3538599786963122,Zbraslav,Zbraslav,Praha 16,Faltysova,1503
40,0.8010757293509567,49.9618,14.3894,POINT (14.3894 49.9618),271,0.5895960058137901,Kamenolom Zbraslav,Zbraslav,Praha 16,K výtopně,1267
41,1.170969000971004,49.9618,14.3944,POINT (14.3944 49.9618),271,0.2363517930364818,Kamenolom Zbraslav,Zbraslav,Praha 16,V hluboké,1018
43,2.312552587672442,49.9668,14.3444,POINT (14.3444 49.9668),589,1.094191808477288,Dehtínská,Lipence,Praha 16,Kazín,ev. č. 504
48,1.8464763535892776,49.9668,14.3694,POINT (14.3694 49.9668),271,0.1264151222892155,Pod Kyjovem,Lipence,Praha 16,Josefa Houdka,143
49,1.2941101195202682,49.9668,14.3744,POINT (14.3744 49.9668),271,0.2884438960510812,Peluněk,Zbraslav,Praha 16,Strakonická,1384
50,0.7456655272470606,49.9668,14.3794,POINT (14.3794 49.9668),271,0.2916807344561633,Kostrounek,Zbraslav,Praha 16,Fuchsova,135
51,0.2310046657640759,49.9668,14.3844,POINT (14.3844 49.9668),271,0.1232806677345416,Sídliště Zbraslav,Zbraslav,Praha 16,Tunelářů,328
52,0.4083616444829418,49.9668,14.3894,POINT (14.3894 49.9668),271,0.2595846771293019,U Včely,Zbraslav,Praha 16,Nad parkem,873
53,0.94668120809736,49.9668,14.3944,POINT (14.3944 49.9668),271,0.0817654013229133,Na Plácku,Zbraslav,Praha 16,Žitavského,543
55,3.0136193558524558,49.9668,14.4194,POINT (14.4194 49.9668),94,1.5234541342025592,Točná,Praha 12,Praha 12,Ke starému hřišti,ev. č. 78
56,3.5378191043648664,49.9668,14.4244,POINT (14.4244 49.9668),94,1.0503055850649454,Točná,Praha 12,Praha 12,Starý lis,ev. č. 94
60,1.3091015867303195,49.9718,14.3544,POINT (14.3544 49.9718),589,0.7668897587805356,Zdická,Lipence,Praha 16,Kazín,ev. č. 747
64,1.347519168685566,49.9718,14.3744,POINT (14.3744 49.9718),271,0.3466451805074747,Peluněk,Zbraslav,Praha 16,K Radotínu,1190
65,0.8349275340141278,49.9718,14.3794,POINT (14.3794 49.9718),271,0.4374737007562844,Kostrounek,Zbraslav,Praha 16,Beldova,343
66,0.4409649239282507,49.9718,14.3844,POINT (14.3844 49.9718),271,0.4318101701405453,Sídliště Zbraslav,Zbraslav,Praha 16,Pod urnovým hájem,811
67,0.554838842561593,49.9718,14.3894,POINT (14.3894 49.9718),271,0.353967377876532,U Včely,Zbraslav,Praha 16,K Havlínu,1209
68,0.4139930753986034,49.9718,14.3944,POINT (14.3944 49.9718),89,0.1283862679569054,Most Závodu míru,Zbraslav,Praha 16,Žitavského,513
69,0.7894489751583882,49.9718,14.3994,POINT (14.3994 49.9718),94,0.0701979384314325,Nádraží Zbraslav,Zbraslav,Praha 16,Závist,1161
74,3.410871098499402,49.9718,14.4244,POINT (14.4244 49.9718),94,0.8258912089485781,Točná,Praha 12,Praha 12,Hospodářská,164
75,3.9603477175391584,49.9718,14.4294,POINT (14.4294 49.9718),94,0.2835059294240414,Točná,Praha 12,Praha 12,Polovnická,276/10
76,3.905979475268615,49.9718,14.4344,POINT (14.4344 49.9718),74,0.3077416692918016,Točná,Praha 12,Praha 12,Branišovská,233/43
79,2.626870283936824,49.9768,14.3344,POINT (14.3344 49.9768),589,0.2173922225186705,Nýrská,Praha 16,Praha 16,Nýrská,ev. č. 2283
81,1.5883051171266185,49.9768,14.3444,POINT (14.3444 49.9768),589,0.0460294877090498,Dehtínská,Praha 16,Praha 16,Na Viničkách,1224/50
82,1.1215707616200004,49.9768,14.3494,POINT (14.3494 49.9768),589,0.1434404452244112,Vojetická,Praha 16,Praha 16,Karlická,1636/60
83,0.780499072101158,49.9768,14.3544,POINT (14.3544 49.9768),589,0.3903239512012749,Sídliště Radotín,Praha 16,Praha 16,Na Rymáni,316/13
84,0.6799558026865248,49.9768,14.3594,POINT (14.3594 49.9768),278,0.5082389795408677,Škola Radotín,Praha 16,Praha 16,K lázním,ev. č. 2089
90,0.4062085920987636,49.9768,14.3894,POINT (14.3894 49.9768),262,0.4609736801021207,Elišky Přemyslovny,Zbraslav,Praha 16,Bartoňova,1192
91,0.0560796443351853,49.9768,14.3944,POINT (14.3944 49.9768),94,0.1166708982239564,Zbraslavské náměstí,Zbraslav,Praha 16,Zbraslavské náměstí,1504
92,0.5976264048288803,49.9768,14.3994,POINT (14.3994 49.9768),94,0.3101779997974643,Závist,Zbraslav,Praha 16,Závist,1170
93,1.1520502215566897,49.9768,14.4044,POINT (14.4044 49.9768),94,0.2554845603133003,Závist,Zbraslav,Praha 16,Závist,ev. č. 139
108,0.8771560924319104,49.9818,14.3494,POINT (14.3494 49.9818),589,0.1827502965104218,Zderazská,Praha 16,Praha 16,Otínská,512/9
109,0.347362402571607,49.9818,14.3544,POINT (14.3544 49.9818),589,0.1816521416486222,Otínská,Praha 16,Praha 16,Sídliště,1072/12
110,0.2737702429075997,49.9818,14.3594,POINT (14.3594 49.9818),132,0.1357545996427807,Škola Radotín,Praha 16,Praha 16,Ke Zděři,372/5
111,0.2788737310983484,49.9818,14.3644,POINT (14.3644 49.9818),278,0.3402652450659895,Nádraží Radotín,Praha 16,Praha 16,Výpadová,582/2
118,0.8409131674070579,49.9818,14.3994,POINT (14.3994 49.9818),94,0.5514830367250898,Nad Závistí,Praha 12,Praha 12,Trnitá,ev. č. 258/7
120,1.8064633241774768,49.9818,14.4094,POINT (14.4094 49.9818),94,0.5943649449586111,Nad Závistí,Praha 12,Praha 12,Na Jitřence,ev. č. 229
136,0.4981891968825701,49.9868,14.3544,POINT (14.3544 49.9868),589,0.2684151555620419,U Kestřánků,Praha 16,Praha 16,Hadravská,ev. č. 2144
137,0.2931207577465459,49.9868,14.3594,POINT (14.3594 49.9868),132,0.2873907996709984,U Kestřánků,Praha 16,Praha 16,Na betonce,1388/22
138,0.2438256903013858,49.9868,14.3644,POINT (14.3644 49.9868),41,0.1092770437666422,Praha-Radotín,Praha 16,Praha 16,Prvomájová,110/34
139,0.5122890378497333,49.9868,14.3694,POINT (14.3694 49.9868),41,0.225376326528286,U Jankovky,Praha 16,Praha 16,Věštínská,1516/17
141,1.5863695157185418,49.9868,14.3794,POINT (14.3794 49.9868),41,0.8423828506919903,Přeštínská,Praha 16,Praha 16,Šárovo kolo,ev. č. 2295
146,1.6257997981698742,49.9868,14.4044,POINT (14.4044 49.9868),94,0.4612532599004898,Praha-Komořany,Praha 12,Praha 12,Na Šabatce,2218/19a
147,1.9203468423696683,49.9868,14.4094,POINT (14.4094 49.9868),111,0.2727194634612735,Na Šabatce,Praha 12,Praha 12,Pod lesem,2180/8
154,2.240430250847293,49.9868,14.4444,POINT (14.4444 49.9868),510,0.120428075856173,Cholupice,Praha 12,Praha 12,Hrazanská,128
155,1.7200272157036662,49.9868,14.4494,POINT (14.4494 49.9868),510,0.1914427194436949,Cholupické náměstí,Praha 12,Praha 12,Ke Kálku,103
156,1.2302477541583006,49.9868,14.4544,POINT (14.4544 49.9868),510,0.6327547359189916,Cholupické náměstí,Praha 12,Praha 12,U nové louky,67
157,0.8273907483537314,49.9868,14.4594,POINT (14.4594 49.9868),510,0.3429707486832503,Cholupický hřbitov,Praha 12,Praha 12,U Vrtilky,120
159,0.2518380831686819,49.9868,14.4694,POINT (14.4694 49.9868),643,0.4938845960911284,Písnice,Libuš,Praha 12,Předenická,663/6
166,1.704496599175149,49.9918,14.3444,POINT (14.3444 49.9918),589,0.1836473450646235,V Sudech,Praha 16,Praha 16,V sudech,1488/2
167,1.2808264850595164,49.9918,14.3494,POINT (14.3494 49.9918),589,0.2485465382734145,Safírová,Praha 16,Praha 16,Častonická,1008/6
168,0.978212916174858,49.9918,14.3544,POINT (14.3544 49.9918),132,0.50163930436897,Safírová,Praha 16,Praha 16,Slavičí,755/18
170,0.7854357479900685,49.9918,14.3644,POINT (14.3644 49.9918),41,0.1187761541163812,Plánická,Praha 16,Praha 16,Strážovská,382/71
171,0.9054824157711604,49.9918,14.3694,POINT (14.3694 49.9918),41,0.1601080349021167,Živcová,Praha 16,Praha 16,Radkovská,1129/12
172,1.2802099422831503,49.9918,14.3744,POINT (14.3744 49.9918),41,0.3017781058004155,Přeštínská,Praha 16,Praha 16,Přeštínská,1415
173,1.7532902176681566,49.9918,14.3794,POINT (14.3794 49.9918),41,0.4043272710817973,Přeštínská,Praha 16,Praha 16,Výpadová,1034/22
177,1.4631914636917889,49.9918,14.3994,POINT (14.3994 49.9918),111,0.4266263549379164,Lahovice,Zbraslav,Praha 16,Lahovská,9
178,1.313502174889899,49.9918,14.4044,POINT (14.4044 49.9918),111,0.0937695887234938,Praha-Komořany,Praha 12,Praha 12,U skladu,2078
179,1.3876947313658294,49.9918,14.4094,POINT (14.4094 49.9918),111,0.1524172785553865,Komořany,Praha 12,Praha 12,U vlečky,1748/6
180,1.5269799235327677,49.9918,14.4144,POINT (14.4144 49.9918),342,0.2255529966487814,Do Koutů,Praha 12,Praha 12,Za strojírnami,1599/17
181,1.5542590054531047,49.9918,14.4194,POINT (14.4194 49.9918),342,0.0782435535670729,Nové Komořany,Praha 12,Praha 12,Pacholíkova,2312/30
182,1.765169800668515,49.9918,14.4244,POINT (14.4244 49.9918),342,0.528817788727731,Nové Komořany,Praha 12,Praha 12,Pleštilova,2369/21
184,1.7032450776156345,49.9918,14.4344,POINT (14.4344 49.9918),74,0.2811666803293646,Cholupický vrch,Praha 12,Praha 12,K Ladům,ev. č. 185
185,1.6891427775004544,49.9918,14.4394,POINT (14.4394 49.9918),74,0.3367195829204809,Zálužická,Praha 12,Praha 12,U obce,73
186,1.8497061526475167,49.9918,14.4444,POINT (14.4444 49.9918),74,0.2767036854147238,Zálužická,Praha 12,Praha 12,Třebanická,183/11
189,0.4860194198912246,49.9918,14.4594,POINT (14.4594 49.9918),510,0.8631991788989177,Cholupický hřbitov,Praha 12,Praha 12,U nové louky,ev. č. 190
190,0.1527441991087288,49.9918,14.4644,POINT (14.4644 49.9918),510,0.4540999011233447,Ke Březině,Libuš,Praha 12,Zátoňská,19/11
191,0.3266359770667421,49.9918,14.4694,POINT (14.4694 49.9918),643,0.1214553179413187,Písnice,Libuš,Praha 12,Klenovická,298/7
192,0.5700981600779231,49.9918,14.4744,POINT (14.4744 49.9918),643,0.6573623576507942,Písnice,Libuš,Praha 12,Na losách,349/36
194,3.971767942506545,49.9968,14.3094,POINT (14.3094 49.9968),464,1.036204472380022,Maškův mlýn,Řeporyje,Praha 13,Kavylová,6
196,4.046658642522576,49.9968,14.3194,POINT (14.3194 49.9968),464,0.2515442278809067,Maškův mlýn,Praha 16,Praha 16,Na Cikánce,39/8
205,1.338064894237747,49.9968,14.3644,POINT (14.3644 49.9968),41,0.2110236463806435,Solná,Praha 16,Praha 16,Minerální,1765/6b
206,1.4118805729386366,49.9968,14.3694,POINT (14.3694 49.9968),41,0.3099044787842608,Lahovská,Praha 16,Praha 16,Jarmily Novotné,1651/20
213,0.7611193309196062,49.9968,14.4044,POINT (14.4044 49.9968),111,0.3689934792737959,Cukrovar Modřany,Praha 12,Praha 12,K modřanskému nádraží,222/2
214,0.8830126499204279,49.9968,14.4094,POINT (14.4094 49.9968),111,0.3155204929829734,K Vystrkovu,Praha 12,Praha 12,Nad zavážkou,1267/15
215,0.979595848618964,49.9968,14.4144,POINT (14.4144 49.9968),342,0.1788358510589419,Baba I,Praha 12,Praha 12,Churnajevova,1105/4
217,1.3205168552318811,49.9968,14.4244,POINT (14.4244 49.9968),342,0.0955376329380296,Hornocholupická,Praha 12,Praha 12,U jizby,1427/15
218,1.4199124266520748,49.9968,14.4294,POINT (14.4294 49.9968),74,0.1066246009178892,Na Beránku,Praha 12,Praha 12,Beránecká,2342/8
219,1.1628675022206725,49.9968,14.4344,POINT (14.4344 49.9968),74,0.2776166802039321,Cholupický vrch,Praha 12,Praha 12,Pod remízkem,ev. č. 184
220,1.1421122344502783,49.9968,14.4394,POINT (14.4394 49.9968),74,0.5908209687607767,Cholupický vrch,Praha 12,Praha 12,V Lipinách,ev. č. 43
224,0.635534658819653,49.9968,14.4594,POINT (14.4594 49.9968),510,0.908363216650359,Sídliště Písnice,Libuš,Praha 12,Ke březině,191/1
225,0.3918446848563892,49.9968,14.4644,POINT (14.4644 49.9968),27,0.3561065008457791,Lipovická,Libuš,Praha 12,Lipovická,419/3
226,0.1889533026444731,49.9968,14.4694,POINT (14.4694 49.9968),27,0.1990998868523746,Lipovická,Libuš,Praha 12,V zákopech,534/3
227,0.7306944943751875,49.9968,14.4744,POINT (14.4744 49.9968),27,0.754002446908846,Lipovická,Libuš,Praha 12,V zákopech,625/27
229,1.3426089572652466,49.9968,14.4844,POINT (14.4844 49.9968),499,0.2610392156585567,U Studánky,Praha 4,Praha 4,Ukončená,8
230,1.8267189547460532,49.9968,14.4894,POINT (14.4894 49.9968),499,0.2926193968621693,Pramenná,Kunratice,Praha 4,Vídeňská,434
233,3.2914277016969664,49.9968,14.5094,POINT (14.5094 49.9968),606,0.881939747372689,Hrnčíře,Šeberov,Praha 11,Radešovská,809
234,3.0917309965351696,49.9968,14.5144,POINT (14.5144 49.9968),172,0.3538521032800799,Hrnčíře,Šeberov,Praha 11,K Safině,748
244,3.705576722488899,50.0018,14.3294,POINT (14.3294 50.0018),589,0.3912585855111354,Lomy,Praha 16,Praha 16,Na Cikánce,614/2
248,2.2179046131074363,50.0018,14.3494,POINT (14.3494 50.0018),132,0.1703995302567414,Pod Lochkovem,Lochkov,Praha 16,Na dražkách,219
249,2.014718286712355,50.0018,14.3544,POINT (14.3544 50.0018),132,0.2268481168467372,Lochkov,Lochkov,Praha 16,U sladovny,196
255,2.103290753317112,50.0018,14.3844,POINT (14.3844 50.0018),599,0.155840306676085,Zahradnictví,Velká Chuchle,Praha 16,Radotínská,388/10
257,1.2087241188330164,50.0018,14.3944,POINT (14.3944 50.0018),524,0.3766564105649824,Lahovičky,Zbraslav,Praha 16,Za ploty,64
259,0.2221875522146859,50.0018,14.4044,POINT (14.4044 50.0018),111,0.2103952702568427,Cukrovar Modřany,Praha 12,Praha 12,U spořitelny,69/18
260,0.499775962186199,50.0018,14.4094,POINT (14.4094 50.0018),111,0.0976671389201462,Čechova čtvrť,Praha 12,Praha 12,V potočkách,1537/8
261,0.4512187566929266,50.0018,14.4144,POINT (14.4144 50.0018),342,0.0838672633071447,Radnice Praha 12,Praha 12,Praha 12,Písková,1994/27a
262,0.5363317402051168,50.0018,14.4194,POINT (14.4194 50.0018),342,0.2475075732508181,Písková,Praha 12,Praha 12,Babská,2057/18
263,0.9938586945393696,50.0018,14.4244,POINT (14.4244 50.0018),342,0.3125647137451368,Násirovo náměstí,Praha 12,Praha 12,Urbánkova,1961/13
264,1.0408738312882462,50.0018,14.4294,POINT (14.4294 50.0018),74,0.302735096612707,Pavelkova,Praha 12,Praha 12,Urbánkova,3362/51
270,0.7869278091057206,50.0018,14.4594,POINT (14.4594 50.0018),212,0.4657941447676252,Jirčanská,Libuš,Praha 12,Nad Libušským potokem,626/17
271,0.5055847803820073,50.0018,14.4644,POINT (14.4644 50.0018),212,0.2557073158197245,Sídliště Písnice,Libuš,Praha 12,U bazénu,489/3
281,2.588793431414512,50.0018,14.5144,POINT (14.5144 50.0018),172,0.2338093566059715,Hrnčířský hřbitov,Šeberov,Praha 11,Sladovnická,656
282,2.38392523488995,50.0018,14.5194,POINT (14.5194 50.0018),172,0.333792362459836,Hrnčířský hřbitov,Šeberov,Praha 11,Babočková,725
285,1.6689489820727434,50.0018,14.6144,POINT (14.6144 50.0018),583,0.4668253168331318,Lipany,Kolovraty,Praha 22,Do Potoků,28
286,1.3262999702938296,50.0018,14.6194,POINT (14.6194 50.0018),583,0.3162497532588268,Lipany,Kolovraty,Praha 22,Za statky,70
293,2.864366165624334,50.0068,14.3144,POINT (14.3144 50.0068),464,0.1673395394239899,Zadní Kopanina,Řeporyje,Praha 13,U skopců,5
301,2.55621974946034,50.0068,14.3544,POINT (14.3544 50.0068),132,0.2563512377469508,Za Chalupami,Lochkov,Praha 16,Za chalupami,144
306,2.442542423602777,50.0068,14.3794,POINT (14.3794 50.0068),599,0.1715372035449996,Mrkosova,Velká Chuchle,Praha 16,Adlerova,644/1
307,1.9000920169664692,50.0068,14.3844,POINT (14.3844 50.0068),599,0.2578135358355172,Novochuchelská,Velká Chuchle,Praha 16,Hvězdářská,537/16
308,1.3677484618084317,50.0068,14.3894,POINT (14.3894 50.0068),599,0.1046471743062576,Závodiště Chuchle,Velká Chuchle,Praha 16,Radotínská,36/1
311,0.0185595402018544,50.0068,14.4044,POINT (14.4044 50.0068),239,0.2269284401780817,Obchodní náměstí,Praha 12,Praha 12,Klostermannova,151/3
312,0.558213949896322,50.0068,14.4094,POINT (14.4094 50.0068),524,0.0798116059100502,Na Havránce,Praha 12,Praha 12,Klostermannova,690/31
313,0.252267132524046,50.0068,14.4144,POINT (14.4144 50.0068),342,0.1929914724162487,Tylova čtvrť,Praha 12,Praha 12,K Vltavě,1241/57
314,0.2892925209906863,50.0068,14.4194,POINT (14.4194 50.0068),225,0.2583498448087054,Poliklinika Modřany,Praha 12,Praha 12,Jordana Jovkova,3427/20
316,0.8756342649536979,50.0068,14.4294,POINT (14.4294 50.0068),74,0.0444640909301009,Modřanská rokle,Praha 12,Praha 12,Vitošská,3410/1
317,0.3206943939656024,50.0068,14.4344,POINT (14.4344 50.0068),74,0.2208820000459333,Sídliště Modřany,Praha 12,Praha 12,Šumenská,3223/9
318,0.2345302169892553,50.0068,14.4394,POINT (14.4394 50.0068),74,0.1101359077218359,Hasičská stanice Modřany,Praha 12,Praha 12,Generála Šišky,2140
321,0.8453099666439918,50.0068,14.4544,POINT (14.4544 50.0068),200,0.092818582300117,Sídliště Libuš,Praha 12,Praha 12,Kramperova,1007/1
322,0.607325071418983,50.0068,14.4594,POINT (14.4594 50.0068),212,0.0998568240029137,Jirčanská,Libuš,Praha 12,Na šejdru,386/31
323,0.0721410824985724,50.0068,14.4644,POINT (14.4644 50.0068),212,0.2220674358546494,U Libušské sokolovny,Libuš,Praha 12,Klokotská,290/1
324,0.5075578087213446,50.0068,14.4694,POINT (14.4694 50.0068),212,0.4609847340881829,Mílová,Libuš,Praha 12,Betáňská,755/27
325,0.3470752466960262,50.0068,14.4744,POINT (14.4744 50.0068),499,0.5408763538769741,Dobronická,Kunratice,Praha 4,U Rakovky,713/21
326,0.6501265679612074,50.0068,14.4794,POINT (14.4794 50.0068),499,0.0635223828618488,Betáň,Kunratice,Praha 4,Vídeňská,619/142
327,0.8001025018413056,50.0068,14.4844,POINT (14.4844 50.0068),128,0.5242620271625531,Betáň,Kunratice,Praha 4,Ratajova,1172/14
328,0.922963948251882,50.0068,14.4894,POINT (14.4894 50.0068),128,0.5090622958752242,Vožická,Kunratice,Praha 4,Nad rybníčky,ev. č. 173/14
329,1.2959980270404918,50.0068,14.4944,POINT (14.4944 50.0068),128,0.3149103953217019,Vožická,Kunratice,Praha 4,Nad rybníčky,729/2
339,0.6097189497239426,50.0068,14.6244,POINT (14.6244 50.0068),583,0.2579278149964246,Do Lipan,Kolovraty,Praha 22,Na jílech,738/16
340,0.7599592779171794,50.0068,14.6294,POINT (14.6294 50.0068),583,0.3612271705574604,Do Lipan,Kolovraty,Praha 22,Do Lipan,ev. č. 10
345,3.840478296089116,50.0068,14.6594,POINT (14.6594 50.0068),583,0.3342952340190492,"Říčany,Prům.areál Černokostelecká",Nedvězí,Praha 22,Pod Bahnivkou,96/11
346,2.312440508770265,50.0118,14.3144,POINT (14.3144 50.0118),464,0.1702726410766014,Zmrzlík,Řeporyje,Praha 13,Na Zmrzlíku,3
359,1.980182524992755,50.0118,14.3794,POINT (14.3794 50.0118),451,0.1530320190097778,Velká Chuchle,Velká Chuchle,Praha 16,Prodloužená,242/13
360,1.847408279966609,50.0118,14.3844,POINT (14.3844 50.0118),599,0.1674181178177133,Starochuchelská,Velká Chuchle,Praha 16,Starochuchelská,73/26
361,1.2935623428071834,50.0118,14.3894,POINT (14.3894 50.0118),599,0.0505250004353005,Nádraží Velká Chuchle,Velká Chuchle,Praha 16,Dostihová,78/27
362,0.7414443448897003,50.0118,14.3944,POINT (14.3944 50.0118),599,0.1558312649179081,Dostihová,Velká Chuchle,Praha 16,U závodiště,251/8
363,0.2054894119138724,50.0118,14.3994,POINT (14.3994 50.0118),599,0.19405211147391,Belárie,Praha 12,Praha 12,Vrátnická,2381/5
364,0.1445106083165211,50.0118,14.4044,POINT (14.4044 50.0118),34,0.3336896529441324,Modřanská škola,Praha 12,Praha 12,Nad vinicí,750/28
365,0.2446436057483525,50.0118,14.4094,POINT (14.4094 50.0118),229,0.1261869090606598,Darwinova,Praha 12,Praha 12,Lysinská,497/27
366,0.5082962625513895,50.0118,14.4144,POINT (14.4144 50.0118),229,0.1961064267599024,Na Cikorce,Praha 12,Praha 12,Herrmannova,2223/26
367,0.6412938072533201,50.0118,14.4194,POINT (14.4194 50.0118),225,0.2712367881913268,Družná,Praha 12,Praha 12,Krouzova,3037/12
368,1.019706931868977,50.0118,14.4244,POINT (14.4244 50.0118),225,0.418890526548194,Labe,Praha 12,Praha 12,Do Píšovic,875
369,1.032522348068591,50.0118,14.4294,POINT (14.4294 50.0118),74,0.4779129491867033,Hasova,Praha 12,Praha 12,Hasova,3092/4
372,0.96051079345379,50.0118,14.4444,POINT (14.4444 50.0118),74,0.5358355646157749,Cílkova,Libuš,Praha 12,K lesu,759/9
373,0.8687047852045515,50.0118,14.4494,POINT (14.4494 50.0118),200,0.4152337709053699,Přírodní,Libuš,Praha 12,K lesu,885/28
374,0.3699722567401275,50.0118,14.4544,POINT (14.4544 50.0118),200,0.2401533083269408,Přírodní,Libuš,Praha 12,Novodvorská,1070/4
375,0.3676424046234917,50.0118,14.4594,POINT (14.4594 50.0118),200,0.1829097628954283,U Zvoničky,Libuš,Praha 12,Libušská,66/240
376,0.608968555357373,50.0118,14.4644,POINT (14.4644 50.0118),212,0.3295324127637142,Mílová,Libuš,Praha 12,Vyšebrodská,866/23
377,0.789463928766852,50.0118,14.4694,POINT (14.4694 50.0118),212,0.2969699045072578,Dobronická,Kunratice,Praha 4,Dobronická,892
378,0.8385030353890116,50.0118,14.4744,POINT (14.4744 50.0118),630,0.2846406544804828,Dobronická,Kunratice,Praha 4,Vídeňská,ev. č. 74/52
379,0.3249248113123836,50.0118,14.4794,POINT (14.4794 50.0118),630,0.2216461055024895,U Tří svatých,Kunratice,Praha 4,Krameriova,966/8
380,0.2555671633485352,50.0118,14.4844,POINT (14.4844 50.0118),128,0.3504750445524641,Kunratická škola,Kunratice,Praha 4,Děbolínská,663/20
381,0.5263202554547972,50.0118,14.4894,POINT (14.4894 50.0118),128,0.2130214141119301,Šeberák,Kunratice,Praha 4,Netolická,816/2
382,1.0510763281618265,50.0118,14.4944,POINT (14.4944 50.0118),128,0.3009050632375479,Vožická,Kunratice,Praha 4,Nad Šeberákem,320/15
383,1.592725553350134,50.0118,14.4994,POINT (14.4994 50.0118),364,0.3992080548649998,Na Proutcích,Kunratice,Praha 4,K jelenám,744/4
385,1.7598265842004368,50.0118,14.5094,POINT (14.5094 50.0118),606,0.5079833131231545,V Ladech,Šeberov,Praha 11,V rákosí,210
386,1.5384910493039703,50.0118,14.5144,POINT (14.5144 50.0118),606,0.0556908416373773,Pod Vsí,Šeberov,Praha 11,K Hrnčířům,253
392,2.1934988499279404,50.0118,14.5444,POINT (14.5444 50.0118),279,0.2523092128468815,Újezd u Průhonic,Újezd,Praha 11,K Sukovu,23
393,2.520603894102627,50.0118,14.5494,POINT (14.5494 50.0118),279,0.3228322643223009,Újezd u Průhonic,Újezd,Praha 11,Nad náhonem,187
400,2.0189852028524125,50.0118,14.5994,POINT (14.5994 50.0118),541,0.6615683808196221,Benice,Benice,Praha 22,Chotěbuzská,198
401,1.893133535220634,50.0118,14.6044,POINT (14.6044 50.0118),541,0.1992596860885045,Benice,Benice,Praha 22,Na koupaliště,42
402,1.7577596986910071,50.0118,14.6094,POINT (14.6094 50.0118),583,0.5077264248589735,Benice,Benice,Praha 22,K Lipanům,147
405,0.1037394701274807,50.0118,14.6244,POINT (14.6244 50.0118),583,0.1693281802985903,Tehovičky,Kolovraty,Praha 22,Pokřivená,113/4
406,0.4653415778782975,50.0118,14.6294,POINT (14.6294 50.0118),583,0.2115166836960731,Škola Kolovraty,Kolovraty,Praha 22,V milíři,912/2c
419,2.042524865407609,50.0168,14.3494,POINT (14.3494 50.0168),192,0.3899880427654488,Za Farou,Slivenec,Praha 5,K Váze,374/36
420,1.7028502297260644,50.0168,14.3544,POINT (14.3544 50.0168),192,0.272085884418996,U Křížku,Slivenec,Praha 5,Za Fořtem,888/8
421,1.4978451134706965,50.0168,14.3594,POINT (14.3594 50.0168),192,0.3121548149559279,U Křížku,Slivenec,Praha 5,K Homolce,714/10
423,1.3095840280205646,50.0168,14.3694,POINT (14.3694 50.0168),451,0.8079655052992708,Opálová,Slivenec,Praha 5,Višňovka,ev. č. 115
427,1.4463475428398658,50.0168,14.3894,POINT (14.3894 50.0168),599,0.0817019426580451,Starolázeňská,Velká Chuchle,Praha 16,Starolázeňská,306/23
428,0.9840515212726544,50.0168,14.3944,POINT (14.3944 50.0168),599,0.2886172514454033,Obchodní centrum Chuchle,Velká Chuchle,Praha 16,Starolázeňská,460/39
429,0.6788546076729668,50.0168,14.3994,POINT (14.3994 50.0168),599,0.4112136305712417,Belárie,Praha 12,Praha 12,Mezi Vodami,2390/43
430,0.6664841241445612,50.0168,14.4044,POINT (14.4044 50.0168),34,0.0937820029042479,U Belárie,Praha 12,Praha 12,Československého exilu,1889/6
431,0.3455162802298425,50.0168,14.4094,POINT (14.4094 50.0168),229,0.1696313465313539,Zátišská,Praha 4,Praha 4,V Mokřinách,ev. č. 169
432,0.5638227528168962,50.0168,14.4144,POINT (14.4144 50.0168),229,0.3303518941388671,Ke Schodům,Praha 12,Praha 12,U Šumavěnky,1190/29
435,0.9704837021653214,50.0168,14.4294,POINT (14.4294 50.0168),67,0.3116219039159645,Hasova,Praha 12,Praha 12,Lhotecká,446/2
436,0.8912745324020604,50.0168,14.4344,POINT (14.4344 50.0168),67,0.0469024178957939,Sídliště Lhotka,Praha 12,Praha 12,U Kamýku,284/11
437,1.1238113578570166,50.0168,14.4394,POINT (14.4394 50.0168),67,0.2696660417998865,Lhotecký les,Praha 12,Praha 12,Krhanická,862/4
438,1.0814730040914704,50.0168,14.4444,POINT (14.4444 50.0168),57,0.1255469964085467,Cílkova,Praha 12,Praha 12,Durychova,855/28a
439,0.7662881580702016,50.0168,14.4494,POINT (14.4494 50.0168),57,0.1354122302319733,Chýnovská,Praha 12,Praha 12,Dolnojirčanská,1011/24
440,0.4186406595252419,50.0168,14.4544,POINT (14.4544 50.0168),200,0.4267501745763908,Přírodní,Praha 4,Praha 4,Libušská,822/282
441,0.4165830874239735,50.0168,14.4594,POINT (14.4594 50.0168),200,0.4112924154845395,Jalodvorská,Praha 4,Praha 4,Bohrova,1634/2
443,0.6475720431127414,50.0168,14.4694,POINT (14.4694 50.0168),154,0.088903305884895,Zelené domky,Kunratice,Praha 4,K Zeleným domkům,261/40
444,0.8921821072276924,50.0168,14.4744,POINT (14.4744 50.0168),630,0.5578287298061614,Zelené domky,Kunratice,Praha 4,Mašatova,206/20
445,0.4455083670449385,50.0168,14.4794,POINT (14.4794 50.0168),630,0.4586514372097244,Kunratická škola,Kunratice,Praha 4,Mašatova,ev. č. 21
446,0.3263665676994927,50.0168,14.4844,POINT (14.4844 50.0168),128,0.4929497640273231,Kunratická škola,Kunratice,Praha 4,K Borovíčku,284/38
447,0.5641042216044245,50.0168,14.4894,POINT (14.4894 50.0168),128,0.4510905379087173,Kunratice,Kunratice,Praha 4,K Verneráku,43/33
448,0.9059144789018714,50.0168,14.4944,POINT (14.4944 50.0168),364,0.5321061039771027,Volha,Kunratice,Praha 4,Nad akáty,1595/7
449,1.1082012000191543,50.0168,14.4994,POINT (14.4994 50.0168),364,0.0741549197293464,Koleje Jižní Město,Kunratice,Praha 4,V parcelách,ev. č. 127/8
451,1.3229716689250424,50.0168,14.5094,POINT (14.5094 50.0168),606,0.2081058704166399,Šeberov,Šeberov,Praha 11,Na proutcích,92
452,1.0100589780345337,50.0168,14.5144,POINT (14.5144 50.0168),606,0.4001650402170552,V Ladech,Šeberov,Praha 11,Za prodejnou,372
454,0.6370637702424259,50.0168,14.5244,POINT (14.5244 50.0168),172,0.1394211367479425,Ke Smrčině,Újezd,Praha 11,Formanská,671
455,0.7868915696368763,50.0168,14.5294,POINT (14.5294 50.0168),172,0.0991925066271783,Na Formance,Újezd,Praha 11,Na Formance,494/4
456,1.203576519119357,50.0168,14.5344,POINT (14.5344 50.0168),172,0.1486075694036277,Sukovská,Újezd,Praha 11,Sukovská,594/1
466,2.25495613818716,50.0168,14.5844,POINT (14.5844 50.0168),22,0.0742844128263941,Nové Pitkovice,Praha 22,Praha 22,K dálnici,160
467,1.9255774749612584,50.0168,14.5894,POINT (14.5894 50.0168),22,0.497830574582338,Nové Pitkovice,Praha 22,Praha 22,Čirůvková,107/19
470,1.341156524413447,50.0168,14.6044,POINT (14.6044 50.0168),541,0.2504851600310127,K Lipanům,Benice,Praha 22,U Císařské cesty,214
472,1.3047623326847926,50.0168,14.6144,POINT (14.6144 50.0168),583,0.7806705920917097,Kolovraty,Kolovraty,Praha 22,V louce,581
473,0.8222442771055496,50.0168,14.6194,POINT (14.6194 50.0168),583,0.2363036211249515,Kolovraty,Kolovraty,Praha 22,U Vodice,480/18
474,0.5155740079492213,50.0168,14.6244,POINT (14.6244 50.0168),583,0.3439218361150822,Kolovraty,Kolovraty,Praha 22,Meduňková,911/82
475,0.6867295421872841,50.0168,14.6294,POINT (14.6294 50.0168),583,0.3534375409389754,K Říčanům,Kolovraty,Praha 22,Meduňková,606/42
480,3.2773849325815787,50.0168,14.6544,POINT (14.6544 50.0168),583,0.1241776879029797,Nedvězí,Nedvězí,Praha 22,Slámova,38/8
491,0.9621919487812004,50.0218,14.3594,POINT (14.3594 50.0218),192,0.1521575695859326,K Holyni,Slivenec,Praha 5,K Holyni,83/14
492,0.9411187094991758,50.0218,14.3644,POINT (14.3644 50.0218),192,0.0480493678819973,Opálová,Slivenec,Praha 5,Ke Smíchovu,325/76
493,0.7856512676678608,50.0218,14.3694,POINT (14.3694 50.0218),451,0.4909067935427968,V Remízku,Slivenec,Praha 5,Alabastrová,1106/2
500,0.7231898739880225,50.0218,14.4044,POINT (14.4044 50.0218),544,0.0933812627226905,Černý kůň,Praha 4,Praha 4,Modřanská,15/82
501,0.377462940854405,50.0218,14.4094,POINT (14.4094 50.0218),20,0.2525485504179926,V Mokřinách,Praha 4,Praha 4,Nad lesem,35/47
502,0.1820361473675102,50.0218,14.4144,POINT (14.4144 50.0218),20,0.2010680083055525,Na Lysinách,Praha 4,Praha 4,Pod Lysinami,482/20
503,0.7347421630601165,50.0218,14.4194,POINT (14.4194 50.0218),20,0.2094488304288937,Korandova,Praha 4,Praha 4,Klánova,322/29
504,1.0129580862847274,50.0218,14.4244,POINT (14.4244 50.0218),116,0.1045889947318871,Klánova,Praha 4,Praha 4,Klánova,1519/53
505,0.5231292918953823,50.0218,14.4294,POINT (14.4294 50.0218),67,0.1337870291070406,Filosofská,Praha 4,Praha 4,Na dlouhé mezi,887/29
506,0.3552406676873684,50.0218,14.4344,POINT (14.4344 50.0218),67,0.2080798551038112,V Zátiší,Praha 4,Praha 4,U vodotoku,36/6
507,0.7712182621793181,50.0218,14.4394,POINT (14.4394 50.0218),67,0.1531531038670109,Lhotka,Praha 12,Praha 12,Cholupická,762/55
508,0.8200565492385955,50.0218,14.4444,POINT (14.4444 50.0218),57,0.1093239721293239,Čechtická,Praha 4,Praha 4,Na Rovinách,771/5
509,0.300177325208127,50.0218,14.4494,POINT (14.4494 50.0218),57,0.2575583784999282,Sídliště Krč,Praha 4,Praha 4,Slepá II,458/28
510,0.3518097627826287,50.0218,14.4544,POINT (14.4544 50.0218),57,0.3341489637065452,Tempo,Praha 4,Praha 4,Tajovského,1310/4
511,0.6895873574909834,50.0218,14.4594,POINT (14.4594 50.0218),154,0.3091613837933705,Ústav mateřství,Praha 4,Praha 4,Jánošíkova,1320/2
512,0.1467380661637463,50.0218,14.4644,POINT (14.4644 50.0218),154,0.2277318763489971,IKEM,Kunratice,Praha 4,K Zelené louce,1367/4
516,0.8129373091168128,50.0218,14.4844,POINT (14.4844 50.0218),179,0.5205736509105654,U Kunratického lesa,Kunratice,Praha 4,Šťastného,1504/19
517,0.4486371440867184,50.0218,14.4894,POINT (14.4894 50.0218),179,0.1345216712003448,U Kunratického lesa,Kunratice,Praha 4,Jana Růžičky,1154/5
518,0.3578634579202366,50.0218,14.4944,POINT (14.4944 50.0218),364,0.1122158094498637,Volha,Praha 11,Praha 11,Zlešická,1852/13
519,0.7317753146659659,50.0218,14.4994,POINT (14.4994 50.0218),364,0.0849655255175365,Na Jelenách,Praha 11,Praha 11,Roztylská,1860/1
522,0.5380832365249193,50.0218,14.5144,POINT (14.5144 50.0218),606,0.356406926989569,Ke Kateřinkám,Praha 11,Praha 11,Radimovická,1418/12
523,0.418985288237082,50.0218,14.5194,POINT (14.5194 50.0218),606,0.1605645510320389,Kateřinky,Újezd,Praha 11,Vodnická,300/2
524,0.1144601369728001,50.0218,14.5244,POINT (14.5244 50.0218),172,0.4551359009927624,Ke Smrčině,Újezd,Praha 11,Vodnická,396/51
531,1.55652435463629,50.0218,14.5594,POINT (14.5594 50.0218),101,0.306147728444035,Dolnokřeslická,Křeslice,Praha 11,Ke kovárně,155/13
532,1.6985993157321904,50.0218,14.5644,POINT (14.5644 50.0218),101,0.1972983444036879,Křeslice,Křeslice,Praha 11,U Vlasačky,88/9
533,1.9909196880427045,50.0218,14.5694,POINT (14.5694 50.0218),101,0.5123509565761658,Křeslice,Křeslice,Praha 11,Krokusová,439/3
535,2.352656983108707,50.0218,14.5794,POINT (14.5794 50.0218),22,0.162248788088944,Pitkovice,Praha 22,Praha 22,V Pitkovičkách,86
536,1.882011239897312,50.0218,14.5844,POINT (14.5844 50.0218),22,0.4885512847057994,Hříbková,Praha 22,Praha 22,Křemenáčová,235
537,1.4713897288040454,50.0218,14.5894,POINT (14.5894 50.0218),22,0.3563457799700407,K Pitkovičkám,Praha 22,Praha 22,K dálnici,772
539,1.0591712472203976,50.0218,14.5994,POINT (14.5994 50.0218),541,0.4672885494825928,Rájecká,Praha 22,Praha 22,Tichonická,1278/48
540,0.7934085100239285,50.0218,14.6044,POINT (14.6044 50.0218),541,0.4768541511589106,Rájecká,Praha 22,Praha 22,U starého mlýna,ev. č. 7
542,1.221864857281095,50.0218,14.6144,POINT (14.6144 50.0218),541,0.6964674846781692,Uhříněveský hřbitov,Kolovraty,Praha 22,Za podjezdem,380
554,1.5308528551500724,50.0268,14.2994,POINT (14.2994 50.0268),464,0.2884438960507044,Mrákovská,Řeporyje,Praha 13,Ořešská,738
556,0.6926875515708479,50.0268,14.3094,POINT (14.3094 50.0268),464,0.3425039183078645,Zahrádky,Řeporyje,Praha 13,Pod zahrádkami,ev. č. 6
564,1.4671416259207335,50.0268,14.3494,POINT (14.3494 50.0268),192,0.6775734465473698,Praha-Holyně,Slivenec,Praha 5,U smolnic,143/40
565,0.9382407098282792,50.0268,14.3544,POINT (14.3544 50.0268),192,0.406942400933743,Holyně,Slivenec,Praha 5,Pod vysokou mezí,104/6
567,0.4289846007947554,50.0268,14.3644,POINT (14.3644 50.0268),192,0.3010211054718306,Pražská čtvrť,Praha 5,Praha 5,K Barrandovu,1053/10
568,0.3562074564202426,50.0268,14.3694,POINT (14.3694 50.0268),173,0.1164308419019789,V Remízku,Praha 5,Praha 5,V Remízku,708/10
569,0.2714047700727151,50.0268,14.3744,POINT (14.3744 50.0268),451,0.1051211146555126,Nový Slivenec,Praha 5,Praha 5,Ke Smíchovu,768/24
573,1.0385282136220215,50.0268,14.3944,POINT (14.3944 50.0268),544,0.2046938492071423,Malá Chuchle,Velká Chuchle,Praha 16,Zbraslavská,27/29
576,0.4267788047403359,50.0268,14.4094,POINT (14.4094 50.0268),400,0.2992593275109041,Praha-Braník,Praha 4,Praha 4,Nad údolím,151/64
577,0.1184928772078694,50.0268,14.4144,POINT (14.4144 50.0268),1,0.3296299598309662,Psohlavců,Praha 4,Praha 4,Psohlavců,1820/1a
578,0.4535702789745358,50.0268,14.4194,POINT (14.4194 50.0268),1,0.2330142880131622,Psohlavců,Praha 4,Praha 4,Ohnivcova,1852/11
579,0.879088158001853,50.0268,14.4244,POINT (14.4244 50.0268),116,0.1904237403575589,Zatáčka,Praha 4,Praha 4,Psohlavců,970/58
580,0.3264499647865826,50.0268,14.4294,POINT (14.4294 50.0268),116,0.081546566069709,Jílovská,Praha 4,Praha 4,Novodvorská,1131/181
581,0.1050945595817303,50.0268,14.4344,POINT (14.4344 50.0268),254,0.187591221981618,Sídliště Novodvorská,Praha 4,Praha 4,Nad lesním divadlem,1354/8a
584,0.4572366038924217,50.0268,14.4494,POINT (14.4494 50.0268),57,0.266412751976155,Zálesí,Praha 4,Praha 4,Mezilesní,60/15
585,0.4850615023396546,50.0268,14.4544,POINT (14.4544 50.0268),436,0.3119816985493236,Klárův ústav,Praha 4,Praha 4,Kukučínova,1147/2
586,0.5028285409580252,50.0268,14.4594,POINT (14.4594 50.0268),436,0.2640201909497123,Ústav mateřství,Praha 4,Praha 4,Vídeňská,816/7
592,0.1869193141816167,50.0268,14.4894,POINT (14.4894 50.0268),179,0.4328390659615105,U Kunratického lesa,Praha 11,Praha 11,Klírova,1919/9
593,0.2269393441966755,50.0268,14.4944,POINT (14.4944 50.0268),364,0.0354841306235678,Jarníkova,Praha 11,Praha 11,V Parku,2323/14
594,0.677443962689359,50.0268,14.4994,POINT (14.4994 50.0268),364,0.5228314647442327,Na Jelenách,Praha 11,Praha 11,U kolonie,811
595,1.1150691842116731,50.0268,14.5044,POINT (14.5044 50.0268),232,0.4550687145220625,Opatov,Praha 11,Praha 11,Medkova,993
596,0.7370070403504574,50.0268,14.5094,POINT (14.5094 50.0268),395,0.1488678808098295,Opatov,Praha 11,Praha 11,Nad Opatovem,2030/9
597,0.1851584078729832,50.0268,14.5144,POINT (14.5144 50.0268),395,0.2194800619783691,Ke Kateřinkám,Praha 11,Praha 11,Lečkova,1521/15
598,0.2468057983095832,50.0268,14.5194,POINT (14.5194 50.0268),606,0.2053009768485184,Metodějova,Praha 11,Praha 11,V jezírkách,1545/16
599,0.361985654504781,50.0268,14.5244,POINT (14.5244 50.0268),571,0.3692792684338228,Metodějova,Praha 11,Praha 11,Doubravická,1308/16
600,0.5616207684897332,50.0268,14.5294,POINT (14.5294 50.0268),40,0.142821319436714,Milíčov,Praha 11,Praha 11,Jurkovičova,1040/3
601,0.225924327741894,50.0268,14.5344,POINT (14.5344 50.0268),279,0.4139353817756274,Milíčov,Praha 11,Praha 11,Jurkovičova,984/36
606,1.0049716583839148,50.0268,14.5594,POINT (14.5594 50.0268),101,0.3175268927691799,Dolnokřeslická,Křeslice,Praha 11,Štychova,286/3
613,0.6908315879501522,50.0268,14.5944,POINT (14.5944 50.0268),22,0.3297880292397001,Ke Kříži,Praha 22,Praha 22,K dálnici,1622/61
614,0.5765151427670248,50.0268,14.5994,POINT (14.5994 50.0268),22,0.2600796601515692,Lnářská,Praha 22,Praha 22,Lnářská,822/10
615,0.2763029217698497,50.0268,14.6044,POINT (14.6044 50.0268),541,0.239848732448573,U Mlejna,Praha 22,Praha 22,U Říčanky,1101/1
616,0.4472657346798722,50.0268,14.6094,POINT (14.6094 50.0268),541,0.102767375845073,Venušina,Praha 22,Praha 22,Venušina,1152/9
630,1.3966023199003823,50.0318,14.2994,POINT (14.2994 50.0318),464,0.4699206860406027,Mrákovská,Řeporyje,Praha 13,Ke Zbuzanům,1107/10
631,0.8429862572671942,50.0318,14.3044,POINT (14.3044 50.0318),464,0.1652408981566061,Ořešská,Řeporyje,Praha 13,Draženovská,414/9
632,0.2946245406126538,50.0318,14.3094,POINT (14.3094 50.0318),464,0.0203296977272666,Nádraží Řeporyje,Řeporyje,Praha 13,Ořešská,104
633,0.281125256640467,50.0318,14.3144,POINT (14.3144 50.0318),464,0.2879631856583957,Řeporyjské náměstí,Řeporyje,Praha 13,Ebrova,109/2
638,1.193423421095001,50.0318,14.3394,POINT (14.3394 50.0318),596,0.5579759059583835,Velká Ohrada,Slivenec,Praha 5,K dobré vodě,35/20
639,1.7253838822211105,50.0318,14.3444,POINT (14.3444 50.0318),596,0.4747901530844654,Praha-Holyně,Slivenec,Praha 5,K dobré vodě,ev. č. 256
640,1.4376640472861837,50.0318,14.3494,POINT (14.3494 50.0318),192,0.1496259685549472,Praha-Holyně,Slivenec,Praha 5,U vápenice,47/6
641,0.8914420855720405,50.0318,14.3544,POINT (14.3544 50.0318),192,0.3774870611330815,Stará Holyně,Slivenec,Praha 5,Za Knotkem,76/19
643,0.3136895759648246,50.0318,14.3644,POINT (14.3644 50.0318),192,0.3414074406632587,Náměstí Olgy Scheinpflugové,Praha 5,Praha 5,Werichova,1145/23
644,0.2544750944766824,50.0318,14.3694,POINT (14.3694 50.0318),173,0.14515142691866,Sídliště Barrandov,Praha 5,Praha 5,Werichova,981/21
645,0.2497790647174307,50.0318,14.3744,POINT (14.3744 50.0318),281,0.1235510130826508,Štěpařská,Praha 5,Praha 5,Högerova,811/12
646,0.3984039182325207,50.0318,14.3794,POINT (14.3794 50.0318),126,0.3340295909225572,Högerova,Praha 5,Praha 5,Kurandové,1282/6
647,0.8719174171405084,50.0318,14.3844,POINT (14.3844 50.0318),126,0.2247358928058045,Slavínského,Praha 5,Praha 5,K Barrandovu,1139/3
649,1.0286490151872516,50.0318,14.3944,POINT (14.3944 50.0318),302,0.1685312970757276,Barrandovská,Praha 5,Praha 5,Lumiérů,801/24
651,0.3912571770142964,50.0318,14.4044,POINT (14.4044 50.0318),400,0.3617941628383704,Nádraží Braník,Praha 4,Praha 4,U ledáren,1557/1
652,0.2779266451877982,50.0318,14.4094,POINT (14.4094 50.0318),400,0.2969861306399377,Pobřežní cesta,Praha 4,Praha 4,Pikovická,1818/13
653,0.2711568249830929,50.0318,14.4144,POINT (14.4144 50.0318),527,0.3166531414215842,Branické náměstí,Praha 4,Praha 4,Nad strouhou,ev. č. 67
654,0.5329276003687597,50.0318,14.4194,POINT (14.4194 50.0318),527,0.376988829370049,Ve Studeném,Praha 4,Praha 4,Ve studeném,1292/21
655,1.0538252372831347,50.0318,14.4244,POINT (14.4244 50.0318),527,0.1801767950366148,Ve Studeném,Praha 4,Praha 4,Vrbova,1796/15a
656,0.6850777214873595,50.0318,14.4294,POINT (14.4294 50.0318),116,0.2746831865936781,Vrbova,Praha 4,Praha 4,Mikuleckého,1308/2
659,1.2355001071178426,50.0318,14.4444,POINT (14.4444 50.0318),57,0.3163968494364565,Praha-Krč,Praha 4,Praha 4,Sulická,221/56
660,0.8297379628482222,50.0318,14.4494,POINT (14.4494 50.0318),436,0.1920628384347808,Višňová,Praha 4,Praha 4,Paprsková,260/18
662,0.3279006680255388,50.0318,14.4594,POINT (14.4594 50.0318),436,0.487241655458251,Nemocnice Krč,Praha 4,Praha 4,Thomayerova,804
666,1.208954472698586,50.0318,14.4794,POINT (14.4794 50.0318),303,0.5143290146482079,Dědinova,Praha 11,Praha 11,Augustinova,2072/3
667,0.6554692804607912,50.0318,14.4844,POINT (14.4844 50.0318),303,0.2535372207566371,Dědinova,Praha 11,Praha 11,Petýrkova,1997/38
668,0.11729892666981,50.0318,14.4894,POINT (14.4894 50.0318),303,0.2271350255129886,Petýrkova,Praha 11,Praha 11,Roztylská,2321/19
669,0.3742842398774132,50.0318,14.4944,POINT (14.4944 50.0318),168,0.3386873619286906,Chodov,Praha 11,Praha 11,Zakouřilova,1259/36
670,0.4513509254552544,50.0318,14.4994,POINT (14.4994 50.0318),232,0.1765688695192198,Chodovská tvrz,Praha 11,Praha 11,7. května,264/61
671,0.6630076748872675,50.0318,14.5044,POINT (14.5044 50.0318),232,0.1949074918167329,Mokrá,Praha 11,Praha 11,Türkova,2332/1
672,0.8973407763793043,50.0318,14.5094,POINT (14.5094 50.0318),88,0.0741354499555092,Bachova,Praha 11,Praha 11,V průčelí,1653/8
673,0.5447330958518813,50.0318,14.5144,POINT (14.5144 50.0318),588,0.0359548327669028,Mikulova,Praha 11,Praha 11,Bachova,1568/3
674,0.0196438444899165,50.0318,14.5194,POINT (14.5194 50.0318),588,0.1367309196374882,Hněvkovského,Praha 11,Praha 11,Podjavorinské,1601/8
675,0.2063660484130817,50.0318,14.5244,POINT (14.5244 50.0318),571,0.1022675770558228,Modrá škola,Praha 11,Praha 11,Kupeckého,576/17
676,0.0569824035055765,50.0318,14.5294,POINT (14.5294 50.0318),40,0.312117022535773,Poliklinika Háje,Praha 11,Praha 11,Kosmická,749/25
677,0.3290863997423957,50.0318,14.5344,POINT (14.5344 50.0318),279,0.0373578065105913,Horčičkova,Praha 11,Praha 11,Hlavatého,662/17
678,0.6466874398234254,50.0318,14.5394,POINT (14.5394 50.0318),279,0.3262412044843343,Jižní Město,Praha 11,Praha 11,Štichova,650/44
682,0.4617553483558569,50.0318,14.5594,POINT (14.5594 50.0318),101,0.1619366609561762,Jakobiho,Petrovice,Praha 15,Jakobiho,328/4
683,0.8220033884146619,50.0318,14.5644,POINT (14.5644 50.0318),101,0.3420105083875464,Sídliště Petrovice,Petrovice,Praha 15,Kurčatovova,324/1
686,2.0730227022564254,50.0318,14.5794,POINT (14.5794 50.0318),22,0.6808532241893689,Na Blanici,Praha 22,Praha 22,Soumarská,975/1
687,1.518023237964487,50.0318,14.5844,POINT (14.5844 50.0318),22,0.5914921173515102,Na Blanici,Praha 22,Praha 22,Bystřičná,1244/2a
688,0.9630243911399188,50.0318,14.5894,POINT (14.5894 50.0318),22,0.3187098449694267,Praha-Uhříněves,Praha 22,Praha 22,Douchova,1282/56a
689,0.4080286814186357,50.0318,14.5944,POINT (14.5944 50.0318),22,0.2406478282263628,Ke Kříži,Praha 22,Praha 22,Františka Diviše,760/67
690,0.1469994278566566,50.0318,14.5994,POINT (14.5994 50.0318),22,0.1551735472321689,Nové náměstí,Praha 22,Praha 22,Nové náměstí,1250/10
691,0.3731481547305632,50.0318,14.6044,POINT (14.6044 50.0318),541,0.1955993941606785,Uhříněves,Praha 22,Praha 22,Přátelství,687
692,0.5127795610386537,50.0318,14.6094,POINT (14.6094 50.0318),541,0.1525099687243959,K Netlukám,Praha 22,Praha 22,K Netlukám,1472/2
702,3.0384133852627304,50.0368,14.2744,POINT (14.2744 50.0368),592,0.6299195746684921,"Jinočany,Hlavní",Praha 13,Praha 13,Pražský okruh,ev. č. 302
708,0.966262596694598,50.0368,14.3044,POINT (14.3044 50.0368),464,0.2605939094718983,Ve Výrech,Řeporyje,Praha 13,K Třebonicům,921
709,0.5566338075978251,50.0368,14.3094,POINT (14.3094 50.0368),464,0.4207860794439006,Ve Výrech,Řeporyje,Praha 13,Radouňova,417/5
710,0.5496080291906258,50.0368,14.3144,POINT (14.3144 50.0368),464,0.0463617780858695,Hlávkova,Řeporyje,Praha 13,Jáchymovská,230/9
711,0.9541209439797635,50.0368,14.3194,POINT (14.3194 50.0368),464,0.4455646033604576,Náměstí U Lva,Řeporyje,Praha 13,Smíchovská,682/25
712,0.5630630010908224,50.0368,14.3244,POINT (14.3244 50.0368),596,0.1526521106541267,Slatinová,Řeporyje,Praha 13,Ořešská,583
713,0.1469014030142477,50.0368,14.3294,POINT (14.3294 50.0368),596,0.2845512874351776,Raichlova,Praha 13,Praha 13,Raichlova,2644/1
714,0.5849530760819056,50.0368,14.3344,POINT (14.3344 50.0368),596,0.1312617765983505,Ohradské náměstí,Praha 13,Praha 13,Ohradské náměstí,1626/3
715,1.130844896627103,50.0368,14.3394,POINT (14.3394 50.0368),596,0.3994278699147972,Malá Ohrada,Praha 13,Praha 13,Přecechtělova,2405/23
716,1.51357638283859,50.0368,14.3444,POINT (14.3444 50.0368),63,0.6064383919777767,Malá Ohrada,Praha 13,Praha 13,Klausova,2541/15
717,1.2699560023094725,50.0368,14.3494,POINT (14.3494 50.0368),13,0.4491325922993149,Praha-Holyně,Praha 13,Praha 13,K Opatřilce,923
718,1.138673536103236,50.0368,14.3544,POINT (14.3544 50.0368),13,0.784048676081753,Praha-Holyně,Praha 5,Praha 5,K Opatřilce,ev. č. 87
719,0.8178835084221886,50.0368,14.3594,POINT (14.3594 50.0368),192,0.7691774140749948,Stará Holyně,Praha 5,Praha 5,V Klukovicích,319
720,0.7929845600130044,50.0368,14.3644,POINT (14.3644 50.0368),192,0.2712954833064108,Klukovice,Praha 5,Praha 5,Do Klukovic,1127/18
721,0.4926817587924189,50.0368,14.3694,POINT (14.3694 50.0368),347,0.3060180747771184,Grussova,Praha 5,Praha 5,Lamačova,912/31
722,0.1648255716715366,50.0368,14.3744,POINT (14.3744 50.0368),347,0.3494665791852782,Poliklinika Barrandov,Praha 5,Praha 5,Gabinova,865/5
723,0.3687122344490724,50.0368,14.3794,POINT (14.3794 50.0368),126,0.2947795253001711,Chaplinovo náměstí,Praha 5,Praha 5,Renoirova,615/8
724,0.8587566663976344,50.0368,14.3844,POINT (14.3844 50.0368),126,0.1608995383791254,Dreyerova,Praha 5,Praha 5,Renoirova,624/1
725,0.6941156284332614,50.0368,14.3894,POINT (14.3894 50.0368),302,0.1627542158589491,Slivenecká,Praha 5,Praha 5,V bokách II,474/17
727,0.7650401941829246,50.0368,14.3994,POINT (14.3994 50.0368),302,0.0873312363024766,Terasy,Praha 5,Praha 5,Pod Habrovou,493/24
728,0.7213653975884478,50.0368,14.4044,POINT (14.4044 50.0368),629,0.3832829262252127,Serpentina,Praha 5,Praha 5,Zbraslavská,47/61
729,0.3201006255570961,50.0368,14.4094,POINT (14.4094 50.0368),639,0.2767680831205181,U Staré pošty,Praha 4,Praha 4,Na Mlejnku,11/4
730,0.124302027166344,50.0368,14.4144,POINT (14.4144 50.0368),165,0.2383548719276186,Branické náměstí,Praha 4,Praha 4,Mezivrší,89/14
731,0.5543425686382424,50.0368,14.4194,POINT (14.4194 50.0368),527,0.2701304538449725,Vlnitá,Praha 4,Praha 4,Nad křížkem,1750/3
732,0.7913143431955614,50.0368,14.4244,POINT (14.4244 50.0368),338,0.278585062579106,Pod Ryšánkou,Praha 4,Praha 4,Pod Zemankou,707/25
733,0.8285975897343362,50.0368,14.4294,POINT (14.4294 50.0368),587,0.276699027992912,Pod Ryšánkou,Praha 4,Praha 4,Branická,1861/146
734,0.4209498949796953,50.0368,14.4344,POINT (14.4344 50.0368),587,0.169910275743204,Na Vrstevnici,Praha 4,Praha 4,Nad obcí I,339/1
735,0.5327979565025819,50.0368,14.4394,POINT (14.4394 50.0368),587,0.311799419855874,Na Staré cestě,Praha 4,Praha 4,Pod vrstevnicí,1528/16
736,1.0032938307511703,50.0368,14.4444,POINT (14.4444 50.0368),587,0.2037497740795699,Nádraží Krč,Praha 4,Praha 4,Krčská,44/13
738,0.7487985537053509,50.0368,14.4544,POINT (14.4544 50.0368),436,0.1677345266152415,Rosečská,Praha 4,Praha 4,Vídeňská,2022/4
739,0.7604282705036675,50.0368,14.4594,POINT (14.4594 50.0368),436,0.3812391988430989,U Labutě,Praha 4,Praha 4,U Michelského lesa,222
741,1.26548001350144,50.0368,14.4694,POINT (14.4694 50.0368),469,0.7836745783625444,Starý Spořilov,Praha 11,Praha 11,U Michelského lesa,2400
744,0.900333613527476,50.0368,14.4844,POINT (14.4844 50.0368),303,0.3351611885480718,Dědinova,Praha 11,Praha 11,Kloboukova,2194/10
745,0.6282672012906169,50.0368,14.4894,POINT (14.4894 50.0368),303,0.3398285407042665,Chodovec,Praha 11,Praha 11,Kloknerova,2295/26
746,0.5393932871666309,50.0368,14.4944,POINT (14.4944 50.0368),141,0.1416514491218763,Pod Chodovem,Praha 11,Praha 11,Türkova,1267/7
747,0.1263627686041254,50.0368,14.4994,POINT (14.4994 50.0368),232,0.119931303911057,Benkova,Praha 11,Praha 11,Kunínova,1722/7
748,0.1295322741360358,50.0368,14.5044,POINT (14.5044 50.0368),88,0.2215336656852974,Brodského,Praha 11,Praha 11,Brodského,1679/1
749,0.5975663080468238,50.0368,14.5094,POINT (14.5094 50.0368),88,0.0773349235873086,Donovalská,Praha 11,Praha 11,Donovalská,754/26
750,0.7894135435160665,50.0368,14.5144,POINT (14.5144 50.0368),588,0.3060081708896789,Brechtova,Praha 11,Praha 11,Matúškova,782/2
751,0.5716865203908184,50.0368,14.5194,POINT (14.5194 50.0368),588,0.2589196992434107,Prašná,Praha 11,Praha 11,Boháčova,860/7
752,0.7429916926247467,50.0368,14.5244,POINT (14.5244 50.0368),40,0.3339875641112623,Wagnerova,Praha 11,Praha 11,Květnového vítězství,2/85
753,0.5541895894180033,50.0368,14.5294,POINT (14.5294 50.0368),40,0.2447911415492255,Wagnerova,Praha 11,Praha 11,Stachova,287/19
754,0.8235687868837401,50.0368,14.5344,POINT (14.5344 50.0368),40,0.4805718983704605,Jižní Město,Praha 11,Praha 11,K Jezeru,472/38
757,0.9776118000793445,50.0368,14.5494,POINT (14.5494 50.0368),101,0.3754474706506484,Newtonova,Praha 15,Praha 15,U břehu,143/16
758,0.4313889202153828,50.0368,14.5544,POINT (14.5544 50.0368),101,0.3610391279370813,Nové Petrovice,Petrovice,Praha 15,Ampérova,426/10
759,0.1803273947979665,50.0368,14.5594,POINT (14.5594 50.0368),101,0.1955712663452934,Morseova,Petrovice,Praha 15,Lebeděvova,436/17
760,0.7035549290173215,50.0368,14.5644,POINT (14.5644 50.0368),101,0.2648610727288323,Sídliště Petrovice,Petrovice,Praha 15,Rezlerova,296/34
763,2.1453932613907374,50.0368,14.5794,POINT (14.5794 50.0368),22,0.3800621171449743,Na Blanici,Praha 22,Praha 22,Františka Diviše,1573/7
764,1.6154515384097532,50.0368,14.5844,POINT (14.5844 50.0368),22,0.1753539987814189,Na Blanici,Praha 22,Praha 22,Vodická,1014/4
765,1.11027253405669,50.0368,14.5894,POINT (14.5894 50.0368),22,0.2536909917410979,Na Vrchách,Praha 22,Praha 22,Kašperská,463/13
766,0.6868599033358135,50.0368,14.5944,POINT (14.5944 50.0368),22,0.2125327933588714,Picassova,Praha 22,Praha 22,V bytovkách,803/12
774,2.911038833576796,50.0368,14.6344,POINT (14.6344 50.0368),583,0.1357399212465691,Královice,Královice,Praha 22,Ke zbrojnici,29
775,3.148337338506192,50.0368,14.6394,POINT (14.6394 50.0368),583,0.2483417883968567,Pod Hradem,Královice,Praha 22,Jitkovská,26
787,0.6597362656431438,50.0418,14.3144,POINT (14.3144 50.0418),10,0.3474207397105137,Vackova,Řeporyje,Praha 13,Vejtasova,2981/2
788,0.5272888579459959,50.0418,14.3194,POINT (14.3194 50.0418),582,0.1720193315476181,Holýšovská,Praha 13,Praha 13,Holýšovská,2923/4
789,0.5055489388912533,50.0418,14.3244,POINT (14.3244 50.0418),552,0.3217078598355309,Amforová,Praha 13,Praha 13,Bellušova,1815/29
790,0.7015559424719114,50.0418,14.3294,POINT (14.3294 50.0418),596,0.2333103621360345,Amforová,Praha 13,Praha 13,Amforová,1903/8
791,0.9015380299398252,50.0418,14.3344,POINT (14.3344 50.0418),596,0.0712436921580869,Píškova,Praha 13,Praha 13,Píškova,1941/2
792,1.0101956169854016,50.0418,14.3394,POINT (14.3394 50.0418),118,0.1886293780523854,Malá Ohrada,Praha 13,Praha 13,Na Hvížďalce,1206/19a
793,0.961134483735608,50.0418,14.3444,POINT (14.3444 50.0418),63,0.4937670931363784,Malá Ohrada,Praha 13,Praha 13,Diabasová,1178/15
795,0.583696243581984,50.0418,14.3544,POINT (14.3544 50.0418),13,0.9014155660020025,Stará Stodůlecká,Praha 13,Praha 13,K Nové Vsi,380/4
801,1.0665712422645308,50.0418,14.3844,POINT (14.3844 50.0418),302,0.6198053722344551,Dreyerova,Praha 5,Praha 5,K Dalejím,ev. č. 6
802,0.515018651473524,50.0418,14.3894,POINT (14.3894 50.0418),302,0.4344753454221304,Slivenecká,Praha 5,Praha 5,K Dalejím,114/1
803,0.0849193568946264,50.0418,14.3944,POINT (14.3944 50.0418),204,0.0629303435636586,Nádraží Hlubočepy,Praha 5,Praha 5,Hlubočepská,22/52
804,0.6026783312309796,50.0418,14.3994,POINT (14.3994 50.0418),204,0.3328388722673872,Žvahov,Praha 5,Praha 5,Pod Žvahovem,285/36
805,0.6969283944913146,50.0418,14.4044,POINT (14.4044 50.0418),629,0.0592298756268982,Hlubočepy,Praha 5,Praha 5,Zbraslavská,233
807,0.1655463726353243,50.0418,14.4144,POINT (14.4144 50.0418),332,0.1776312160066174,Dobeška,Praha 4,Praha 4,Nad lomem,1777/1a
808,0.4650494672964725,50.0418,14.4194,POINT (14.4194 50.0418),332,0.1292334688558847,U Háje,Praha 4,Praha 4,U dubu,312/30
809,0.2597301054695718,50.0418,14.4244,POINT (14.4244 50.0418),338,0.2205048704846641,Pod Pekařkou,Praha 4,Praha 4,V křovinách,1540/16
810,0.4947506138248929,50.0418,14.4294,POINT (14.4294 50.0418),442,0.1889456988397116,Nové Podolí,Praha 4,Praha 4,U družstva Práce,1468/60
811,0.2521477638280678,50.0418,14.4344,POINT (14.4344 50.0418),587,0.4678555359362166,Ryšánka,Praha 4,Praha 4,Hudečkova,1296/6
812,0.4126176719111842,50.0418,14.4394,POINT (14.4394 50.0418),587,0.1716200090498212,Ryšánka,Praha 4,Praha 4,Matěchova,437/5
813,0.9449752332963216,50.0418,14.4444,POINT (14.4444 50.0418),587,0.0218324246200436,Antala Staška,Praha 4,Praha 4,Antala Staška,1071/57a
814,0.7843617824896918,50.0418,14.4494,POINT (14.4494 50.0418),5,0.2444345033109423,Poliklinika Budějovická,Praha 4,Praha 4,Na krčské stráni,1387/4
815,0.3173946306264159,50.0418,14.4544,POINT (14.4544 50.0418),5,0.2739993180762624,Lísek,Praha 4,Praha 4,Pod rovinou,652/17
816,0.4497836116072392,50.0418,14.4594,POINT (14.4594 50.0418),5,0.1028778426340049,Kačerov,Praha 4,Praha 4,Budějovická,618/53
819,0.4812534992200146,50.0418,14.4744,POINT (14.4744 50.0418),469,0.1284176692331515,Starý Spořilov,Praha 4,Praha 4,Nad sady,1189/7
820,0.3709323012512058,50.0418,14.4794,POINT (14.4794 50.0418),469,0.3120052645332605,Roztylské náměstí,Praha 4,Praha 4,Vestavěná,1009/18
821,0.8121740045776611,50.0418,14.4844,POINT (14.4844 50.0418),469,0.3936202608623875,Nad Pahorkem,Praha 4,Praha 4,Boční I,930/5
822,1.005980994100313,50.0418,14.4894,POINT (14.4894 50.0418),141,0.1773638587446942,Choceradská,Praha 11,Praha 11,Türkova,2297/22
823,0.4810153779879402,50.0418,14.4944,POINT (14.4944 50.0418),141,0.1241908880228688,Městský archiv Chodovec,Praha 11,Praha 11,Blažimská,3141/8
824,0.2584643635607229,50.0418,14.4994,POINT (14.4994 50.0418),141,0.0943775664142742,Knovízská,Praha 11,Praha 11,Čenětická,2218/2
827,0.7031098948003305,50.0418,14.5144,POINT (14.5144 50.0418),450,0.2088202595205336,K Obecním hájovnám,Praha 15,Praha 15,K obecním hájovnám,1475/22
828,0.4968864215855634,50.0418,14.5194,POINT (14.5194 50.0418),450,0.3565266664649874,Nad Košíkem,Praha 15,Praha 15,Pod Košíkem,ev. č. 98
834,0.7101222658120888,50.0418,14.5494,POINT (14.5494 50.0418),193,0.2780988783164527,Livornská,Praha 15,Praha 15,Nad přehradou,765
835,0.5097600599692363,50.0418,14.5544,POINT (14.5544 50.0418),190,0.1958273344094021,Nové Petrovice,Praha 15,Praha 15,Livornská,441
836,0.1456204345883368,50.0418,14.5594,POINT (14.5594 50.0418),190,0.232106656100215,Holoubkovská,Praha 15,Praha 15,Veronské nám.,591
837,0.6313519645962162,50.0418,14.5644,POINT (14.5644 50.0418),190,0.2970355275446042,Janovská,Praha 15,Praha 15,Parmská,390
838,1.1798539297004205,50.0418,14.5694,POINT (14.5694 50.0418),190,0.2867143798689858,Janovská,Praha 15,Praha 15,Mantovská,780/4
840,2.286286351245016,50.0418,14.5794,POINT (14.5794 50.0418),190,0.3003492004227203,Fruta,Praha 22,Praha 22,Přátelství,1563
841,1.879101592490763,50.0418,14.5844,POINT (14.5844 50.0418),22,0.3121448020398187,Bečovská,Praha 22,Praha 22,Přátelství,1000
846,1.495622064500496,50.0418,14.6094,POINT (14.6094 50.0418),541,0.421904399668164,Netluky,Praha 22,Praha 22,Netluky,834
850,2.9819789890576485,50.0418,14.6294,POINT (14.6294 50.0418),541,0.8675517490158886,Královice,Královice,Praha 22,K Hájku,112
858,1.809085345597216,50.0468,14.2794,POINT (14.2794 50.0468),592,0.2248415435574286,Třebonice,Praha 13,Praha 13,K Náplavce,150/30
859,1.5608180270175105,50.0468,14.2844,POINT (14.2844 50.0468),329,0.4665969638878084,Třebonice,Praha 13,Praha 13,K Chabům,55/8
861,0.5979247163839798,50.0468,14.2944,POINT (14.2944 50.0468),329,0.4746410988079398,Obchodní centrum Zličín,Praha 13,Praha 13,K Chabům,1
862,0.4598852990650291,50.0468,14.2994,POINT (14.2994 50.0468),224,0.4268028498939444,Obchodní centrum Zličín,Praha 13,Praha 13,Thomasova,229/8
863,0.1221654281135952,50.0468,14.3044,POINT (14.3044 50.0468),224,0.3132574530844842,Stodůlky,Praha 13,Praha 13,náměstí Junkových,2808/2
864,0.1571833637018821,50.0468,14.3094,POINT (14.3094 50.0468),10,0.2428965539339649,Stodůlky,Praha 13,Praha 13,Hábova,1517/5
865,0.4021156951359552,50.0468,14.3144,POINT (14.3144 50.0468),10,0.2430970390209686,Vackova,Praha 13,Praha 13,Klukovická,1524/20
866,0.3046970380794236,50.0468,14.3194,POINT (14.3194 50.0468),582,0.2427062425193141,Kovářova - KD Mlejn,Praha 13,Praha 13,Kettnerova,2061/2
867,0.268824359581892,50.0468,14.3244,POINT (14.3244 50.0468),552,0.375652066633147,Luka,Praha 13,Praha 13,U jezera,2039/18
868,0.4906823719683107,50.0468,14.3294,POINT (14.3294 50.0468),96,0.2808424361117775,Lužiny,Praha 13,Praha 13,Bronzová,2019/19
869,0.7052928784416953,50.0468,14.3344,POINT (14.3344 50.0468),96,0.4822530997032906,Archeologická,Praha 13,Praha 13,Zázvorkova,1480/11
871,0.4155665108811555,50.0468,14.3444,POINT (14.3444 50.0468),63,0.3661810574751191,Ovčí hájek,Praha 13,Praha 13,Suchý vršek,2122/33
872,0.4756485052063274,50.0468,14.3494,POINT (14.3494 50.0468),293,0.1990564237939623,Ovčí hájek,Praha 13,Praha 13,Řeporyjská,1053/26
875,1.0961489609301636,50.0468,14.3644,POINT (14.3644 50.0468),198,0.4927897610644315,Sídliště Jinonice,Praha 5,Praha 5,Pod Vavřincem,252/37
883,1.0330054875255552,50.0468,14.4044,POINT (14.4044 50.0468),629,0.1739054981519688,Nad Zlíchovem,Praha 5,Praha 5,Prosluněná,555/1
884,0.7280962968705783,50.0468,14.4094,POINT (14.4094 50.0468),17,0.2119708735388403,Zlíchov,Praha 5,Praha 5,Na Zlíchově,221/8
885,0.173459325107188,50.0468,14.4144,POINT (14.4144 50.0468),17,0.0391930358822471,Dvorce,Praha 4,Praha 4,Podolská,ev. č. 2
886,0.3822329883940878,50.0468,14.4194,POINT (14.4194 50.0468),17,0.1314838185741736,Za Skalkou,Praha 4,Praha 4,Terasovitá,954/1
887,0.3532577891958764,50.0468,14.4244,POINT (14.4244 50.0468),338,0.3361541653879937,Pod Pekařkou,Praha 4,Praha 4,Nad cihelnou,975/29
888,0.1079074945967901,50.0468,14.4294,POINT (14.4294 50.0468),442,0.2234169843426597,Milevská,Praha 4,Praha 4,Kaplická,488/33
889,0.4942099431137616,50.0468,14.4344,POINT (14.4344 50.0468),545,0.251019130405071,Sídliště Pankrác,Praha 4,Praha 4,Pujmanové,1221/4
890,0.2827688294571399,50.0468,14.4394,POINT (14.4394 50.0468),545,0.0579405380556696,Krčský hřbitov,Praha 4,Praha 4,Na Strži,1202/45
891,0.7291933584123208,50.0468,14.4444,POINT (14.4444 50.0468),545,0.2348086247202781,Zelená liška,Praha 4,Praha 4,Za Zelenou liškou,552/14
892,0.3299232016754611,50.0468,14.4494,POINT (14.4494 50.0468),378,0.2474290186798668,Budějovická,Praha 4,Praha 4,Přímětická,1203/40
893,0.3511267363940001,50.0468,14.4544,POINT (14.4544 50.0468),5,0.1333653618178902,Brumlovka,Praha 4,Praha 4,Bítovská,1122/5
894,0.4741897623638393,50.0468,14.4594,POINT (14.4594 50.0468),5,0.2036265620640306,Vyskočilova,Praha 4,Praha 4,Hodonínská,882/10
895,0.9708099074744114,50.0468,14.4644,POINT (14.4644 50.0468),5,0.2983608972371632,Pekárenská,Praha 4,Praha 4,Na dědinách,733/22
896,0.8863886618981062,50.0468,14.4694,POINT (14.4694 50.0468),138,0.1368011613703563,V Zápolí,Praha 4,Praha 4,Krajová,1105/1
897,0.3326204556120372,50.0468,14.4744,POINT (14.4744 50.0468),138,0.2016482324105874,Severozápadní,Praha 4,Praha 4,Trenčínská,2621/26
898,0.2272396863257972,50.0468,14.4794,POINT (14.4794 50.0468),138,0.2725931310522727,Roztylské náměstí,Praha 4,Praha 4,Severovýchodní IV,573/3
899,0.7801854796082319,50.0468,14.4844,POINT (14.4844 50.0468),138,0.1479676214583395,Lešanská,Praha 4,Praha 4,Severní I,2914/2
900,1.2523890913413902,50.0468,14.4894,POINT (14.4894 50.0468),141,0.141886223155096,Sídliště Spořilov,Praha 4,Praha 4,Bělčická,2829/20
901,0.8876127925400469,50.0468,14.4944,POINT (14.4944 50.0468),141,0.4780471674648675,Sídliště Spořilov,Praha 4,Praha 4,Choceradská,2756/17
902,0.7894836938472566,50.0468,14.4994,POINT (14.4994 50.0468),141,0.6082042625975711,Knovízská,Praha 10,Praha 10,Milínská,3219/38
905,0.5041618611778801,50.0468,14.5144,POINT (14.5144 50.0468),450,0.1017625001867925,Na Košíku,Praha 15,Praha 15,Tesaříkova,1022/5
906,0.0819254176450661,50.0468,14.5194,POINT (14.5194 50.0468),450,0.1114056165772311,Toulcův dvůr,Praha 15,Praha 15,Chudenická,1063/11
907,0.6126127372543672,50.0468,14.5244,POINT (14.5244 50.0468),450,0.0237301281921313,Hostivařský hřbitov,Praha 15,Praha 15,Dobropolská,1235/2
909,0.8808143849590193,50.0468,14.5344,POINT (14.5344 50.0468),140,0.5749306454174977,K Lesoparku,Praha 15,Praha 15,U břehu,444/49
910,0.6894337728094969,50.0468,14.5394,POINT (14.5394 50.0468),131,0.3558375697423945,K Lesoparku,Praha 15,Praha 15,Řepčická,1228/4
912,0.268059122569616,50.0468,14.5494,POINT (14.5494 50.0468),193,0.1293171747241663,Hostivařský pivovar,Praha 15,Praha 15,Lochotínská,656
913,0.3310361554012583,50.0468,14.5544,POINT (14.5544 50.0468),193,0.2016115342883802,Boloňská,Praha 15,Praha 15,Dýšinská,286
914,0.6893649670160117,50.0468,14.5594,POINT (14.5594 50.0468),190,0.2561860716802912,Na Vartě,Praha 15,Praha 15,Boloňská,313/12
915,0.9233764400171754,50.0468,14.5644,POINT (14.5644 50.0468),190,0.1878859277200043,Praha-Horní Měcholupy,Praha 15,Praha 15,Na kameni,197
916,1.3587030735995322,50.0468,14.5694,POINT (14.5694 50.0468),190,0.3863154483605856,Na Křečku,Praha 15,Praha 15,K Měcholupům,ev. č. 3
917,1.8589174361544492,50.0468,14.5744,POINT (14.5744 50.0468),190,0.1089221236406878,Průmstav,Dolní Měcholupy,Praha 15,Kutnohorská,425
928,3.286829008631257,50.0468,14.6294,POINT (14.6294 50.0468),541,0.3936372898942679,Hájek,Praha 22,Praha 22,U Markéty,241
935,0.9410755541360126,50.0518,14.2894,POINT (14.2894 50.0518),329,0.3300213773996812,Zličín,Zličín,Praha 17,Řevnická,176
937,0.197697373762522,50.0518,14.2994,POINT (14.2994 50.0518),329,0.3121167004147767,Obchodní centrum Zličín,Praha 13,Praha 13,Sárská,2664/3
939,0.6059717005721915,50.0518,14.3094,POINT (14.3094 50.0518),10,0.0859842117947526,Lýskova,Praha 13,Praha 13,Kovářova,193/54
940,0.7100648733350975,50.0518,14.3144,POINT (14.3144 50.0518),10,0.3343511075218606,Mototechna,Praha 13,Praha 13,Kocianova,1584/1
941,0.7236691442328352,50.0518,14.3194,POINT (14.3194 50.0518),582,0.3846186815624489,Mládí,Praha 13,Praha 13,Voleníkova,2743/15
942,0.6049334780537302,50.0518,14.3244,POINT (14.3244 50.0518),96,0.2903759756019939,Mládí,Praha 13,Praha 13,U Cikánky,77/7
943,0.0810146103511688,50.0518,14.3294,POINT (14.3294 50.0518),96,0.1925751412205288,Nárožní,Praha 13,Praha 13,Harmonická,1415/15
944,0.5130616155107259,50.0518,14.3344,POINT (14.3344 50.0518),96,0.3285822832442489,Kodymova,Praha 13,Praha 13,Wiedermannova,1405/2
945,0.3343904888265843,50.0518,14.3394,POINT (14.3394 50.0518),118,0.2309970667824288,Kodymova,Praha 13,Praha 13,Volutová,2517/4
946,0.1940658499202955,50.0518,14.3444,POINT (14.3444 50.0518),63,0.2545388844127635,Poliklinika Lípa,Praha 13,Praha 13,Petržílkova,2704/34
947,0.0632253086442709,50.0518,14.3494,POINT (14.3494 50.0518),100,0.3146121718528969,Poliklinika Lípa,Praha 13,Praha 13,Petržílkova,2835/1
949,0.6642307924571447,50.0518,14.3594,POINT (14.3594 50.0518),198,0.1013481231345988,Karlštejnská,Praha 5,Praha 5,Butovická,44/70
950,1.15659144199587,50.0518,14.3644,POINT (14.3644 50.0518),198,0.1598778083723135,Sídliště Jinonice,Praha 5,Praha 5,Polívkova,541/6
951,1.6882698190006027,50.0518,14.3694,POINT (14.3694 50.0518),198,0.3241657776150297,Jinonice,Praha 5,Praha 5,U Tyršovy školy,430/1
956,1.1838819210439442,50.0518,14.3944,POINT (14.3944 50.0518),204,0.504625176069812,Nad Dívčími hrady,Praha 5,Praha 5,Výmolova,357
958,1.4030306507400196,50.0518,14.4044,POINT (14.4044 50.0518),17,0.2233317442912199,Pod Děvínem,Praha 5,Praha 5,Nový Zlíchov,1343/15a
959,0.9232599454467132,50.0518,14.4094,POINT (14.4094 50.0518),17,0.1497308948883319,Lihovar,Praha 5,Praha 5,Nádražní,2584/2
961,0.5801797313120308,50.0518,14.4194,POINT (14.4194 50.0518),209,0.3293313133988343,Kublov,Praha 4,Praha 4,Břidličná,11/1
962,0.5917206771388699,50.0518,14.4244,POINT (14.4244 50.0518),30,0.4282690082435028,Na Hřebenech,Praha 4,Praha 4,Vápencová,478/24
963,0.6281400201388745,50.0518,14.4294,POINT (14.4294 50.0518),442,0.1282671915259502,Na Hřebenech,Praha 4,Praha 4,Na Hřebenech II,676/23
964,0.3691542129695891,50.0518,14.4344,POINT (14.4344 50.0518),38,0.3200590630323703,Sídliště Pankrác,Praha 4,Praha 4,Pujmanové,1556/20
965,0.1657563789171259,50.0518,14.4394,POINT (14.4394 50.0518),491,0.0367102089101368,Pankrác,Praha 4,Praha 4,Hvězdova,1280/27
967,0.398746622874133,50.0518,14.4494,POINT (14.4494 50.0518),378,0.4705727251339029,Ohradní,Praha 4,Praha 4,Na křivině,1363/4
968,0.3864159051552207,50.0518,14.4544,POINT (14.4544 50.0518),267,0.1089532038999186,Ohradní,Praha 4,Praha 4,Michelská,8/27
969,0.8352403947170057,50.0518,14.4594,POINT (14.4594 50.0518),267,0.2515968774255478,Hadovitá,Praha 4,Praha 4,Vnější,1018/3
970,1.1741396556537054,50.0518,14.4644,POINT (14.4644 50.0518),507,0.2655893917308818,Pekárenská,Praha 4,Praha 4,Pekárenská,68/5
972,0.677326745759621,50.0518,14.4744,POINT (14.4744 50.0518),138,0.1174348950011529,Teplárna Michle,Praha 4,Praha 4,Chodovská,1476/3b
974,0.9781740824726888,50.0518,14.4844,POINT (14.4844 50.0518),138,0.3462357793604382,Spořilov,Praha 4,Praha 4,Huťská,1788/16
975,1.4594266145205903,50.0518,14.4894,POINT (14.4894 50.0518),138,0.2099985135364433,Měchenická,Praha 10,Praha 10,K vodě,3186/2
976,1.400138259280698,50.0518,14.4944,POINT (14.4944 50.0518),141,0.0502194030933047,U Lípy,Praha 10,Praha 10,U záběhlického zámku,233/5
978,0.6447494336350893,50.0518,14.5044,POINT (14.5044 50.0518),121,0.1924490845206216,Záběhlická škola,Praha 10,Praha 10,Nad Meandry,3290/3
979,0.4877837449765745,50.0518,14.5094,POINT (14.5094 50.0518),277,0.2214159450262435,Práčská,Praha 10,Praha 10,Práčská,1882
980,0.1760386082541832,50.0518,14.5144,POINT (14.5144 50.0518),325,0.5171692466802982,Práčská,Praha 10,Praha 10,Mattioliho,3274/3
981,0.5393484719975042,50.0518,14.5194,POINT (14.5194 50.0518),325,0.2176799117987999,Obchodní centrum Hostivař,Praha 15,Praha 15,Švehlova,1362/36
982,0.4562076547475727,50.0518,14.5244,POINT (14.5244 50.0518),140,0.1368843363538326,Na Groši,Praha 15,Praha 15,Trhanovské náměstí,1015/14
983,0.1056208206290545,50.0518,14.5294,POINT (14.5294 50.0518),140,0.1121151635790882,Hostivařská,Praha 15,Praha 15,U potoka,243/5
984,0.6559238456180441,50.0518,14.5344,POINT (14.5344 50.0518),140,0.3154092821170485,Nádraží Hostivař,Praha 15,Praha 15,Hornoměcholupská,613/35
985,0.5611635757070795,50.0518,14.5394,POINT (14.5394 50.0518),131,0.2315831860051761,K Lesoparku,Praha 15,Praha 15,Weilova,1449/2d
986,0.1333447031962902,50.0518,14.5444,POINT (14.5444 50.0518),131,0.2000228309579559,Gercenova,Praha 15,Praha 15,Horolezecká,912/12
987,0.5054579646054338,50.0518,14.5494,POINT (14.5494 50.0518),193,0.5705407266825486,Za Nadjezdem,Praha 15,Praha 15,U Hostivařského nádraží,803
988,0.5414951495379452,50.0518,14.5544,POINT (14.5544 50.0518),193,0.4696102753964851,Boloňská,Praha 15,Praha 15,U Golfu,736
989,0.9731373181433708,50.0518,14.5594,POINT (14.5594 50.0518),193,0.5874408904374628,Boloňská,Dolní Měcholupy,Praha 15,U Přejezdu,49
993,2.5983057505706806,50.0518,14.5794,POINT (14.5794 50.0518),190,0.2803212295556228,Dubečský hřbitov,Dubeč,Praha 15,Zátiší,1089/4
994,2.687350189089892,50.0518,14.5844,POINT (14.5844 50.0518),22,0.3358869612526209,Dubečský hřbitov,Dubeč,Praha 15,Halštatská,1711/29
1002,3.277565840672159,50.0518,14.6244,POINT (14.6244 50.0518),541,0.1661914007836617,U Mezníku,Praha 22,Praha 22,Pod Jankovem,48
1003,3.651073975254609,50.0518,14.6294,POINT (14.6294 50.0518),541,0.2368781416580674,Hájek,Praha 22,Praha 22,Předpolní,90
1010,0.8069300046185417,50.0568,14.2794,POINT (14.2794 50.0568),592,0.4295968687607603,Depo Zličín,Zličín,Praha 17,Na Radosti,414
1011,0.6275935592114337,50.0568,14.2844,POINT (14.2844 50.0568),592,0.1719664851723706,Nový Zličín,Zličín,Praha 17,Sazovická,457/22
1012,0.8675605562574077,50.0568,14.2894,POINT (14.2894 50.0568),592,0.2501496123137223,Zličín,Zličín,Praha 17,K metru,227/8
1013,0.7531224891894718,50.0568,14.2944,POINT (14.2944 50.0568),329,0.4118751875937824,Sídliště Zličín,Zličín,Praha 17,Do zahrádek I,171/1
1016,0.8627126145916088,50.0568,14.3094,POINT (14.3094 50.0568),4,0.2971684093335888,Stodůlky-Bavorská,Praha 13,Praha 13,Pod Zličínem,739
1017,0.6704926569586954,50.0568,14.3144,POINT (14.3144 50.0568),4,0.3643300194894568,Mototechna,Praha 13,Praha 13,Jeremiášova,2635
1019,0.8647477607954341,50.0568,14.3244,POINT (14.3244 50.0568),96,0.207843355168556,K Hájům,Praha 13,Praha 13,K Hájům,1068/4
1020,0.6232235104847105,50.0568,14.3294,POINT (14.3294 50.0568),96,0.1203199009175484,K Fialce,Praha 13,Praha 13,Jindrova,844/73
1021,0.8031664822694049,50.0568,14.3344,POINT (14.3344 50.0568),96,0.4401901864894191,Ordovická,Praha 13,Praha 13,Živcových,256/39
1023,0.72019274034474,50.0568,14.3444,POINT (14.3444 50.0568),63,0.2992077691663731,Nušlova,Praha 5,Praha 5,Pekařská,621/7
1024,0.5769294147124896,50.0568,14.3494,POINT (14.3494 50.0568),447,0.419119792099509,Nušlova,Praha 5,Praha 5,Vacínovská,802/21
1026,0.9859706684381956,50.0568,14.3594,POINT (14.3594 50.0568),447,0.463092921629185,Karlštejnská,Praha 5,Praha 5,Souběžná IV,488/37
1027,1.2317958490503953,50.0568,14.3644,POINT (14.3644 50.0568),170,0.1778112682903841,Vidoule,Praha 5,Praha 5,Na pomezí,701/5
1028,1.2420333446561462,50.0568,14.3694,POINT (14.3694 50.0568),170,0.0092247878799652,Hutmanka,Praha 5,Praha 5,Klikatá,156/7
1029,1.4778439175831586,50.0568,14.3744,POINT (14.3744 50.0568),170,0.2203633797819491,U Trezorky,Praha 5,Praha 5,Kačírkova,933/3
1030,1.3590809083682345,50.0568,14.3794,POINT (14.3794 50.0568),233,0.3835727038633452,U Trezorky,Praha 5,Praha 5,Na vysoké II,300/22
1031,0.9233540450776622,50.0568,14.3844,POINT (14.3844 50.0568),233,0.5250023231921646,Radlická,Praha 5,Praha 5,Radlická,364/152
1032,0.6885597066567775,50.0568,14.3894,POINT (14.3894 50.0568),233,0.1980515396484632,Radlická,Praha 5,Praha 5,Výmolova,28/10
1034,1.1235170231967886,50.0568,14.3994,POINT (14.3994 50.0568),458,0.1426486998518249,Dívčí hrady,Praha 5,Praha 5,Nad Kesnerkou,2742/2
1035,1.0767730562440267,50.0568,14.4044,POINT (14.4044 50.0568),458,0.1607872150282567,Pod Konvářkou,Praha 5,Praha 5,Pod Závěrkou,3248/29
1036,1.1228554280005416,50.0568,14.4094,POINT (14.4094 50.0568),508,0.4451959751753824,Smíchovské nádraží,Praha 5,Praha 5,Nádražní,1065/10
1037,0.7470879111895778,50.0568,14.4144,POINT (14.4144 50.0568),209,0.485424016695791,Kublov,Praha 5,Praha 5,Císařská louka,ev. č. 30
1038,0.192197474607912,50.0568,14.4194,POINT (14.4194 50.0568),209,0.2486482772904005,Podolská vodárna,Praha 4,Praha 4,Podolské nábřeží,15/10
1039,0.2328622578982985,50.0568,14.4244,POINT (14.4244 50.0568),30,0.0734463112045119,Doliny,Praha 4,Praha 4,Na Dolinách,183/20
1040,0.3225784698850944,50.0568,14.4294,POINT (14.4294 50.0568),30,0.135157768361432,Klikovka,Praha 4,Praha 4,Procházkova,190/5
1041,0.1744026040394368,50.0568,14.4344,POINT (14.4344 50.0568),158,0.0727282977940299,Pražského povstání,Praha 4,Praha 4,Na Pankráci,875/79
1042,0.5003631126347831,50.0568,14.4394,POINT (14.4394 50.0568),158,0.1624552694563455,Na Veselí,Praha 4,Praha 4,Soudní,774/4
1043,0.5931163231575255,50.0568,14.4444,POINT (14.4444 50.0568),25,0.1614966557120946,Jezerka,Praha 4,Praha 4,Rovnoběžná,1053/34
1044,0.2703367839937601,50.0568,14.4494,POINT (14.4494 50.0568),160,0.1633699221764948,Pod Jezerkou,Praha 4,Praha 4,U michelského mlýna,383/33
1045,0.3194423624177046,50.0568,14.4544,POINT (14.4544 50.0568),267,0.2585389363374327,Michelská,Praha 4,Praha 4,Bohdalec,1097/1
1046,0.8064444730526058,50.0568,14.4594,POINT (14.4594 50.0568),267,0.380221111950868,Plynárna Michle,Praha 4,Praha 4,U Plynárny,183/40
1047,0.6370892134842541,50.0568,14.4644,POINT (14.4644 50.0568),507,0.1825425566085867,Plynárna Michle,Praha 4,Praha 4,U Plynárny,500/44
1048,0.6874025552454887,50.0568,14.4694,POINT (14.4694 50.0568),507,0.0966330841710859,Chodovská,Praha 4,Praha 4,U Plynárny,692/62a
1049,1.074807833976804,50.0568,14.4744,POINT (14.4744 50.0568),507,0.1275157183058176,Bohdalecká,Praha 10,Praha 10,U Plynárny,1551/99b
1050,1.1678862021197078,50.0568,14.4794,POINT (14.4794 50.0568),138,0.0931340570444303,Záběhlice,Praha 10,Praha 10,Na vinobraní,1771/16
1051,1.386004938177233,50.0568,14.4844,POINT (14.4844 50.0568),138,0.151608551844258,Pod Vinicí,Praha 10,Praha 10,Na vinobraní,125/46
1052,1.3241302134233983,50.0568,14.4894,POINT (14.4894 50.0568),649,0.2708730614251828,V Korytech,Praha 10,Praha 10,Ve slatinách,3242/3
1053,1.1113421286986898,50.0568,14.4944,POINT (14.4944 50.0568),649,0.1005919334111001,Jesenická,Praha 10,Praha 10,Jabloňová,2867/3
1054,0.9210808041117888,50.0568,14.4994,POINT (14.4994 50.0568),121,0.2720434660995194,Poliklinika Zahradní Město,Praha 10,Praha 10,Šafránová,2236/8
1055,0.3665562741559066,50.0568,14.5044,POINT (14.5044 50.0568),121,0.2555240681020168,Hlohová,Praha 10,Praha 10,Malinová,1716/18
1056,0.1907541783107737,50.0568,14.5094,POINT (14.5094 50.0568),121,0.2836259775723742,Centrum Zahradní Město,Praha 10,Praha 10,Jahodová,2888/40
1057,0.3209500184200389,50.0568,14.5144,POINT (14.5144 50.0568),277,0.1370859962999921,Sídliště Zahradní Město,Praha 10,Praha 10,Strašnická,3323/2b
1058,0.6399500393591923,50.0568,14.5194,POINT (14.5194 50.0568),325,0.2541170807176962,Sídliště Na Groši,Praha 15,Praha 15,Pod průsekem,993/9
1059,0.6917929854736452,50.0568,14.5244,POINT (14.5244 50.0568),140,0.3597511830591588,Sídliště Na Groši,Praha 15,Praha 15,Za drahou,1623
1060,0.5306673800513967,50.0568,14.5294,POINT (14.5294 50.0568),140,0.4491207865426282,Hostivařská,Praha 15,Praha 15,U Továren,1502/2e
1061,0.8370712047075936,50.0568,14.5344,POINT (14.5344 50.0568),140,0.0627481596056237,V Nových domcích,Praha 15,Praha 15,V Nových domcích,270/1
1062,0.8778041867700357,50.0568,14.5394,POINT (14.5394 50.0568),131,0.0784269987458719,U Továren,Praha 15,Praha 15,U Pekáren,1309/4
1063,0.6880526444111347,50.0568,14.5444,POINT (14.5444 50.0568),131,0.1816493973298081,Továrny Hostivař,Praha 15,Praha 15,U Továren,1282/31a
1064,0.890136333744042,50.0568,14.5494,POINT (14.5494 50.0568),131,0.0893992718275829,Za Nadjezdem,Dolní Měcholupy,Praha 15,Dolnoměcholupská,58/27
1065,1.0454181258061424,50.0568,14.5544,POINT (14.5544 50.0568),193,0.4253342025505546,U Střediska,Dolní Měcholupy,Praha 15,V Osikách,520/12
1066,1.2827104098568278,50.0568,14.5594,POINT (14.5594 50.0568),50,0.2758223633543701,Dolní Měcholupy,Dolní Měcholupy,Praha 15,Za Kovárnou,43/11
1070,2.9047050659627094,50.0568,14.5794,POINT (14.5794 50.0568),190,0.1080313280942587,Dubeček,Dubeč,Praha 15,U staré studánky,1680/14
1071,3.1609081227953117,50.0568,14.5844,POINT (14.5844 50.0568),22,0.1798763634073746,Lázeňka,Dubeč,Praha 15,Starodubečská,1135/71
1072,2.935023268678394,50.0568,14.5894,POINT (14.5894 50.0568),22,0.4720309903851661,Za Pavilonem,Dubeč,Praha 15,V Rohožníku,491/6
1089,0.514182997292091,50.0618,14.2794,POINT (14.2794 50.0618),592,0.116976339767616,Starý Zličín,Zličín,Praha 17,Věstonická,431/1
1090,0.0843907454302552,50.0618,14.2844,POINT (14.2844 50.0618),592,0.2602873195861807,Halenkovská,Zličín,Praha 17,Halenkovská,484/12
1091,0.6049044892578179,50.0618,14.2894,POINT (14.2894 50.0618),592,0.337441834598712,Halenkovská,Zličín,Praha 17,Tylovická,200/9
1092,0.7046789921619032,50.0618,14.2944,POINT (14.2944 50.0618),308,0.4601488850015415,Praha-Zličín,Zličín,Praha 17,V pískovně,305
1093,1.0485151693392252,50.0618,14.2994,POINT (14.2994 50.0618),308,0.1503536576280789,Na Radosti,Zličín,Praha 17,Do Blatin,485/20
1094,1.1040529548149738,50.0618,14.3044,POINT (14.3044 50.0618),4,0.3099724209278375,Lidečská,Praha 17,Praha 17,Drahoňovského,1149/2
1095,0.5551308626761149,50.0618,14.3094,POINT (14.3094 50.0618),4,0.0513443443436873,Bílý Beránek,Praha 13,Praha 13,Plzeňská,1110/303
1096,0.1160069927011682,50.0618,14.3144,POINT (14.3144 50.0618),4,0.3002781724592843,Hlušičkova,Praha 13,Praha 13,Pod viaduktem,692/47
1098,1.127910598263799,50.0618,14.3244,POINT (14.3244 50.0618),4,0.4716275184528128,Krematorium Motol,Praha 13,Praha 13,Za Mototechnou,591/61
1099,1.1774131479434884,50.0618,14.3294,POINT (14.3294 50.0618),96,0.3464248437308085,Za Mototechnou,Praha 13,Praha 13,Za Mototechnou,1490/28a
1106,0.6982814703464147,50.0618,14.3644,POINT (14.3644 50.0618),170,0.2132333797550696,Průchova,Praha 5,Praha 5,Naskové,1230/1a
1107,0.7161863076945132,50.0618,14.3694,POINT (14.3694 50.0618),170,0.2137614310492487,Karenova,Praha 5,Praha 5,Lukavského,1289/22
1108,1.0743829125730286,50.0618,14.3744,POINT (14.3744 50.0618),170,0.1335938571296394,Pod Šmukýřkou,Praha 5,Praha 5,Jinonická,804/80
1109,1.1807107303321096,50.0618,14.3794,POINT (14.3794 50.0618),233,0.2187837552717204,Farkáň,Praha 5,Praha 5,Mikšovského,834/34
1110,0.6321072739588116,50.0618,14.3844,POINT (14.3844 50.0618),233,0.0922482053683226,Urbanova,Praha 5,Praha 5,Peroutkova,2482/57
1111,0.1452287260208055,50.0618,14.3894,POINT (14.3894 50.0618),233,0.0398253212105337,Smíchovský hřbitov,Praha 5,Praha 5,U smíchovského hřbitova,444/1
1112,0.5085992134594892,50.0618,14.3944,POINT (14.3944 50.0618),233,0.1764453220808399,Nad Laurovou,Praha 5,Praha 5,Nad Laurovou,1903/8
1113,0.6267691329538986,50.0618,14.3994,POINT (14.3994 50.0618),458,0.14371546539441,Laurová,Praha 5,Praha 5,Radlická,2730/102
1114,0.5385065080980084,50.0618,14.4044,POINT (14.4044 50.0618),458,0.0254496543542383,Ke Koulce,Praha 5,Praha 5,Ke Koulce,2448/4
1115,0.7224133818212054,50.0618,14.4094,POINT (14.4094 50.0618),221,0.1143522247812579,Smíchovské nádraží,Praha 5,Praha 5,Nádražní,895/38
1116,0.3585447144229501,50.0618,14.4144,POINT (14.4144 50.0618),508,0.3414401137596355,Císařská louka,Praha 5,Praha 5,Císařská louka,ev. č. 4
1117,0.2575218269595872,50.0618,14.4194,POINT (14.4194 50.0618),508,0.319130966531945,Podolská vodárna,Praha 4,Praha 4,U podolského sanatoria,5/3
1118,0.219169042366277,50.0618,14.4244,POINT (14.4244 50.0618),288,0.3444136871395198,Jedličkův ústav,Praha 4,Praha 4,V Pevnosti,89/11
1119,0.2338432237690982,50.0618,14.4294,POINT (14.4294 50.0618),407,0.1446626888139545,Vyšehrad,Praha 4,Praha 4,5. května,1640/65
1120,0.2539573849321691,50.0618,14.4344,POINT (14.4344 50.0618),449,0.3137671854442847,Palouček,Praha 4,Praha 4,Na Vítězné pláni,1719/4
1121,0.1870849461665421,50.0618,14.4394,POINT (14.4394 50.0618),73,0.2454684229418311,Palouček,Praha 4,Praha 4,náměstí Generála Kutlvašra,554/4
1122,0.1360833908564678,50.0618,14.4444,POINT (14.4444 50.0618),69,0.2084358271913933,Horky,Praha 4,Praha 4,Svatoslavova,344/39
1123,0.285670467391845,50.0618,14.4494,POINT (14.4494 50.0618),160,0.1606003180656689,Kloboučnická,Praha 4,Praha 4,Kloboučnická,1653/15
1124,0.4715057620546525,50.0618,14.4544,POINT (14.4544 50.0618),231,0.4110729712460466,Ukrajinská,Praha 4,Praha 4,Bartoškova,1094/38
1126,0.2218364282485369,50.0618,14.4644,POINT (14.4644 50.0618),507,0.3031462449182743,Vršovický hřbitov,Praha 10,Praha 10,Tachlovická,1120/14
1128,0.8936109975475861,50.0618,14.4744,POINT (14.4744 50.0618),507,0.5299808043501436,Praha-Eden,Praha 10,Praha 10,Nad Vršovskou horou,980/1
1129,1.1033472658689756,50.0618,14.4794,POINT (14.4794 50.0618),219,0.646616658911245,Záběhlice,Praha 10,Praha 10,Na slatinách,ev. č. 310
1130,0.9972413902717812,50.0618,14.4844,POINT (14.4844 50.0618),344,0.6941053450248946,Pod Vinicí,Praha 10,Praha 10,Na slatinách,ev. č. 266
1131,0.9190738639367684,50.0618,14.4894,POINT (14.4894 50.0618),37,0.5453608179991729,Korytná,Praha 10,Praha 10,Šeberovská,2387/5
1132,0.5723283268643116,50.0618,14.4944,POINT (14.4944 50.0618),649,0.2168862741710072,Želivecká,Praha 10,Praha 10,V Korytech,181
1133,0.6522041234546068,50.0618,14.4994,POINT (14.4994 50.0618),649,0.5130889612737175,Dubečská,Praha 10,Praha 10,Slunečnicová,2975/3
1135,0.4123915144056654,50.0618,14.5094,POINT (14.5094 50.0618),591,0.2179042266569986,Sídliště Skalka,Praha 10,Praha 10,Přetlucká,3396/16
1139,1.0807913668927065,50.0618,14.5294,POINT (14.5294 50.0618),140,0.3483378520920899,Mokřanská,Praha 15,Praha 15,Rabakovská,1624/9
1140,1.2598374150063227,50.0618,14.5344,POINT (14.5344 50.0618),140,0.0410546521323477,Myšlínská,Praha 15,Praha 15,Myšlínská,313/8
1141,1.3529778140901003,50.0618,14.5394,POINT (14.5394 50.0618),106,0.2067021760372634,Kablo,Praha 15,Praha 15,Ke Kablu,278
1142,1.1878388562244888,50.0618,14.5444,POINT (14.5444 50.0618),50,0.2139353776729153,Zentiva,Dolní Měcholupy,Praha 15,U Kabelovny,ev. č. 21
1144,0.5710512783948695,50.0618,14.5544,POINT (14.5544 50.0618),50,0.3695763449393717,Kutnohorská,Dolní Měcholupy,Praha 15,Nad Vokolky,340/3
1145,0.8412750856030116,50.0618,14.5594,POINT (14.5594 50.0618),50,0.2664078533653692,Dolnoměcholupská,Dolní Měcholupy,Praha 15,Na Paloučku,223/11
1149,2.897381679733583,50.0618,14.5794,POINT (14.5794 50.0618),50,0.647485232920256,Dubeček,Dubeč,Praha 15,Městská,ev. č. 201
1150,3.4433580710051435,50.0618,14.5844,POINT (14.5844 50.0618),50,0.3810881618632132,Lázeňka,Dubeč,Praha 15,Městská,638
1151,3.4640872837777748,50.0618,14.5894,POINT (14.5894 50.0618),22,0.145745311706625,Za Pavilonem,Dubeč,Praha 15,Starodubečská,127/17
1152,3.352457626363188,50.0618,14.5944,POINT (14.5944 50.0618),22,0.2367512086234029,Dubeč,Dubeč,Praha 15,Mikova,31/12
1153,3.330779723051444,50.0618,14.5994,POINT (14.5994 50.0618),22,0.3182669426512375,Dubeč,Dubeč,Praha 15,Ke kolodějskému zámku,34/16
1161,2.1254265360946825,50.0618,14.6394,POINT (14.6394 50.0618),120,0.2368408675117204,Koloděje,Koloděje,Praha 21,Šachovská,244/4
1162,1.871764859579236,50.0618,14.6444,POINT (14.6444 50.0618),120,0.2175510275037627,Kvasinská,Koloděje,Praha 21,Kvasinská,188/12
1163,1.7622767713318015,50.0618,14.6494,POINT (14.6494 50.0618),120,0.7533154097507689,Kvasinská,Koloděje,Praha 21,Heckelova,555/4
1165,2.7718643011906834,50.0668,14.2594,POINT (14.2594 50.0668),592,0.4938529714815569,Sobín,Zličín,Praha 17,Nivnická,28
1166,2.2275029399362816,50.0668,14.2644,POINT (14.2644 50.0668),592,0.1440744510349362,Sobín,Zličín,Praha 17,Ke Břvům,42/7
1170,0.486230316068955,50.0668,14.2844,POINT (14.2844 50.0668),592,0.4525204840538855,Strojírenská,Zličín,Praha 17,Dolňanská,400
1171,0.3054781027567813,50.0668,14.2894,POINT (14.2894 50.0668),308,0.1522352439101145,Strojírenská,Zličín,Praha 17,Strojírenská,175/25
1172,0.2829813591103702,50.0668,14.2944,POINT (14.2944 50.0668),308,0.1317906776968578,Sportovní centrum Řepy,Praha 17,Praha 17,Engelmüllerova,625/4
1173,0.826371604028176,50.0668,14.2994,POINT (14.2994 50.0668),308,0.209470455155978,Sídliště Řepy,Praha 17,Praha 17,Galandova,1237/11
1174,1.040746777505778,50.0668,14.3044,POINT (14.3044 50.0668),246,0.2267440580135798,Blatiny,Praha 17,Praha 17,Makovského,1339/16
1175,0.6986540588983494,50.0668,14.3094,POINT (14.3094 50.0668),4,0.2083193992666986,Bazovského,Praha 17,Praha 17,Slánská,ev. č. 48
1176,0.4397781732591782,50.0668,14.3144,POINT (14.3144 50.0668),4,0.3460058878242333,Nevanova,Praha 17,Praha 17,Laudova,1024/10
1177,0.7174553570328954,50.0668,14.3194,POINT (14.3194 50.0668),4,0.4870883686304988,Hlušičkova,Praha 17,Praha 17,Mrkvičkova,1374/16
1178,1.2050433755659635,50.0668,14.3244,POINT (14.3244 50.0668),4,0.172215417898849,Krematorium Motol,Praha 5,Praha 5,Plzeňská,18/302
1179,1.3978731320187832,50.0668,14.3294,POINT (14.3294 50.0668),399,0.4303182684501799,Krematorium Motol,Praha 5,Praha 5,Plzeňská,9/229
1180,0.9428961901237372,50.0668,14.3344,POINT (14.3344 50.0668),399,0.2128599814199497,Motol,Praha 5,Praha 5,Plzeňská,316/225
1181,0.66340572614348,50.0668,14.3394,POINT (14.3394 50.0668),399,0.2059132802542169,Vozovna Motol,Praha 5,Praha 5,Plzeňská,101/219
1182,0.7792375052639477,50.0668,14.3444,POINT (14.3444 50.0668),399,0.2937841764267007,Hotel Golf,Praha 5,Praha 5,Plzeňská,315/217e
1185,0.8152589738354133,50.0668,14.3594,POINT (14.3594 50.0668),170,0.2971885321200102,U Lesíka,Praha 5,Praha 5,Trojdílná,1117/18
1186,0.2718878627656022,50.0668,14.3644,POINT (14.3644 50.0668),170,0.0206845424917403,Na Sklonku,Praha 5,Praha 5,V Cibulkách,515/47
1187,0.3150378158558048,50.0668,14.3694,POINT (14.3694 50.0668),170,0.2649879761176932,Pod Školou,Praha 5,Praha 5,Lovčenská,273/3
1188,0.8605955152793909,50.0668,14.3744,POINT (14.3744 50.0668),170,0.2348373422226027,Nad Turbovou,Praha 5,Praha 5,Nad Kuliškou,450/3
1189,1.2478400305933817,50.0668,14.3794,POINT (14.3794 50.0668),233,0.2666262793806368,U Měchurky,Praha 5,Praha 5,Jinonická,1313/27
1190,0.750057677129931,50.0668,14.3844,POINT (14.3844 50.0668),233,0.1377688232462925,U Blaženky,Praha 5,Praha 5,K Měchurce,870/1
1191,0.4290900792275833,50.0668,14.3894,POINT (14.3894 50.0668),233,0.2158800187601669,Malvazinky,Praha 5,Praha 5,Na Cihlářce,1570/5
1192,0.6493843801336144,50.0668,14.3944,POINT (14.3944 50.0668),233,0.2133540121488394,Václavka,Praha 5,Praha 5,U Nikolajky,174
1193,0.3734147702402084,50.0668,14.3994,POINT (14.3994 50.0668),458,0.0463810362049066,Santoška,Praha 5,Praha 5,U Santošky,849/6
1194,0.1912806939387144,50.0668,14.4044,POINT (14.4044 50.0668),458,0.21779452674177,Na Knížecí,Praha 5,Praha 5,Nádražní,128
1195,0.3187899971362142,50.0668,14.4094,POINT (14.4094 50.0668),221,0.3638755206811578,Plzeňka,Praha 5,Praha 5,Svornosti,1497/1
1196,0.1863219680866998,50.0668,14.4144,POINT (14.4144 50.0668),241,0.1501490578937588,Výtoň,Praha 2,Praha 2,Rašínovo nábřeží,50/26
1197,0.1895563445473104,50.0668,14.4194,POINT (14.4194 50.0668),488,0.1987335921733447,Albertov,Praha 2,Praha 2,Neklanova,116/16
1198,0.3424727255004268,50.0668,14.4244,POINT (14.4244 50.0668),48,0.197584612682101,Ostrčilovo náměstí,Praha 2,Praha 2,Horská,2040/3
1199,0.3147790933681735,50.0668,14.4294,POINT (14.4294 50.0668),48,0.1942948312153839,Svatoplukova,Praha 2,Praha 2,Sekaninova,551/38
1200,0.3968082949372058,50.0668,14.4344,POINT (14.4344 50.0668),463,0.2064370005334284,Nuselské schody,Praha 2,Praha 2,Rejskova,1708/9
1201,0.2438428356690144,50.0668,14.4394,POINT (14.4394 50.0668),520,0.178856184778973,Otakarova,Praha 4,Praha 4,Na ostrůvku,345/2
1202,0.3646715770371775,50.0668,14.4444,POINT (14.4444 50.0668),320,0.4039853483203611,Nádraží Vršovice,Praha 10,Praha 10,Vršovická,1525/1a
1203,0.0732779904622802,50.0668,14.4494,POINT (14.4494 50.0668),220,0.2183067192220771,Nádraží Vršovice,Praha 10,Praha 10,Sámova,664/8
1204,0.2206271113592699,50.0668,14.4544,POINT (14.4544 50.0668),243,0.1113277298654807,Bohemians,Praha 10,Praha 10,Sportovní,846/22
1205,0.309184204392128,50.0668,14.4594,POINT (14.4594 50.0668),528,0.1646278971275447,Čechovo náměstí,Praha 10,Praha 10,Vršovická,334/60
1206,0.1964281442957868,50.0668,14.4644,POINT (14.4644 50.0668),609,0.331810602857597,Koh-i-noor,Praha 10,Praha 10,Magnitogorská,1430/14
1207,0.1696184489528071,50.0668,14.4694,POINT (14.4694 50.0668),66,0.2260863657001667,Slavia - Nádraží Eden,Praha 10,Praha 10,Vršovická,1527/68b
1210,0.4489090464231279,50.0668,14.4844,POINT (14.4844 50.0668),344,0.5601375218150071,Průběžná,Praha 10,Praha 10,Železniční,397/1
1211,0.3717624250800763,50.0668,14.4894,POINT (14.4894 50.0668),37,0.3857093001280529,Na Hroudě,Praha 10,Praha 10,U Trati,ev. č. 180
1212,0.1899686827900119,50.0668,14.4944,POINT (14.4944 50.0668),649,0.1668920713784308,Radošovická,Praha 10,Praha 10,Radošovická,3231/6
1213,0.3659215836225868,50.0668,14.4994,POINT (14.4994 50.0668),649,0.364695311432241,Dubečská,Praha 10,Praha 10,Nučická,1834/48
1214,0.373402578678506,50.0668,14.5044,POINT (14.5044 50.0668),591,0.2678412666832667,Na Padesátém,Praha 10,Praha 10,Doubravčická,1091/25
1215,0.4016041536386267,50.0668,14.5094,POINT (14.5094 50.0668),563,0.2381524998538612,Skalka,Praha 10,Praha 10,Vyžlovská,3133/20
1216,0.5915093574996994,50.0668,14.5144,POINT (14.5144 50.0668),563,0.2102168291692566,Královická,Praha 10,Praha 10,Vyžlovská,2251/52
1217,1.074490923088424,50.0668,14.5194,POINT (14.5194 50.0668),563,0.277822284058414,Plošná,Praha 10,Praha 10,Do vršku,3283/9
1219,1.6342160472992695,50.0668,14.5294,POINT (14.5294 50.0668),140,0.476475389921082,Mokřanská,Praha 15,Praha 15,K Pérovně,945/7
1220,1.3066769441410415,50.0668,14.5344,POINT (14.5344 50.0668),106,0.3304208175788926,Barvy a laky,Praha 15,Praha 15,Průmyslová,1575/13
1223,0.4888283231939594,50.0668,14.5494,POINT (14.5494 50.0668),50,0.4094150859118295,Kardausova,Dolní Měcholupy,Praha 15,Kutnohorská,641
1224,0.0674339429112512,50.0668,14.5544,POINT (14.5544 50.0668),50,0.1484860181036619,Kardausova,Dolní Měcholupy,Praha 15,Honzíkova,636/8
1229,2.7414408317078696,50.0668,14.5794,POINT (14.5794 50.0668),68,1.106514931265007,Lázeňka,Dubeč,Praha 15,Slatiny,133/2
1241,1.694520811871128,50.0668,14.6394,POINT (14.6394 50.0668),120,0.5374152459218404,Pod Oborou,Koloděje,Praha 21,K Běchovicům,444/30
1242,1.3628890310970387,50.0668,14.6444,POINT (14.6444 50.0668),120,0.4898645573707013,Kvasinská,Koloděje,Praha 21,Ponrepova,430/19
1255,0.9393859672969184,50.0718,14.2994,POINT (14.2994 50.0718),308,0.3400769010091651,Ke Kaménce,Praha 17,Praha 17,Pod Martinem,1648/6
1256,0.5866022528075222,50.0718,14.3044,POINT (14.3044 50.0718),246,0.2188305248358876,Ke Kaménce,Praha 17,Praha 17,Žalanského,344/15
1257,0.4050751323751403,50.0718,14.3094,POINT (14.3094 50.0718),246,0.2800427640992277,Reinerova,Praha 17,Praha 17,Slánská,693/11
1258,0.7746738169956069,50.0718,14.3144,POINT (14.3144 50.0718),246,0.1021212451235109,Šedivého,Praha 17,Praha 17,Opuková,176/42
1259,1.144875280829943,50.0718,14.3194,POINT (14.3194 50.0718),4,0.4159065558856962,Selských baterií,Praha 17,Praha 17,Ke kulturnímu domu,439/14
1264,0.4387089357766428,50.0718,14.3444,POINT (14.3444 50.0718),399,0.0721138604484508,Kudrnova,Praha 5,Praha 5,Kudrnova,144/17
1265,0.6804585538822419,50.0718,14.3494,POINT (14.3494 50.0718),579,0.202757300095495,Pod Šafránkou,Praha 5,Praha 5,Deylova,227/8
1267,0.5834639148838239,50.0718,14.3594,POINT (14.3594 50.0718),579,0.384709993537442,Kotlářka,Praha 5,Praha 5,Pod Kotlářkou,151/3
1269,0.5492038087176039,50.0718,14.3694,POINT (14.3694 50.0718),170,0.2334832504615413,Kavalírka,Praha 5,Praha 5,Nad Zámečnicí,2083/21
1270,0.9710821999242528,50.0718,14.3744,POINT (14.3744 50.0718),170,0.1924279330076982,Pod Lipkami,Praha 5,Praha 5,Pod Klikovkou,2425/8
1271,1.4821655762084682,50.0718,14.3794,POINT (14.3794 50.0718),191,0.1213672690419117,Klamovka,Praha 5,Praha 5,Podbělohorská,1061/5
1272,1.158301960739118,50.0718,14.3844,POINT (14.3844 50.0718),233,0.315716178212355,U Zvonu,Praha 5,Praha 5,Holečkova,2282/76
1273,0.7974793985322782,50.0718,14.3894,POINT (14.3894 50.0718),490,0.2240121391276088,Zapova,Praha 5,Praha 5,Plzeňská,193/47
1274,0.2494041093155557,50.0718,14.3944,POINT (14.3944 50.0718),490,0.1773859636194624,Bertramka,Praha 5,Praha 5,Duškova,1041/20
1275,0.323235871158271,50.0718,14.3994,POINT (14.3994 50.0718),490,0.3861074170501898,Ženské domovy,Praha 5,Praha 5,Kováků,213/34
1276,0.2335160875647428,50.0718,14.4044,POINT (14.4044 50.0718),269,0.1295716655030508,Anděl,Praha 5,Praha 5,Nádražní,65/118
1277,0.0797520008583784,50.0718,14.4094,POINT (14.4094 50.0718),155,0.2060729564773853,Zborovská,Praha 5,Praha 5,Na Celné,1391/11
1278,0.2494619571324055,50.0718,14.4144,POINT (14.4144 50.0718),428,0.1044643173816234,Palackého náměstí,Praha 2,Praha 2,Dřevná,382/2
1279,0.2063645037815285,50.0718,14.4194,POINT (14.4194 50.0718),268,0.1144559560304903,Botanická zahrada,Praha 2,Praha 2,Na hrádku,1716/6
1280,0.3657572327035747,50.0718,14.4244,POINT (14.4244 50.0718),275,0.1831504120447613,Větrov,Praha 2,Praha 2,Viničná,438/3
1281,0.1819406365687174,50.0718,14.4294,POINT (14.4294 50.0718),533,0.147060139909917,Dětská nemocnice Karlov,Praha 2,Praha 2,Sokolská,1867/22
1282,0.1292156016614671,50.0718,14.4344,POINT (14.4344 50.0718),289,0.098810943106083,Zvonařka,Praha 2,Praha 2,Bruselská,297/6
1283,0.1361145040806653,50.0718,14.4394,POINT (14.4394 50.0718),312,0.2496633558837327,Jana Masaryka,Praha 2,Praha 2,Jana Masaryka,326/36
1284,0.1385797931578739,50.0718,14.4444,POINT (14.4444 50.0718),341,0.3338738977574271,Krymská,Praha 10,Praha 10,Voroněžská,779/7
1285,0.0126972051146691,50.0718,14.4494,POINT (14.4494 50.0718),590,0.2173248544925973,Ruská,Praha 10,Praha 10,Francouzská,156/106
1286,0.3227720948658944,50.0718,14.4544,POINT (14.4544 50.0718),568,0.300649792940161,Vršovické náměstí,Praha 10,Praha 10,Ruská,567/28
1287,0.116156156645117,50.0718,14.4594,POINT (14.4594 50.0718),387,0.1169414143063767,Slovinská,Praha 10,Praha 10,Bulharská,991/18
1288,0.3664260353764248,50.0718,14.4644,POINT (14.4644 50.0718),609,0.0799180921648391,Na Míčánkách,Praha 10,Praha 10,Na Míčánkách,1498/2
1289,0.4129349442171149,50.0718,14.4694,POINT (14.4694 50.0718),66,0.1040058609702209,Bělocerkevská,Praha 10,Praha 10,28. pluku,978/50
1290,0.3323971185793054,50.0718,14.4744,POINT (14.4744 50.0718),219,0.3178310062129881,Volyňská,Praha 10,Praha 10,Bajkalská,ev. č. 168
1291,0.225874535616077,50.0718,14.4794,POINT (14.4794 50.0718),219,0.1807494528584503,Murmanská,Praha 10,Praha 10,Kubánské náměstí,1267/10
1292,0.0886350984466253,50.0718,14.4844,POINT (14.4844 50.0718),7,0.0570335250317954,Pod Rapidem,Praha 10,Praha 10,Ruská,1343/200
1293,0.1967778503023366,50.0718,14.4894,POINT (14.4894 50.0718),350,0.1781071705610598,Na Hroudě,Praha 10,Praha 10,U Vesny,1269/5
1294,0.4435272317084339,50.0718,14.4944,POINT (14.4944 50.0718),264,0.3823012647189998,Strašnická,Praha 10,Praha 10,Nosická,2390/10
1295,0.4458540666265205,50.0718,14.4994,POINT (14.4994 50.0718),180,0.1558035259942501,Štěchovická,Praha 10,Praha 10,K Rybníčkům,2277/36
1296,0.3779535195304617,50.0718,14.5044,POINT (14.5044 50.0718),640,0.1796564438586721,Dobročovická,Praha 10,Praha 10,Štěchovická,3259/10
1297,0.1995641447013053,50.0718,14.5094,POINT (14.5094 50.0718),563,0.1631430878314002,Donatellova,Praha 10,Praha 10,Michelangelova,2003/5
1303,0.5765126773973268,50.0718,14.5394,POINT (14.5394 50.0718),106,0.3318081877428007,Radiová,Praha 10,Praha 10,Černokostelecká,80/155
1305,0.5590826657301086,50.0718,14.5494,POINT (14.5494 50.0718),106,0.113414131992737,Štěrboholy,Štěrboholy,Praha 15,Ústřední,33/9
1306,0.5468501721288304,50.0718,14.5544,POINT (14.5544 50.0718),50,0.1939742861547213,Škola Štěrboholy,Štěrboholy,Praha 15,Ústřední,370/38a
1307,0.8250389795987042,50.0718,14.5594,POINT (14.5594 50.0718),50,0.2088485020021055,Perspektivní,Štěrboholy,Praha 15,Upravená,254/3
1310,1.9628590267884227,50.0718,14.5744,POINT (14.5744 50.0718),68,1.5024861394102829,Novoštěrboholská,Dubeč,Praha 15,Slatiny,ev. č. 34
1311,2.4319642111500155,50.0718,14.5794,POINT (14.5794 50.0718),68,1.5163469659649116,Dolní Počernice,Dubeč,Praha 15,Slatiny,ev. č. 24
1325,0.6554350172474479,50.0718,14.6494,POINT (14.6494 50.0718),120,0.239317019643267,Ježovická,Praha 21,Praha 21,Dubinská,201
1326,0.8048358783344065,50.0718,14.6544,POINT (14.6544 50.0718),120,0.1823177159177033,Druhanická,Praha 21,Praha 21,Staroújezdská,1128
1327,0.5819480007602328,50.0718,14.6594,POINT (14.6594 50.0718),202,0.4762884721746511,Újezd nad Lesy,Praha 21,Praha 21,Toušická,ev. č. 248
1328,0.746348411392964,50.0718,14.6644,POINT (14.6644 50.0718),202,0.4110146850409467,Sudějovická,Praha 21,Praha 21,Chotouchovská,1041
1329,1.1796009608289395,50.0718,14.6694,POINT (14.6694 50.0718),202,0.3457834443939865,Zbyslavská,Praha 21,Praha 21,Lozická,129
1330,1.6858027471767547,50.0718,14.6744,POINT (14.6744 50.0718),202,0.4229997262611443,Zbyslavská,Praha 21,Praha 21,Zbýšovská,774
1331,2.2155029627577068,50.0718,14.6794,POINT (14.6794 50.0718),202,0.2074670026542812,Rohožnická,Praha 21,Praha 21,Měšínská,1631
1332,2.7551816371318387,50.0718,14.6844,POINT (14.6844 50.0718),202,0.3020499940276088,Sídliště Rohožník,Praha 21,Praha 21,Žherská,1666
1335,1.0465373308313084,50.0768,14.2944,POINT (14.2944 50.0768),308,0.2556299001264732,Na Hůrce,Praha 17,Praha 17,Karlovarská,399/102
1336,1.0085469206930084,50.0768,14.2994,POINT (14.2994 50.0768),246,0.0887416197843221,Zadní Jiviny,Praha 17,Praha 17,Karlovarská,1718/113
1337,0.4702133038413805,50.0768,14.3044,POINT (14.3044 50.0768),246,0.0938419077732342,Jiviny,Praha 17,Praha 17,Karlovarská,427/101
1338,0.2026924048387206,50.0768,14.3094,POINT (14.3094 50.0768),246,0.2991869812079789,Reinerova,Praha 6,Praha 6,Výtvarná,ev. č. 12/2
1339,0.690737193764104,50.0768,14.3144,POINT (14.3144 50.0768),246,0.2643861095599872,Ruzyňský hřbitov,Praha 6,Praha 6,Ovocná,454/22
1340,1.236608883487076,50.0768,14.3194,POINT (14.3194 50.0768),246,0.4377380868216768,Bílá Hora,Praha 6,Praha 6,Nad višňovkou,870/5
1341,1.776080906731502,50.0768,14.3244,POINT (14.3244 50.0768),110,0.1837334500145578,Bílá Hora,Praha 6,Praha 6,Filipíny Welserové,2499/9
1342,1.3193211036970856,50.0768,14.3294,POINT (14.3294 50.0768),399,0.3569738277965119,Malý Břevnov,Praha 6,Praha 6,Malobřevnovská,928/30
1343,0.8219562681738929,50.0768,14.3344,POINT (14.3344 50.0768),399,0.2186595795563466,Malý Břevnov,Praha 6,Praha 6,Za oborou,1383/6
1344,0.476094569303675,50.0768,14.3394,POINT (14.3394 50.0768),399,0.2545121907037481,Nemocnice Motol,Praha 6,Praha 6,Bolívarova,2082/1
1346,0.6609417041852388,50.0768,14.3494,POINT (14.3494 50.0768),579,0.2909715847996377,Na Šafránce,Praha 6,Praha 6,Nad motolskou nemocnicí,1055/28
1349,0.7883149251677154,50.0768,14.3644,POINT (14.3644 50.0768),105,0.3696676022541643,Spiritka,Praha 5,Praha 5,Podbělohorská,ev. č. 117
1350,0.99725275679742,50.0768,14.3694,POINT (14.3694 50.0768),346,0.1919740507367481,Spiritka,Praha 5,Praha 5,Zdíkovská,3054/114
1351,0.906527401777978,50.0768,14.3744,POINT (14.3744 50.0768),139,0.2448176070675378,Podbělohorská,Praha 5,Praha 5,Jezerní,2960/6
1352,0.9450665871824886,50.0768,14.3794,POINT (14.3794 50.0768),191,0.2362375511192743,Hybšmanka,Praha 5,Praha 5,Nad Klikovkou,3120/2a
1353,1.237562475917284,50.0768,14.3844,POINT (14.3844 50.0768),191,0.3767713000731013,Hybšmanka,Praha 5,Praha 5,Na Hřebenkách,2789/110
1354,0.9308159603881004,50.0768,14.3894,POINT (14.3894 50.0768),490,0.1594564201642901,U Palaty,Praha 5,Praha 5,U Plátenice,1960/2
1355,0.5409689184909823,50.0768,14.3944,POINT (14.3944 50.0768),490,0.3015117444987401,Holečkova,Praha 5,Praha 5,U Nesypky,3142/6a
1356,0.4853810148050003,50.0768,14.3994,POINT (14.3994 50.0768),169,0.1147828200817817,Kobrova,Praha 5,Praha 5,Holečkova,3151/25c
1357,0.0206288839793783,50.0768,14.4044,POINT (14.4044 50.0768),211,0.0755326943634391,Arbesovo náměstí,Praha 5,Praha 5,Štefánikova,275/38
1358,0.2829747962598055,50.0768,14.4094,POINT (14.4094 50.0768),176,0.5050081799335266,Jiráskovo náměstí,Praha 5,Praha 5,Nábřežní,90/4
1359,0.0840336484432724,50.0768,14.4144,POINT (14.4144 50.0768),51,0.1099444577941844,Jiráskovo náměstí,Praha 2,Praha 2,Masarykovo nábřeží,2016/6
1360,0.1578629230661819,50.0768,14.4194,POINT (14.4194 50.0768),12,0.0742234059315317,Novoměstská radnice,Praha 2,Praha 2,Karlovo náměstí,292/15
1361,0.1113357313235669,50.0768,14.4244,POINT (14.4244 50.0768),98,0.1730892675246068,Štěpánská,Praha 2,Praha 2,Štěpánská,537/13
1362,0.152082704416807,50.0768,14.4294,POINT (14.4294 50.0768),196,0.2379084883466228,I. P. Pavlova,Praha 2,Praha 2,Sokolská,1605/66
1363,0.0808130517096665,50.0768,14.4344,POINT (14.4344 50.0768),263,0.1118037211307443,Římská,Praha 2,Praha 2,Anglická,658/23
1364,0.0713737812088263,50.0768,14.4394,POINT (14.4394 50.0768),448,0.2265630731715068,Blanická,Praha 2,Praha 2,Blanická,1787/22
1365,0.1175706398821024,50.0768,14.4444,POINT (14.4444 50.0768),517,0.1715646629581035,Šumavská,Praha 2,Praha 2,Vinohradská,1451/71
1366,0.100238553241618,50.0768,14.4494,POINT (14.4494 50.0768),216,0.0734500386307476,Jiřího z Poděbrad,Praha 3,Praha 3,U vodárny,896/14
1367,0.0986541436476797,50.0768,14.4544,POINT (14.4544 50.0768),603,0.163035279485892,Perunova,Praha 3,Praha 3,Slezská,2530/65a
1368,0.1418133582942361,50.0768,14.4594,POINT (14.4594 50.0768),226,0.1273088440938211,Orionka,Praha 3,Praha 3,Slezská,1898/95
1369,0.4008613421242283,50.0768,14.4644,POINT (14.4644 50.0768),150,0.2763914721946942,Vlašimská,Praha 3,Praha 3,Slezská,2262/138
1370,0.1796543114698608,50.0768,14.4694,POINT (14.4694 50.0768),150,0.2982321691711405,Olšanské hřbitovy,Praha 3,Praha 3,V Horní Stromce,2365/8
1371,0.6718518458778433,50.0768,14.4744,POINT (14.4744 50.0768),219,0.1243487625211231,Nemocnice Vinohrady,Praha 3,Praha 3,Květná,2068/49
1372,0.6260322389537291,50.0768,14.4794,POINT (14.4794 50.0768),219,0.1130190558726107,Vinohradské hřbitovy,Praha 10,Praha 10,Vinohradská,294/212
1373,0.1955125952309419,50.0768,14.4844,POINT (14.4844 50.0768),415,0.0788513632230851,Krematorium Strašnice,Praha 10,Praha 10,Vinohradská,2509/214a
1374,0.361142401199214,50.0768,14.4894,POINT (14.4894 50.0768),415,0.1039902035263278,Vinice,Praha 10,Praha 10,Starostrašnická,989/64
1375,0.5380044702756749,50.0768,14.4944,POINT (14.4944 50.0768),264,0.0166998900549072,Solidarita,Praha 10,Praha 10,Černokostelecká,118/19
1376,0.1710360321331936,50.0768,14.4994,POINT (14.4994 50.0768),180,0.1540999163915196,Zborov - Strašnické divadlo,Praha 10,Praha 10,Solidarity,2784/97
1377,0.4554352511585153,50.0768,14.5044,POINT (14.5044 50.0768),180,0.3115652089433569,Limuzská,Praha 10,Praha 10,Dvouletky,2872/445
1378,0.7167492200378115,50.0768,14.5094,POINT (14.5094 50.0768),640,0.1523205729428063,Nové Strašnice,Praha 10,Praha 10,Černokostelecká,1219/86
1380,1.2359856985661424,50.0768,14.5194,POINT (14.5194 50.0768),563,0.2910515639618083,Depo Hostivař,Praha 10,Praha 10,Černokostelecká,739/110
1381,1.717078353148193,50.0768,14.5244,POINT (14.5244 50.0768),563,0.1234697262489259,Malešická továrna,Praha 10,Praha 10,Černokostelecká,604/116
1382,1.7295503051862475,50.0768,14.5294,POINT (14.5294 50.0768),106,0.1270840934184445,Na Homoli,Praha 10,Praha 10,Černokostelecká,621/122
1383,1.2005509310854552,50.0768,14.5344,POINT (14.5344 50.0768),106,0.3342192979465498,Ústřední dílny DP,Praha 10,Praha 10,Černokostelecká,613/145
1384,0.7122856295686423,50.0768,14.5394,POINT (14.5394 50.0768),106,0.1724245095741473,Zamenhofova,Štěrboholy,Praha 15,Zamenhofova,440
1396,3.2880852130811613,50.0768,14.5994,POINT (14.5994 50.0768),285,0.439594161585473,Otakara Vrby,Běchovice,Praha 21,K železnici,320
1405,0.6430724330466665,50.0768,14.6444,POINT (14.6444 50.0768),120,0.2477469472602278,Blatov,Praha 21,Praha 21,Onšovecká,1280
1406,0.1251314643266032,50.0768,14.6494,POINT (14.6494 50.0768),120,0.3355056498165777,Podlužanská,Praha 21,Praha 21,Račiněveská,2541
1407,0.4835531124754273,50.0768,14.6544,POINT (14.6544 50.0768),120,0.0606953846351969,Rápošovská,Praha 21,Praha 21,Rápošovská,110
1408,0.0835334857336523,50.0768,14.6594,POINT (14.6594 50.0768),202,0.1250684839325807,Hulická,Praha 21,Praha 21,Staroklánovická,91
1409,0.4747107738810902,50.0768,14.6644,POINT (14.6644 50.0768),202,0.2277796551931421,Sudějovická,Praha 21,Praha 21,Hulická,1003
1410,1.0294526674104738,50.0768,14.6694,POINT (14.6694 50.0768),202,0.3677143734161667,Zbyslavská,Praha 21,Praha 21,Sulovická,1113
1411,1.5843753564224214,50.0768,14.6744,POINT (14.6744 50.0768),202,0.4411081935499247,Zbyslavská,Praha 21,Praha 21,Holšická,1024
1412,2.139338155981461,50.0768,14.6794,POINT (14.6794 50.0768),202,0.4191985283733231,Rohožnická,Praha 21,Praha 21,Veletovská,2256
1413,2.6943162808472323,50.0768,14.6844,POINT (14.6844 50.0768),202,0.5449723836052783,Sídliště Rohožník,Praha 21,Praha 21,Kalská,ev. č. 308
1423,0.7308437309643477,50.0818,14.3094,POINT (14.3094 50.0818),246,0.1278580514918419,Staré náměstí,Praha 6,Praha 6,Drnovská,1097/43a
1424,0.9849701614565252,50.0818,14.3144,POINT (14.3144 50.0818),246,0.3663084098350561,Praha-Ruzyně,Praha 6,Praha 6,Staré náměstí,36
1425,1.3476090074740097,50.0818,14.3194,POINT (14.3194 50.0818),110,0.2384330641916801,Ruzyňská škola,Praha 6,Praha 6,Krušovická,61/2
1430,0.6009973892062344,50.0818,14.3444,POINT (14.3444 50.0818),316,0.0548800894461053,Dopravní hřiště Vypich,Praha 6,Praha 6,Na klášterním,1213/3
1432,0.4130251176517852,50.0818,14.3544,POINT (14.3544 50.0818),412,0.1105288111296118,Říčanova,Praha 6,Praha 6,Bělohorská,2424/179a
1433,0.4030577462614532,50.0818,14.3594,POINT (14.3594 50.0818),412,0.1648619610781331,Břevnovský klášter,Praha 6,Praha 6,Říčanova,878/16
1434,0.2470257814265322,50.0818,14.3644,POINT (14.3644 50.0818),346,0.250476326842279,U Kaštanu,Praha 6,Praha 6,Šultysova,711/21
1435,0.6165836921523354,50.0818,14.3694,POINT (14.3694 50.0818),83,0.2075273763725554,Rozýnova,Praha 6,Praha 6,U Ladronky,2364/11
1436,0.3820056025291265,50.0818,14.3744,POINT (14.3744 50.0818),139,0.1828807111204131,Televizní věž,Praha 6,Praha 6,Nad Tejnkou,2479/9
1437,0.4533617905365116,50.0818,14.3794,POINT (14.3794 50.0818),191,0.3579928918921491,Královka,Praha 6,Praha 6,Smiřického,1109/2
1439,0.6460680245860406,50.0818,14.3894,POINT (14.3894 50.0818),548,0.1760978838051445,Koleje Strahov,Praha 6,Praha 6,Vaníčkova,100/6
1440,0.2252935016970459,50.0818,14.3944,POINT (14.3944 50.0818),512,0.2507513890192702,Petřín LD,Praha 6,Praha 6,Olympijská,2390/2a
1441,0.530020933376134,50.0818,14.3994,POINT (14.3994 50.0818),512,0.054864739956066,Nebozízek LD,Praha 1,Praha 1,Petřínské sady,411
1442,0.0366635500675675,50.0818,14.4044,POINT (14.4044 50.0818),440,0.0820174681072389,Újezd,Praha 1,Praha 1,Újezd,424/22
1444,0.0591051627599658,50.0818,14.4144,POINT (14.4144 50.0818),274,0.1233961633592975,Národní divadlo,Praha 1,Praha 1,Krocínova,1009/2
1445,0.0598326319796535,50.0818,14.4194,POINT (14.4194 50.0818),301,0.146646512711161,Národní třída,Praha 1,Praha 1,Spálená,108/51
1446,0.071937762244924,50.0818,14.4244,POINT (14.4244 50.0818),228,0.1219986169275628,Václavské náměstí,Praha 1,Praha 1,Vodičkova,2108/39a
1447,0.0524892364358992,50.0818,14.4294,POINT (14.4294 50.0818),328,0.3665161265671092,Muzeum,Praha 1,Praha 1,Opletalova,919/5
1449,0.4423372574170269,50.0818,14.4394,POINT (14.4394 50.0818),43,0.261264752645355,Na Smetance,Praha 2,Praha 2,Italská,2561/45
1450,0.0772714935753913,50.0818,14.4444,POINT (14.4444 50.0818),326,0.0997339348569116,Park Rajská zahrada,Praha 3,Praha 3,U Rajské zahrady,797/8
1451,0.0741691957894688,50.0818,14.4494,POINT (14.4494 50.0818),575,0.4246314916143021,U Prdlavky,Praha 3,Praha 3,Fibichova,1500/19
1452,0.235800425226713,50.0818,14.4544,POINT (14.4544 50.0818),531,0.2626447651787643,Lipanská,Praha 3,Praha 3,Ondříčkova,384/33
1453,0.0352065744739078,50.0818,14.4594,POINT (14.4594 50.0818),385,0.1525067953319546,Olšanské náměstí,Praha 3,Praha 3,Jičínská,1786/49
1455,0.5036456162714741,50.0818,14.4694,POINT (14.4694 50.0818),150,0.260410202683565,Mezi Hřbitovy,Praha 3,Praha 3,Jana Želivského,2867
1457,0.6094766730263198,50.0818,14.4794,POINT (14.4794 50.0818),498,0.3776526428485142,Třebešín,Praha 3,Praha 3,Pod kapličkou,2846/9
1458,0.336051179395784,50.0818,14.4844,POINT (14.4844 50.0818),498,0.1656690153195909,Pod Třebešínem,Praha 10,Praha 10,K Červenému dvoru,406/12
1459,0.6447698586968326,50.0818,14.4894,POINT (14.4894 50.0818),415,0.1764860769093988,Na Palouku,Praha 10,Praha 10,Slunečná,1036/16
1460,0.9558519007347605,50.0818,14.4944,POINT (14.4944 50.0818),180,0.141886457615093,Hostýnská,Praha 10,Praha 10,Chotutická,501/1
1461,0.6897614079145625,50.0818,14.4994,POINT (14.4994 50.0818),180,0.0561513882180363,Plaňanská,Praha 10,Praha 10,Počernická,708/60a
1462,0.4731576266062679,50.0818,14.5044,POINT (14.5044 50.0818),485,0.2539088664524718,Černická,Praha 10,Praha 10,Tuchorazská,426/9
1463,0.2097683287004732,50.0818,14.5094,POINT (14.5094 50.0818),485,0.1997837834752845,Sídliště Malešice,Praha 10,Praha 10,Limuzská,567/12a
1464,0.692948312528375,50.0818,14.5144,POINT (14.5144 50.0818),485,0.5043931565615815,Malešické náměstí,Praha 10,Praha 10,Podle trati,624/7
1465,1.2379022481382624,50.0818,14.5194,POINT (14.5194 50.0818),485,0.1782524254828612,Polygrafická,Praha 10,Praha 10,Sazečská,598/7
1466,1.7890434841154823,50.0818,14.5244,POINT (14.5244 50.0818),485,0.2233280454520359,Teplárna Malešice,Praha 10,Praha 10,Tiskařská,563/6
1469,1.1394668792819742,50.0818,14.5394,POINT (14.5394 50.0818),106,0.232867344708784,Spalovna Malešice,Praha 14,Praha 14,U Technoplynu,1572
1472,0.6425202557779396,50.0818,14.5544,POINT (14.5544 50.0818),68,0.4905667718589593,U Jahodnice,Praha 14,Praha 14,Manželů Dostálových,1301
1473,0.1013244509235646,50.0818,14.5594,POINT (14.5594 50.0818),68,0.656784200043874,Jahodnice,Praha 14,Praha 14,U Hostavického potoka,803/71
1474,0.4730232654161762,50.0818,14.5644,POINT (14.5644 50.0818),68,0.6602811287548933,Lomnická,Dolní Počernice,Praha 14,V Záhorském,585
1475,0.9356828454833758,50.0818,14.5694,POINT (14.5694 50.0818),598,0.6521382356944534,Nádraží Dolní Počernice,Dolní Počernice,Praha 14,Listopadová,371
1476,1.4134490338961618,50.0818,14.5744,POINT (14.5744 50.0818),598,0.4755673876456787,Dolní Počernice,Dolní Počernice,Praha 14,Jinolická,864
1479,2.458136209895955,50.0818,14.5894,POINT (14.5894 50.0818),285,0.5898008095099615,U Počernického rybníka,Dolní Počernice,Praha 14,Českobrodská,ev. č. 42
1481,2.790520811719798,50.0818,14.5994,POINT (14.5994 50.0818),285,0.0921493226726334,Nádraží Běchovice,Běchovice,Praha 21,Ke Třem mostům,608
1482,3.09570150172162,50.0818,14.6044,POINT (14.6044 50.0818),285,0.3988388277671167,Hasičská,Běchovice,Praha 21,Českobrodská,211
1484,3.362952389680738,50.0818,14.6144,POINT (14.6144 50.0818),257,0.2416253989034781,Praha-Běchovice střed,Běchovice,Praha 21,Dolnopočernická,29
1485,3.33860764286843,50.0818,14.6194,POINT (14.6194 50.0818),257,0.2830324416495127,Běchovice,Běchovice,Praha 21,Za poštovskou zahradou,588
1486,2.892696330207226,50.0818,14.6244,POINT (14.6244 50.0818),120,0.3112058435884424,Na Vaňhově,Běchovice,Praha 21,Na spáleništi,454
1489,1.2765536598413258,50.0818,14.6394,POINT (14.6394 50.0818),120,0.648395814724934,Blatov sever,Praha 21,Praha 21,Načešická,1489
1490,0.7846368431793916,50.0818,14.6444,POINT (14.6444 50.0818),120,0.1383274504675865,Blatov sever,Praha 21,Praha 21,Borovská,2251
1491,0.4666590885158906,50.0818,14.6494,POINT (14.6494 50.0818),120,0.0738045669319346,Pilovská,Praha 21,Praha 21,Pilovská,254
1492,0.6602548251354436,50.0818,14.6544,POINT (14.6544 50.0818),120,0.303210676296676,Polešovická,Praha 21,Praha 21,Čekanovská,1890
1509,1.2453781870377858,50.0868,14.2994,POINT (14.2994 50.0868),409,0.4420936449441487,Dlouhá míle,Praha 6,Praha 6,Drnovská,524/73
1512,1.3075689988661596,50.0868,14.3144,POINT (14.3144 50.0868),110,0.0944542275830983,Ruzyňský velkoobchod,Praha 6,Praha 6,U Prioru,1047/8
1514,0.6661898291446803,50.0868,14.3244,POINT (14.3244 50.0868),110,0.1339674428069917,Ruzyňská,Praha 6,Praha 6,Mladotická,178/8
1515,0.857274745508042,50.0868,14.3294,POINT (14.3294 50.0868),110,0.0176075007382466,Libocká,Praha 6,Praha 6,Libocká,58/42
1516,0.8685936344904279,50.0868,14.3344,POINT (14.3344 50.0868),115,0.5680378317989802,Sídliště Petřiny,Praha 6,Praha 6,V domcích,94/3
1517,0.3253805978810093,50.0868,14.3394,POINT (14.3394 50.0868),115,0.0348150593133893,Sídliště Petřiny,Praha 6,Praha 6,Heyrovského náměstí,780/5
1518,0.1489927968492703,50.0868,14.3444,POINT (14.3444 50.0868),316,0.0974638842129765,Petřiny,Praha 6,Praha 6,Fajmanové,1729/2
1519,0.7019112778498856,50.0868,14.3494,POINT (14.3494 50.0868),316,0.2954513781337179,Koleje Větrník,Praha 6,Praha 6,Ankarská,2380/20
1521,0.4574514860974017,50.0868,14.3594,POINT (14.3594 50.0868),425,0.1784085406900709,Kusá,Praha 6,Praha 6,Markétská,ev. č. 4
1522,0.2131240790657189,50.0868,14.3644,POINT (14.3644 50.0868),65,0.1537467952006874,Břevnovská,Praha 6,Praha 6,Sartoriova,31/2
1523,0.1030820331513648,50.0868,14.3694,POINT (14.3694 50.0868),83,0.2277423748131465,Kajetánka,Praha 6,Praha 6,Za Kajetánkou,1277/20
1524,0.2934529443594454,50.0868,14.3744,POINT (14.3744 50.0868),139,0.2967678714322359,Marjánka,Praha 6,Praha 6,Patočkova,1953/45
1525,0.3660231850969028,50.0868,14.3794,POINT (14.3794 50.0868),191,0.1321161267228242,Pod Královkou,Praha 6,Praha 6,Patočkova,139/26
1526,0.2477575108559858,50.0868,14.3844,POINT (14.3844 50.0868),455,0.2744667587779623,Malovanka,Praha 6,Praha 6,Myslbekova,694/5
1527,0.1241923974441101,50.0868,14.3894,POINT (14.3894 50.0868),548,0.173652027471372,Pohořelec,Praha 1,Praha 1,Strahovské nádvoří,132/1
1528,0.3446102259166553,50.0868,14.3944,POINT (14.3944 50.0868),87,0.2169588659376899,Nemocnice pod Petřínem,Praha 1,Praha 1,Vlašská,340/42
1529,0.2826481736837735,50.0868,14.3994,POINT (14.3994 50.0868),72,0.1588371141771205,Šporkova,Praha 1,Praha 1,Vlašská,351/11
1530,0.0427190024666443,50.0868,14.4044,POINT (14.4044 50.0868),244,0.1321006336519353,Malostranské náměstí,Praha 1,Praha 1,Prokopská,296/8
1531,0.1388288659844128,50.0868,14.4094,POINT (14.4094 50.0868),273,0.4826312730598951,Malostranská,Praha 1,Praha 1,Na Kampě,515/8
1532,0.0576933358524007,50.0868,14.4144,POINT (14.4144 50.0868),535,0.2525907229637056,Karlovy lázně,Praha 1,Praha 1,Křižovnická,191/1
1533,0.1194128474824706,50.0868,14.4194,POINT (14.4194 50.0868),608,0.208073625819406,Staroměstské náměstí,Praha 1,Praha 1,Malé náměstí,8/6
1534,0.0895484180697086,50.0868,14.4244,POINT (14.4244 50.0868),539,0.2715517487033487,Masná,Praha 1,Praha 1,Ovocný trh,563/9
1535,0.0664495111409885,50.0868,14.4294,POINT (14.4294 50.0868),345,0.2137405220472525,Jindřišská,Praha 1,Praha 1,Senovážná,997/10
1536,0.075818826507249,50.0868,14.4344,POINT (14.4344 50.0868),460,0.1458712724019336,Praha Masarykovo nádr.,Praha 1,Praha 1,Hybernská,1012/30
1537,0.4585802402816674,50.0868,14.4394,POINT (14.4394 50.0868),56,0.3403931183322463,Náměstí Winstona Churchilla,Praha 8,Praha 8,Husitská,1221/1a
1538,0.208917566391009,50.0868,14.4444,POINT (14.4444 50.0868),56,0.1671363859526823,U Památníku,Praha 3,Praha 3,Husitská,2868/32a
1539,0.0448398517804013,50.0868,14.4494,POINT (14.4494 50.0868),330,0.3297082387772411,Tachovské náměstí,Praha 3,Praha 3,Husitská,109/66
1540,0.0483072413569787,50.0868,14.4544,POINT (14.4544 50.0868),23,0.1392267123878408,Rokycanova,Praha 3,Praha 3,Roháčova,133/13
1541,0.211285511150753,50.0868,14.4594,POINT (14.4594 50.0868),351,0.2453968933416377,Lukášova,Praha 3,Praha 3,Jeseniova,1045/33
1542,0.1366496832452528,50.0868,14.4644,POINT (14.4644 50.0868),260,0.3510585067139626,Černínova,Praha 3,Praha 3,Pod Parukářkou,2760/8
1543,0.1073145864362185,50.0868,14.4694,POINT (14.4694 50.0868),197,0.1742496497544803,Basilejské náměstí,Praha 3,Praha 3,Basilejské náměstí,98/9
1544,0.5458891377239354,50.0868,14.4744,POINT (14.4744 50.0868),9,0.3886319781484426,Basilejské náměstí,Praha 3,Praha 3,Malešická,2177/14
1545,0.0873760172180287,50.0868,14.4794,POINT (14.4794 50.0868),9,0.092613260254383,Olgy Havlové,Praha 3,Praha 3,K Červenému dvoru,2721/35
1546,0.2263552163604772,50.0868,14.4844,POINT (14.4844 50.0868),498,0.2057495356251798,Vackov,Praha 3,Praha 3,Malešická,2679/49
1547,0.6393397095313418,50.0868,14.4894,POINT (14.4894 50.0868),498,0.2016894741181443,Habrová,Praha 3,Praha 3,Malešická,ev. č. 74
1548,1.175722690260698,50.0868,14.4944,POINT (14.4944 50.0868),498,0.2073385591399902,Malešický park,Praha 10,Praha 10,Mölzerova,726/1
1549,1.0646234580948546,50.0868,14.4994,POINT (14.4994 50.0868),485,0.359065806094301,Malešický park,Praha 10,Praha 10,Malešická,642/59d
1550,0.580945539302793,50.0868,14.5044,POINT (14.5044 50.0868),485,0.275148817767152,Univerzitní,Praha 10,Praha 10,Bakalářská,644/15
1551,0.3970167902569441,50.0868,14.5094,POINT (14.5094 50.0868),485,0.2804960487894795,Malešické náměstí,Praha 10,Praha 10,Kaňkova,583/21
1552,0.7705822109652278,50.0868,14.5144,POINT (14.5144 50.0868),485,0.2130019245728348,Botanická zahrada Malešice,Praha 10,Praha 10,U tvrze,28/24
1553,1.282973716007425,50.0868,14.5194,POINT (14.5194 50.0868),485,0.6375335645058626,Botanická zahrada Malešice,Praha 9,Praha 9,Pod Táborem,661/2a
1557,1.6448309092029485,50.0868,14.5394,POINT (14.5394 50.0868),106,0.2298120584474911,Perlit,Praha 14,Praha 14,Průmyslová,881
1559,1.2955886709809812,50.0868,14.5494,POINT (14.5494 50.0868),68,0.2601421985601034,Sídliště Jahodnice,Praha 14,Praha 14,Nedokončená,1578
1560,0.8123634467678594,50.0868,14.5544,POINT (14.5544 50.0868),68,0.3995011745006636,Jahodnice,Praha 14,Praha 14,Bajgarova,1153
1561,0.3772690265213874,50.0868,14.5594,POINT (14.5594 50.0868),598,0.1827489683346502,Jahodnice,Praha 14,Praha 14,Staňkovská,419
1562,0.1804652389306186,50.0868,14.5644,POINT (14.5644 50.0868),598,0.1738629287402701,Lomnická,Praha 14,Praha 14,U Hostavického potoka,722/3
1563,0.734066404729313,50.0868,14.5694,POINT (14.5694 50.0868),598,0.164642695622342,Praha-Dolní Počernice,Dolní Počernice,Praha 14,Pilníkovská,367
1564,1.288871316556601,50.0868,14.5744,POINT (14.5744 50.0868),598,0.1601212493322464,Studenecká,Dolní Počernice,Praha 14,Českobrodská,74
1565,1.6861974844787808,50.0868,14.5794,POINT (14.5794 50.0868),420,0.2709465540521486,Stará obec,Dolní Počernice,Praha 14,Ke hrázi,ev. č. 110
1567,1.9063015654831748,50.0868,14.5894,POINT (14.5894 50.0868),285,0.3674370474575101,Nad Rybníkem,Dolní Počernice,Praha 14,Nad rybníkem,228
1569,2.3191719282544088,50.0868,14.5994,POINT (14.5994 50.0868),285,0.2231717234768239,Vinice Dolní Počernice,Dolní Počernice,Praha 14,V pařezinách,567
1570,2.6786040804724096,50.0868,14.6044,POINT (14.6044 50.0868),285,0.3742089004281513,Vinice Dolní Počernice,Dolní Počernice,Praha 14,Nad rybníkem,411
1572,2.813263638575715,50.0868,14.6144,POINT (14.6144 50.0868),257,0.3485111038053179,VÚ Běchovice,Běchovice,Praha 21,Mladých Běchovic,55
1581,1.0916760410200157,50.0868,14.6594,POINT (14.6594 50.0868),202,0.5118467516652041,Praha-Klánovice,Klánovice,Praha 21,U trativodu,755/26
1582,1.1874885490551494,50.0868,14.6644,POINT (14.6644 50.0868),202,0.0505075041466529,Nádraží Klánovice,Praha 21,Praha 21,Staroklánovická,204
1598,0.9847749416282896,50.0918,14.2994,POINT (14.2994 50.0918),409,0.1706261729632554,Dlouhá míle,Praha 6,Praha 6,Drnovská,1112/60
1599,1.5284718022092176,50.0918,14.3044,POINT (14.3044 50.0918),409,0.1849582391582852,Navigátorů,Praha 6,Praha 6,Družicová,880/24
1600,1.683901225299409,50.0918,14.3094,POINT (14.3094 50.0918),110,0.2155241449325898,Sídliště Na Dědině,Praha 6,Praha 6,Žukovského,580/6
1601,1.1307008611455145,50.0918,14.3144,POINT (14.3144 50.0918),110,0.1334557916193926,Nová Šárka,Praha 6,Praha 6,Pod cihelnou,500/3
1602,0.5809436618339989,50.0918,14.3194,POINT (14.3194 50.0918),110,0.2795599776793933,Vlastina,Praha 6,Praha 6,Vlastina,534/17
1603,0.1120564101476378,50.0918,14.3244,POINT (14.3244 50.0918),110,0.1530733212116774,Divoká Šárka,Praha 6,Praha 6,Jenečská,149/42
1604,0.5510605591813257,50.0918,14.3294,POINT (14.3294 50.0918),110,0.27587003178756,Vozovna Vokovice,Praha 6,Praha 6,Za Vokovickou vozovnou,257/6
1607,0.2382282878827585,50.0918,14.3444,POINT (14.3444 50.0918),143,0.1742750903716222,Na Okraji,Praha 6,Praha 6,Šumberova,359/40
1608,0.6762105023386287,50.0918,14.3494,POINT (14.3494 50.0918),230,0.2663478029177838,Větrník,Praha 6,Praha 6,Pod Petřinami,85/3
1609,0.8690366396381649,50.0918,14.3544,POINT (14.3544 50.0918),280,0.4614381427221207,Poliklinika Petřiny,Praha 6,Praha 6,Pod novým lesem,34/78
1610,0.3778048051340358,50.0918,14.3594,POINT (14.3594 50.0918),425,0.0742899341845865,Vojenská nemocnice,Praha 6,Praha 6,Pod novým lesem,170/74
1611,0.3285045360605988,50.0918,14.3644,POINT (14.3644 50.0918),425,0.1872182538989488,U Vojenské nemocnice,Praha 6,Praha 6,U šesté baterie,2103/47
1612,0.5070762878391176,50.0918,14.3694,POINT (14.3694 50.0918),83,0.0704752977573206,Baterie,Praha 6,Praha 6,U šesté baterie,813/15
1613,0.6846013734858143,50.0918,14.3744,POINT (14.3744 50.0918),83,0.0883125159268358,Náměstí Před Bateriemi,Praha 6,Praha 6,náměstí Před bateriemi,690/21
1614,0.7310321765115279,50.0918,14.3794,POINT (14.3794 50.0918),455,0.1212643299817106,Ořechovka,Praha 6,Praha 6,Nad hradním vodojemem,386/8
1615,0.342141284040966,50.0918,14.3844,POINT (14.3844 50.0918),455,0.0997687327248731,Sibeliova,Praha 6,Praha 6,Nad octárnou,407/13
1616,0.1351960664001137,50.0918,14.3894,POINT (14.3894 50.0918),335,0.227769549007292,Vozovna Střešovice,Praha 1,Praha 1,Černínská,94/12
1617,0.305149429819587,50.0918,14.3944,POINT (14.3944 50.0918),549,0.2805468520082817,Brusnice,Praha 1,Praha 1,U Brusnice,316/5
1618,0.344542956043547,50.0918,14.3994,POINT (14.3994 50.0918),549,0.2128031233409771,Pražský hrad,Praha 1,Praha 1,U Prašného mostu,49/2
1619,0.034475195551918,50.0918,14.4044,POINT (14.4044 50.0918),613,0.1849738134316806,Valdštejnské náměstí,Praha 1,Praha 1,Jiřská,11/4
1620,0.2081387153633762,50.0918,14.4094,POINT (14.4094 50.0918),557,0.0812926610142375,Malostranská,Praha 1,Praha 1,Klárov,131/3
1622,0.1217754250394132,50.0918,14.4194,POINT (14.4194 50.0918),389,0.1885783112921726,Právnická fakulta,Praha 1,Praha 1,Elišky Krásnohorské,44/16
1623,0.2639085497393534,50.0918,14.4244,POINT (14.4244 50.0918),234,0.097376802165446,Haštalské náměstí,Praha 1,Praha 1,Anežská,1043/4
1624,0.0250778083187001,50.0918,14.4294,POINT (14.4294 50.0918),418,0.2019091757446901,Dlouhá třída,Praha 1,Praha 1,Klimentská,1208/12
1625,0.1649067322475991,50.0918,14.4344,POINT (14.4344 50.0918),558,0.2361084882464602,Bílá labuť,Praha 1,Praha 1,Mlynářská,1171/2
1626,0.1166539217909138,50.0918,14.4394,POINT (14.4394 50.0918),619,0.1467841202180421,Florenc,Praha 8,Praha 8,Sokolovská,204/11
1627,0.0739138056239346,50.0918,14.4444,POINT (14.4444 50.0918),461,0.1758501811570864,Karlínské náměstí,Praha 8,Praha 8,Vítkova,243/13
1628,0.0518909191735379,50.0918,14.4494,POINT (14.4494 50.0918),14,0.2758838957449946,Křižíkova,Praha 8,Praha 8,Křižíkova,180/28
1629,0.2236333396201177,50.0918,14.4544,POINT (14.4544 50.0918),117,0.3728743366489101,Křižíkova,Praha 8,Praha 8,Pernerova,63/49
1630,0.2316144510420546,50.0918,14.4594,POINT (14.4594 50.0918),403,0.4338325807682215,Černínova,Praha 8,Praha 8,Korybutova,443/2
1632,0.2388813908672377,50.0918,14.4694,POINT (14.4694 50.0918),71,0.1708112794706073,Ohrada,Praha 3,Praha 3,Nad Ohradou,2822/1a
1633,0.3622290423512429,50.0918,14.4744,POINT (14.4744 50.0918),71,0.0797041874688522,Vozovna Žižkov,Praha 3,Praha 3,Hartigova,2775/139
1634,0.0757246424225454,50.0918,14.4794,POINT (14.4794 50.0918),574,0.2141116723785209,Strážní,Praha 3,Praha 3,Hartigova,1736/172
1635,0.47460474411641,50.0918,14.4844,POINT (14.4844 50.0918),91,0.2359474653391428,Chmelnice,Praha 3,Praha 3,Hartigova,93/200
1636,0.9813824702856814,50.0918,14.4894,POINT (14.4894 50.0918),498,0.172026572391997,Květinková,Praha 3,Praha 3,Na chmelnici,1970/16
1637,1.3916465546949264,50.0918,14.4944,POINT (14.4944 50.0918),498,0.1328371138067196,Kněžská luka,Praha 3,Praha 3,Hartigova,2453/235
1639,1.0330378984607989,50.0918,14.5044,POINT (14.5044 50.0918),485,0.5488544627394565,Rektorská,Praha 9,Praha 9,Učňovská,359/3
1640,0.9419617358292304,50.0918,14.5094,POINT (14.5094 50.0918),485,0.2099713379137796,Hrdlořezská,Praha 9,Praha 9,Českobrodská,65/11
1641,1.150420151021595,50.0918,14.5144,POINT (14.5144 50.0918),485,0.2694169008286843,Pod Táborem,Praha 9,Praha 9,Českobrodská,59/20
1642,1.5413277185551395,50.0918,14.5194,POINT (14.5194 50.0918),485,0.6660117229769567,Kolonie,Praha 9,Praha 9,Na Táboře,ev. č. 26/2
1643,1.756330693962719,50.0918,14.5244,POINT (14.5244 50.0918),614,0.1968574081475609,Kolonie,Praha 9,Praha 9,Českobrodská,808/42a
1645,1.345037202398328,50.0918,14.5344,POINT (14.5344 50.0918),614,0.0845938894202839,Za Horou,Praha 14,Praha 14,Za horou,1113/15
1646,1.447554441282111,50.0918,14.5394,POINT (14.5394 50.0918),614,0.2252333228663395,Pávovské náměstí,Praha 14,Praha 14,Dářská,873/17
1647,1.731401930550896,50.0918,14.5444,POINT (14.5444 50.0918),614,0.3022309834507714,Kyjský hřbitov,Praha 14,Praha 14,Hamerská,160/8
1650,0.1403650154737551,50.0918,14.5594,POINT (14.5594 50.0918),503,0.4744169087417272,Hostavice,Praha 14,Praha 14,Dřínovská,311/14
1651,0.414832052448695,50.0918,14.5644,POINT (14.5644 50.0918),503,0.2210907128306767,Hostavice,Praha 14,Praha 14,Osetá,627
1652,0.9045742566380532,50.0918,14.5694,POINT (14.5694 50.0918),598,0.2768472531451275,Novozámecká,Praha 14,Praha 14,Bartoňkova,701
1654,1.1312640505210938,50.0918,14.5794,POINT (14.5794 50.0918),420,0.0772854707799695,Dercsenyiho,Dolní Počernice,Praha 14,Matěje Hůlky,1031
1655,1.25061591583967,50.0918,14.5844,POINT (14.5844 50.0918),420,0.4951253424581915,Škola Dolní Počernice,Dolní Počernice,Praha 14,Dercsenyiho,1014
1659,2.171706186115933,50.0918,14.6044,POINT (14.6044 50.0918),272,0.752382987686141,Vinice Dolní Počernice,Běchovice,Praha 21,Mladých Běchovic,83
1660,2.328745815964972,50.0918,14.6094,POINT (14.6094 50.0918),272,0.4386953287598759,VÚ Běchovice,Běchovice,Praha 21,Mladých Běchovic,273
1661,2.2661654451960307,50.0918,14.6144,POINT (14.6144 50.0918),257,0.3652720636399398,VÚ Běchovice,Běchovice,Praha 21,Podnikatelská III,616
1663,2.29131961912522,50.0918,14.6244,POINT (14.6244 50.0918),97,0.1089441674483964,Nad Běchovicemi,Běchovice,Praha 21,Mladých Běchovic,606
1671,0.8434060851856886,50.0918,14.6644,POINT (14.6644 50.0918),84,0.3182362947795181,Smiřická,Klánovice,Praha 21,Kuchařská,683/7
1672,0.5818406651553287,50.0918,14.6694,POINT (14.6694 50.0918),84,0.350791300778982,Smržovská,Klánovice,Praha 21,Medinská,527
1673,0.7627537575970978,50.0918,14.6744,POINT (14.6744 50.0918),84,0.70729198475757,Smržovská,Klánovice,Praha 21,Mechovka,210/29
1684,0.7756374469422702,50.0968,14.2844,POINT (14.2844 50.0968),409,0.5528958078992809,Terminál 3,Praha 6,Praha 6,K letišti,548
1685,0.3462770763262443,50.0968,14.2894,POINT (14.2894 50.0968),409,0.2419136072910298,Terminál 3,Praha 6,Praha 6,K letišti,546
1686,0.504234249212621,50.0968,14.2944,POINT (14.2944 50.0968),409,0.1833622220638562,K Letišti,Praha 6,Praha 6,K letišti,1030/4
1695,0.7929458048271226,50.0968,14.3394,POINT (14.3394 50.0968),230,0.3513791961489703,Nad Džbánem,Praha 6,Praha 6,Ke dvoru,18/35
1696,0.2404903982343546,50.0968,14.3444,POINT (14.3444 50.0968),230,0.2820927959822875,Praha-Veleslavín,Praha 6,Praha 6,Na luzích,117/6
1697,0.320871023766514,50.0968,14.3494,POINT (14.3494 50.0968),230,0.3125270798989241,Nádraží Veleslavín,Praha 6,Praha 6,K Červenému vrchu,845/2b
1698,0.7021709389198267,50.0968,14.3544,POINT (14.3544 50.0968),280,0.1363794696021555,Červený Vrch,Praha 6,Praha 6,Etiopská,686/3
1699,0.1516862549589005,50.0968,14.3594,POINT (14.3594 50.0968),280,0.1363496751230596,Sídliště Červený Vrch,Praha 6,Praha 6,K lánu,539/9
1700,0.0854103720506711,50.0968,14.3644,POINT (14.3644 50.0968),189,0.0607838128375691,Poliklinika Na Dlouhém Lánu,Praha 6,Praha 6,Pod Kladenskou silnicí,201/1
1701,0.5027225557289716,50.0968,14.3694,POINT (14.3694 50.0968),76,0.2122837343822233,Starodejvická,Praha 6,Praha 6,Na rozdílu,2024/44
1702,1.018257156712187,50.0968,14.3744,POINT (14.3744 50.0968),130,0.3067284741593629,Pod Vyhlídkou,Praha 6,Praha 6,U dráhy,628/2
1703,1.0890163948382456,50.0968,14.3794,POINT (14.3794 50.0968),236,0.3625970102747203,Pod Vyhlídkou,Praha 6,Praha 6,Na klínku,892/15
1704,0.590869243408964,50.0968,14.3844,POINT (14.3844 50.0968),236,0.3821549108919916,Dělostřelecká,Praha 6,Praha 6,Dělostřelecká,ev. č. 3/30
1705,0.3582544031643703,50.0968,14.3894,POINT (14.3894 50.0968),236,0.176456028287206,Dělostřelecká,Praha 6,Praha 6,Buštěhradská,959/11
1706,0.2223941906433582,50.0968,14.3944,POINT (14.3944 50.0968),298,0.2321609834760727,Prašný most,Praha 6,Praha 6,Svatovítská,229
1707,0.1629078695790558,50.0968,14.3994,POINT (14.3994 50.0968),52,0.0373360590666795,Praha-Dejvice,Praha 6,Praha 6,Václavkova,169/1
1708,0.1717133566680616,50.0968,14.4044,POINT (14.4044 50.0968),647,0.0787568412120708,Hradčanská,Praha 6,Praha 6,Milady Horákové,201/119
1709,0.2021002126292745,50.0968,14.4094,POINT (14.4094 50.0968),392,0.1856976118110749,Chotkovy sady,Praha 7,Praha 7,Na Špejcharu,291/3
1711,0.4318472245000322,50.0968,14.4194,POINT (14.4194 50.0968),361,0.323725981351484,Sparta,Praha 7,Praha 7,Letenské sady,1574
1712,0.0816991428563228,50.0968,14.4244,POINT (14.4244 50.0968),367,0.3633696576428226,Letenské náměstí,Praha 7,Praha 7,Muzejní,1320/2
1713,0.2933791332650413,50.0968,14.4294,POINT (14.4294 50.0968),536,0.2174399237617083,Nábřeží Kapitána Jaroše,Praha 7,Praha 7,Letenské sady,1500/80
1714,0.3129219228464409,50.0968,14.4344,POINT (14.4344 50.0968),125,0.2594051457183965,Strossmayerovo náměstí,Praha 7,Praha 7,nábřeží Kapitána Jaroše,1000/7
1715,0.5346746582596503,50.0968,14.4394,POINT (14.4394 50.0968),393,0.2812952784290939,Vltavská,Praha 7,Praha 7,Ostrov Štvanice,ev. č. 38
1717,0.1016058011761555,50.0968,14.4494,POINT (14.4494 50.0968),566,0.4466951127069231,Tusarova,Praha 8,Praha 8,Rohanský ostrov,ev. č. 98
1718,0.3225823816670014,50.0968,14.4544,POINT (14.4544 50.0968),470,0.31477231356425,Urxova,Praha 8,Praha 8,Breitfeldova,704/1
1719,0.4594714198757966,50.0968,14.4594,POINT (14.4594 50.0968),505,0.3444343716685536,Urxova,Praha 8,Praha 8,Rohanský ostrov,ev. č. 168
1720,0.0905086595099042,50.0968,14.4644,POINT (14.4644 50.0968),500,0.0842333422800231,Invalidovna,Praha 8,Praha 8,Sokolovská,662/136b
1721,0.4663464742724351,50.0968,14.4694,POINT (14.4694 50.0968),500,0.5416170685564267,Invalidovna,Praha 8,Praha 8,U Sluncové,624/27
1722,0.5647680677790214,50.0968,14.4744,POINT (14.4744 50.0968),283,0.2094367687289122,Krejcárek,Praha 8,Praha 8,Pod plynojemem,ev. č. 27
1723,0.5035482667411046,50.0968,14.4794,POINT (14.4794 50.0968),91,0.3245816016018125,Odlehlá,Praha 9,Praha 9,Novovysočanská,ev. č. 107
1724,0.6843452742278442,50.0968,14.4844,POINT (14.4844 50.0968),91,0.3368023041762223,Odlehlá,Praha 3,Praha 3,Na Balkáně,811/19
1728,0.556301535875709,50.0968,14.5044,POINT (14.5044 50.0968),554,0.5370630845731951,Praha-Libeň,Praha 9,Praha 9,Hrdlořezská,394/51a
1729,0.831897918957222,50.0968,14.5094,POINT (14.5094 50.0968),205,0.2596793698468109,Na Lukách,Praha 9,Praha 9,Mezitraťová,233/1
1730,0.993474228203973,50.0968,14.5144,POINT (14.5144 50.0968),205,0.3192681868334832,Na Lukách,Praha 9,Praha 9,U schodů,337/15
1731,1.377671200484848,50.0968,14.5194,POINT (14.5194 50.0968),205,0.4111486716226437,Vinice Hrdlořezy,Praha 9,Praha 9,Pod Smetankou,ev. č. 37
1732,1.378364772937589,50.0968,14.5244,POINT (14.5244 50.0968),614,0.3884249466019985,Kolonie,Praha 9,Praha 9,Lísková,1142
1733,0.9767692828478832,50.0968,14.5294,POINT (14.5294 50.0968),614,0.6017517454422537,Kolonie,Praha 9,Praha 9,Čelákovická,ev. č. 213
1735,0.9542566746925532,50.0968,14.5394,POINT (14.5394 50.0968),614,0.2394400430447179,Lánská,Praha 14,Praha 14,Morušová,1092/2a
1736,1.3464563066936466,50.0968,14.5444,POINT (14.5444 50.0968),614,0.1601313576637069,Praha-Kyje,Praha 14,Praha 14,Lednická,ev. č. 358
1737,1.365274938658517,50.0968,14.5494,POINT (14.5494 50.0968),503,0.1134874965323947,Kyje,Praha 14,Praha 14,Za Rokytkou,22/11
1742,0.8149067004207948,50.0968,14.5744,POINT (14.5744 50.0968),420,0.7003830446001414,Dolnopočernický hřbitov,Dolní Počernice,Praha 14,Madarova,ev. č. 48
1748,1.626942861606815,50.0968,14.6044,POINT (14.6044 50.0968),272,0.9187358275812364,Svépravice,Praha 20,Praha 20,U hvozdu,ev. č. 23
1749,1.8313089284698865,50.0968,14.6094,POINT (14.6094 50.0968),272,0.5337054186119884,Na Svěcence,Praha 20,Praha 20,U hvozdu,ev. č. 80
1752,1.737149341912541,50.0968,14.6244,POINT (14.6244 50.0968),97,0.1956940530177865,Václava Špačka,Praha 20,Praha 20,Ve žlíbku,2103/96
1760,0.6138173437744506,50.0968,14.6644,POINT (14.6644 50.0968),84,0.4422843639708788,Všestarská,Klánovice,Praha 21,Lovčická,706/22
1761,0.0630592310329608,50.0968,14.6694,POINT (14.6694 50.0968),84,0.2188525455698212,Smržovská,Klánovice,Praha 21,Krovova,40/1
1762,0.3473907081078332,50.0968,14.6744,POINT (14.6744 50.0968),195,0.3910516421933496,Bazar,Klánovice,Praha 21,V Pátém,554/78
1763,0.8351001784933011,50.0968,14.6794,POINT (14.6794 50.0968),195,0.2594058859598189,Přímské náměstí,Klánovice,Praha 21,Utěšilova,237/19
1764,1.3748288301311231,50.0968,14.6844,POINT (14.6844 50.0968),195,0.2804717822756125,Klánovice,Klánovice,Praha 21,Čmelická,1036/2
1773,0.8779650736210574,50.1018,14.2894,POINT (14.2894 50.1018),409,0.0502512888417746,Na Padesátníku,Praha 6,Praha 6,U letiště,531
1780,0.9991006657260344,50.1018,14.3244,POINT (14.3244 50.1018),110,1.0317612609837108,Divoká Šárka,Praha 6,Praha 6,Divoká Šárka,39/4
1784,0.5653169041012743,50.1018,14.3444,POINT (14.3444 50.1018),230,0.1057816745142345,Na Pastvinách,Praha 6,Praha 6,Lužná,716/2
1785,0.6039087549561619,50.1018,14.3494,POINT (14.3494 50.1018),230,0.5476270945296788,Na Pastvinách,Praha 6,Praha 6,Na křídle,128/13
1787,0.6139039553326756,50.1018,14.3594,POINT (14.3594 50.1018),280,0.4195140151485773,Sídliště Červený Vrch,Praha 6,Praha 6,Tobrucká,758/37
1788,0.3354953867027839,50.1018,14.3644,POINT (14.3644 50.1018),76,0.3573424984296823,Bořislavka,Praha 6,Praha 6,Na Beránce,1772/9
1789,0.5435562575933742,50.1018,14.3694,POINT (14.3694 50.1018),76,0.321554044118779,Na Pískách,Praha 6,Praha 6,Duchoslávka,2052/8
1790,0.473946216554237,50.1018,14.3744,POINT (14.3744 50.1018),130,0.1711763962815985,Sušická,Praha 6,Praha 6,U Hadovky,1848/10
1792,0.5188232727782076,50.1018,14.3844,POINT (14.3844 50.1018),236,0.2904769095132476,Thákurova,Praha 6,Praha 6,Na Vlčovce,14/2
1793,0.2199939611813656,50.1018,14.3894,POINT (14.3894 50.1018),236,0.2067170213481485,Národní technická knihovna,Praha 6,Praha 6,Zikova,701/15
1795,0.1345196139530418,50.1018,14.3994,POINT (14.3994 50.1018),119,0.2231085313163969,Rooseveltova,Praha 6,Praha 6,Terronská,680/4
1796,0.3105398321939742,50.1018,14.4044,POINT (14.4044 50.1018),471,0.338449226480773,Českomalínská,Praha 6,Praha 6,Bubenečská,355/39
1797,0.2492393588894284,50.1018,14.4094,POINT (14.4094 50.1018),417,0.4931959619504492,Sibiřské náměstí,Praha 6,Praha 6,Pod Kaštany,1106/17
1798,0.3307753346686219,50.1018,14.4144,POINT (14.4144 50.1018),162,0.4679236860880192,Sparta,Praha 6,Praha 6,Na Zátorce,674/28
1799,0.1551490351023049,50.1018,14.4194,POINT (14.4194 50.1018),593,0.1603899227258676,Korunovační,Praha 7,Praha 7,Havanská,809/8
1800,0.0684357832120727,50.1018,14.4244,POINT (14.4244 50.1018),454,0.2209000500122508,Letenské náměstí,Praha 7,Praha 7,Sochařská,349/11
1801,0.088602571647025,50.1018,14.4294,POINT (14.4294 50.1018),560,0.0224301531711083,OC Stromovka,Praha 7,Praha 7,U studánky,1623/2a
1802,0.1178096550475095,50.1018,14.4344,POINT (14.4344 50.1018),167,0.1649439361042134,Veletržní palác,Praha 7,Praha 7,Janovského,1348/26
1803,0.3435644170676329,50.1018,14.4394,POINT (14.4394 50.1018),393,0.082512807721489,Praha-Bubny,Praha 7,Praha 7,Bubenská,1599/8d
1804,0.2446681840006751,50.1018,14.4444,POINT (14.4444 50.1018),467,0.1775486276668965,Argentinská,Praha 7,Praha 7,Tusarova,1262/5
1805,0.018138397308981,50.1018,14.4494,POINT (14.4494 50.1018),480,0.1326360309896601,Tusarova,Praha 7,Praha 7,Tusarova,791/31
1806,0.2201019204507541,50.1018,14.4544,POINT (14.4544 50.1018),501,0.2083512578152875,Maniny,Praha 7,Praha 7,V Háji,1271/9
1809,0.5096006278282414,50.1018,14.4694,POINT (14.4694 50.1018),283,0.4883596854067283,Libeňský most,Praha 8,Praha 8,Voctářova,ev. č. 679
1810,0.0461485371707436,50.1018,14.4744,POINT (14.4744 50.1018),283,0.2637466328478726,Palmovka,Praha 8,Praha 8,Sokolovská,457/127
1811,0.5394489759334345,50.1018,14.4794,POINT (14.4794 50.1018),423,0.4079921079496881,Balabenka,Praha 8,Praha 8,V mezihoří,2448/6
1812,0.293984362739929,50.1018,14.4844,POINT (14.4844 50.1018),75,0.335581272048003,Balabenka,Praha 9,Praha 9,Malletova,1141/4
1813,0.4288902916376864,50.1018,14.4894,POINT (14.4894 50.1018),516,0.2222298025758143,Ocelářská,Praha 9,Praha 9,Nad libeňským nádražím,182/2
1814,0.6098803637742055,50.1018,14.4944,POINT (14.4944 50.1018),159,0.1228661847955723,Arena Libeň jih,Praha 9,Praha 9,Novovysočanská,ev. č. 24
1815,0.4485195746209476,50.1018,14.4994,POINT (14.4994 50.1018),554,0.2750958538598372,Praha-Libeň,Praha 9,Praha 9,Českomoravská,930/22
1816,0.1069502696962045,50.1018,14.5044,POINT (14.5044 50.1018),554,0.1987223256552941,Nádraží Libeň,Praha 9,Praha 9,Poděbradská,225/4
1817,0.2770653636526531,50.1018,14.5094,POINT (14.5094 50.1018),205,0.1516947820529845,Kabešova,Praha 9,Praha 9,Poděbradská,540/26
1818,0.6096737736495643,50.1018,14.5144,POINT (14.5144 50.1018),205,0.1395998246352368,Podkovářská,Praha 9,Praha 9,Poděbradská,289/36
1819,1.1325586098811764,50.1018,14.5194,POINT (14.5194 50.1018),205,0.1906365075219735,U Elektry,Praha 9,Praha 9,U Elektry,818/4
1821,0.620741631144467,50.1018,14.5294,POINT (14.5294 50.1018),614,0.3051692822372657,Starý Hloubětín,Praha 9,Praha 9,Nademlejnská,1087/16
1822,0.235709476423777,50.1018,14.5344,POINT (14.5344 50.1018),614,0.324540432903368,Bazén Hloubětín,Praha 14,Praha 14,Hloubětínská,1156
1823,0.5846774682814574,50.1018,14.5394,POINT (14.5394 50.1018),614,0.3716454374986233,Lánská,Praha 14,Praha 14,Hostavická,44/37
1824,1.1154310944902963,50.1018,14.5444,POINT (14.5444 50.1018),614,0.2098773913612533,Tálínská,Praha 14,Praha 14,Knínická,ev. č. 200/9
1825,1.662099669453078,50.1018,14.5494,POINT (14.5494 50.1018),614,0.1825434607234126,Sídliště Lehovec,Praha 14,Praha 14,Zdobnická,590/2
1826,1.3043001422977916,50.1018,14.5544,POINT (14.5544 50.1018),503,0.0256637209077058,Vajgarská,Praha 14,Praha 14,Želivská,1718
1827,1.112444225733524,50.1018,14.5594,POINT (14.5594 50.1018),503,0.4676944762162033,Hejtmanská,Praha 14,Praha 14,Dobrovolného,563/22
1828,1.171607624337499,50.1018,14.5644,POINT (14.5644 50.1018),82,0.1065359386117229,Generála Janouška,Praha 14,Praha 14,Mrázkova,583/7
1829,0.6772747032671503,50.1018,14.5694,POINT (14.5694 50.1018),82,0.0893942509070928,Doležalova,Praha 14,Praha 14,Vašátkova,1013/14
1830,0.4009833188122013,50.1018,14.5744,POINT (14.5744 50.1018),82,0.2501977872184461,Kapitána Stránského,Praha 14,Praha 14,Šedova,653/2
1831,0.0300190386415656,50.1018,14.5794,POINT (14.5794 50.1018),420,0.0681703994520722,Bryksova,Praha 14,Praha 14,Bryksova,1002/20
1832,0.3958918639250866,50.1018,14.5844,POINT (14.5844 50.1018),285,0.1807169128484184,Sídliště Černý Most,Praha 14,Praha 14,Kpt. Stránského,958/41
1836,1.092533016002166,50.1018,14.6044,POINT (14.6044 50.1018),272,0.5853296685475606,Svépravice,Praha 20,Praha 20,Pod Starákem,ev. č. 83/12
1837,1.37854187735264,50.1018,14.6094,POINT (14.6094 50.1018),272,0.1743111008571919,Svépravice,Praha 20,Praha 20,Šanovská,2441/19
1838,1.1940531289438852,50.1018,14.6144,POINT (14.6144 50.1018),257,0.304378374488367,Na Svěcence,Praha 20,Praha 20,Ke Xaverovu,2878/10
1839,1.123661467035686,50.1018,14.6194,POINT (14.6194 50.1018),257,0.6671998823357901,Xaverov,Praha 20,Praha 20,Božanovská,1616/122
1846,1.8033302992818143,50.1018,14.6544,POINT (14.6544 50.1018),84,0.5185708069298836,Krňovická,Klánovice,Praha 21,Slatinská,ev. č. 329
1847,1.283395848290097,50.1018,14.6594,POINT (14.6594 50.1018),84,0.0393698082293767,Krňovická,Klánovice,Praha 21,K rukavičkárně,697/40
1848,0.811332014965629,50.1018,14.6644,POINT (14.6644 50.1018),84,0.248218175429338,Všestarská,Klánovice,Praha 21,Všestarská,1179/39
1850,0.3900301220154518,50.1018,14.6744,POINT (14.6744 50.1018),195,0.1913860834763679,"Šestajovice,Pražská",Klánovice,Praha 21,Slavětínská,1140/95
1857,2.7678349064655987,50.1068,14.2694,POINT (14.2694 50.1068),409,0.1180096190693749,Terminál 1,Praha 6,Praha 6,Aviatická,1092/8
1858,2.308907627848935,50.1068,14.2744,POINT (14.2744 50.1068),409,0.2492516431168035,Schengenská,Praha 6,Praha 6,Jana Kašpara,1069/1
1867,1.6553062526386162,50.1068,14.3194,POINT (14.3194 50.1068),110,0.6280750240198756,Nebušice,Nebušice,Praha 6,Za Pohádkou,878
1868,1.5540591658153102,50.1068,14.3244,POINT (14.3244 50.1068),110,0.521839077333088,K Noskovně,Nebušice,Praha 6,Nad Želivkou,463
1872,1.0942489536129083,50.1068,14.3444,POINT (14.3444 50.1068),230,0.2936819819489881,Nad Habrovkou,Praha 6,Praha 6,U Vizerky,2301/2
1873,1.1146763452827897,50.1068,14.3494,POINT (14.3494 50.1068),230,0.47954275150535,Nad Habrovkou,Praha 6,Praha 6,Nad Habrovkou,2763
1874,1.3478993732187654,50.1068,14.3544,POINT (14.3544 50.1068),280,0.1233854930191569,Jenerálka,Praha 6,Praha 6,K vršíčku,2311/10
1875,1.097490018614846,50.1068,14.3594,POINT (14.3594 50.1068),76,0.1411197796069636,Korek,Praha 6,Praha 6,K Dubovému mlýnu,2333/7
1876,0.8782542864281104,50.1068,14.3644,POINT (14.3644 50.1068),76,0.0991145652571889,Kuliška,Praha 6,Praha 6,V Šáreckém údolí,2709/106a
1877,0.4316557264830757,50.1068,14.3694,POINT (14.3694 50.1068),130,0.4656633614720414,Hanspaulka,Praha 6,Praha 6,Soborská,1303/10
1878,0.1686783779137176,50.1068,14.3744,POINT (14.3744 50.1068),130,0.1321546831713598,Dyrinka,Praha 6,Praha 6,Na Pískách,1274/74
1879,0.611554055413375,50.1068,14.3794,POINT (14.3794 50.1068),602,0.4298983830002968,Špitálka,Praha 6,Praha 6,Za Hanspaulkou,1452/2
1880,0.8336170658057158,50.1068,14.3844,POINT (14.3844 50.1068),602,0.4416344823655881,Dukla-Juliska,Praha 6,Praha 6,Na Kotlářce,ev. č. 1
1881,0.4362175175060648,50.1068,14.3894,POINT (14.3894 50.1068),297,0.0829287685826747,Na Santince,Praha 6,Praha 6,Zelená,1992/25
1882,0.0266069163469114,50.1068,14.3944,POINT (14.3944 50.1068),214,0.0744727812457795,Zelená,Praha 6,Praha 6,Jugoslávských partyzánů,1087/19
1883,0.3881028177531129,50.1068,14.3994,POINT (14.3994 50.1068),363,0.2942159695365277,Nemocnice Bubeneč,Praha 6,Praha 6,Maďarská,1053/5
1884,0.5746727339356625,50.1068,14.4044,POINT (14.4044 50.1068),417,0.0785581787698608,Goetheho,Praha 6,Praha 6,Českomalínská,1037/24
1889,0.274822512211996,50.1068,14.4294,POINT (14.4294 50.1068),502,0.3551588931070784,Výstaviště,Praha 7,Praha 7,Výstaviště,416
1890,0.3990317132786674,50.1068,14.4344,POINT (14.4344 50.1068),256,0.3334345478686201,Praha-Holešovice zast.,Praha 7,Praha 7,Za elektrárnou,1082/1a
1891,0.2327277038991725,50.1068,14.4394,POINT (14.4394 50.1068),256,0.24312558835369,Praha-Holešovice zast.,Praha 7,Praha 7,Železničářů,1343/17a
1892,0.2049551055142048,50.1068,14.4444,POINT (14.4444 50.1068),414,0.3030556193840127,Jankovcova,Praha 7,Praha 7,Argentinská,ev. č. 149
1893,0.1407595294467354,50.1068,14.4494,POINT (14.4494 50.1068),444,0.2023313212633951,Ortenovo náměstí,Praha 7,Praha 7,Poupětova,1383/13
1894,0.3995722974582055,50.1068,14.4544,POINT (14.4544 50.1068),501,0.2007611705329151,V Přístavu,Praha 7,Praha 7,U parního mlýna,1576/1
1896,0.5342048040204949,50.1068,14.4644,POINT (14.4644 50.1068),282,0.3881320037442937,Libeňský most,Praha 8,Praha 8,Štorchova,ev. č. 605/25
1897,0.0772680189240152,50.1068,14.4694,POINT (14.4694 50.1068),282,0.3686592211959461,Libeňský zámek,Praha 8,Praha 8,U Českých loděnic,40/6
1898,0.1632043391811946,50.1068,14.4744,POINT (14.4744 50.1068),21,0.2223750507811652,Divadlo pod Palmovkou,Praha 8,Praha 8,náměstí Dr. Václava Holého,1330/2
1899,0.4457628525407054,50.1068,14.4794,POINT (14.4794 50.1068),423,0.4496537113699508,Balabenka,Praha 8,Praha 8,Kotlaska,2414/5a
1900,0.2478616493836311,50.1068,14.4844,POINT (14.4844 50.1068),423,0.3851567085601611,Balabenka,Praha 9,Praha 9,Kovanecká,2109/12
1901,0.0996654385103952,50.1068,14.4894,POINT (14.4894 50.1068),429,0.1181255512291862,Divadlo Gong,Praha 9,Praha 9,Sokolovská,227/264
1902,0.4084742051915576,50.1068,14.4944,POINT (14.4944 50.1068),159,0.2158758069902242,Poliklinika Vysočany,Praha 9,Praha 9,K Moravině,1872/5
1903,0.4232715037468948,50.1068,14.4994,POINT (14.4994 50.1068),357,0.382748919612614,Nádraží Vysočany,Praha 9,Praha 9,Ocelářská,975/47
1904,0.4913954749121017,50.1068,14.5044,POINT (14.5044 50.1068),357,0.4709282532067206,Špitálská,Praha 9,Praha 9,U Lidového domu,857/6
1907,1.1328945551047198,50.1068,14.5194,POINT (14.5194 50.1068),205,0.3722990437804778,U Elektry,Praha 9,Praha 9,Ivana Hlinky,1036/1
1908,1.1740627447952372,50.1068,14.5244,POINT (14.5244 50.1068),614,0.3380376134763929,Nademlejnská,Praha 9,Praha 9,Nepelova,947/1
1909,0.6577325545812701,50.1068,14.5294,POINT (14.5294 50.1068),614,0.1502452213568508,Vozovna Hloubětín,Praha 14,Praha 14,Konzumní,619
1910,0.3207037542594113,50.1068,14.5344,POINT (14.5344 50.1068),614,0.2388843337314796,Kbelská,Praha 14,Praha 14,Pod turnovskou tratí,441/11
1911,0.623810614398412,50.1068,14.5394,POINT (14.5394 50.1068),614,0.258804504825728,Hloubětín,Praha 14,Praha 14,Poděbradská,542/101
1912,1.136432341706241,50.1068,14.5444,POINT (14.5444 50.1068),614,0.2149055635036441,Sídliště Hloubětín,Praha 14,Praha 14,Slévačská,787/1a
1913,1.6762658655225728,50.1068,14.5494,POINT (14.5494 50.1068),614,0.2153967512846211,Lehovec,Praha 14,Praha 14,Kardašovská,753/17
1914,1.7983850450052226,50.1068,14.5544,POINT (14.5544 50.1068),503,0.1630846651242511,Žárská,Praha 14,Praha 14,Kukelská,930/24
1915,1.663047268067106,50.1068,14.5594,POINT (14.5594 50.1068),82,0.0579009845921752,Rajská zahrada,Praha 14,Praha 14,Bratří Venclíků,1074/10
1916,1.111626202509537,50.1068,14.5644,POINT (14.5644 50.1068),82,0.1697320487135843,Ronešova,Praha 14,Praha 14,Cíglerova,1083/18
1917,0.5672295940671837,50.1068,14.5694,POINT (14.5694 50.1068),82,0.3580262141457946,Poliklinika Černý Most,Praha 14,Praha 14,Cíglerova,1092/36
1918,0.1543891533290566,50.1068,14.5744,POINT (14.5744 50.1068),82,0.0745789200134871,Breitcetlova,Praha 14,Praha 14,Bobkova,710/25
1919,0.2900827295454575,50.1068,14.5794,POINT (14.5794 50.1068),184,0.3253132855546017,Černý Most,Praha 14,Praha 14,Mansfeldova,803/8
1920,0.0694461344764902,50.1068,14.5844,POINT (14.5844 50.1068),248,0.3677941241250745,Obchodní centrum Černý Most,Praha 14,Praha 14,Bryksova,763/46
1922,0.8514429953448199,50.1068,14.5944,POINT (14.5944 50.1068),285,0.3736081551531973,Slatiňanská,Praha 20,Praha 20,Božídarská,2522/2
1924,0.5969620651049229,50.1068,14.6044,POINT (14.6044 50.1068),272,0.0958034010228686,Krahulčí,Praha 20,Praha 20,Božanovská,1385/48
1925,1.0310737237145005,50.1068,14.6094,POINT (14.6094 50.1068),272,0.1785544361155677,Jeřická,Praha 20,Praha 20,Bříšťanská,1998/27
1926,0.7035384848108529,50.1068,14.6144,POINT (14.6144 50.1068),257,0.499098515064825,Sídliště Horní Počernice,Praha 20,Praha 20,Hřídelecká,2661/16
1927,0.5760369930569204,50.1068,14.6194,POINT (14.6194 50.1068),257,0.5307951890777363,Jizbická,Praha 20,Praha 20,Markupova,2974/31
1928,0.633184265714263,50.1068,14.6244,POINT (14.6244 50.1068),97,0.4136435092542439,Jizbická,Praha 20,Praha 20,Ve žlíbku,304/75
1939,2.685901951086473,50.1118,14.2744,POINT (14.2744 50.1118),409,0.4910036287487809,U Hangáru,Praha 6,Praha 6,K letišti,1049/57
1948,2.184716581304197,50.1118,14.3194,POINT (14.3194 50.1118),110,0.2224640101179447,Nebušice,Nebušice,Praha 6,V hliništi,43
1949,2.109039506850353,50.1118,14.3244,POINT (14.3244 50.1118),110,0.0861076223810152,K Noskovně,Nebušice,Praha 6,Nebušická,962
1950,2.176960895901817,50.1118,14.3294,POINT (14.3294 50.1118),110,0.1730978587343795,Škola Nebušice,Nebušice,Praha 6,Pod starou školou,942
1951,2.109296844544068,50.1118,14.3344,POINT (14.3344 50.1118),230,0.1737241453790155,Na Parcelách,Nebušice,Praha 6,Průhonská,221
1952,1.8061438925661173,50.1118,14.3394,POINT (14.3394 50.1118),230,0.2933038635907071,Průhonský háj,Nebušice,Praha 6,V oblouku,838/8
1953,1.640496370890186,50.1118,14.3444,POINT (14.3444 50.1118),230,0.3357483216956516,Nad Habrovkou,Nebušice,Praha 6,Na Malé Šárce,760
1954,1.6541919251265624,50.1118,14.3494,POINT (14.3494 50.1118),230,0.5063981432838028,Nad Habrovkou,Nebušice,Praha 6,Truhlářka,ev. č. 4
1956,1.574581778787734,50.1118,14.3594,POINT (14.3594 50.1118),76,0.1581015613199282,Pučálka,Praha 6,Praha 6,Na Pučálce,ev. č. 163
1957,1.1747886261902427,50.1118,14.3644,POINT (14.3644 50.1118),130,0.4081562356571552,Kalinův mlýn,Praha 6,Praha 6,Na Pučálce,ev. č. 98
1958,0.7785910641638454,50.1118,14.3694,POINT (14.3694 50.1118),130,0.1738821604011423,Kalinův mlýn,Praha 6,Praha 6,V Šáreckém údolí,ev. č. 53
1959,0.5463074057366973,50.1118,14.3744,POINT (14.3744 50.1118),602,0.1074169762958448,Na Mlýnku,Praha 6,Praha 6,Pod Mlýnkem,68/4
1960,0.0576266541869027,50.1118,14.3794,POINT (14.3794 50.1118),602,0.0846695609177521,U Matěje,Praha 6,Praha 6,Šárecká,1376/99
1961,0.5694206538076771,50.1118,14.3844,POINT (14.3844 50.1118),602,0.2397694142600145,Dukla-Juliska,Praha 6,Praha 6,Na Fišerce,1044/6
1962,0.189174331543322,50.1118,14.3894,POINT (14.3894 50.1118),481,0.4014145289030973,Dukla-Juliska,Praha 6,Praha 6,Paťanka,2722/11c
1963,0.3719659079334265,50.1118,14.3944,POINT (14.3944 50.1118),481,0.0309005678873447,Nádraží Podbaba,Praha 6,Praha 6,Podbabská,1014/20
1964,0.8066909785649327,50.1118,14.3994,POINT (14.3994 50.1118),214,0.526819263818428,Nemocnice Bubeneč,Praha 6,Praha 6,Papírenská,586/14
1969,1.0122518509323593,50.1118,14.4244,POINT (14.4244 50.1118),518,0.6072976891305121,Čechova škola,Praha 7,Praha 7,Císařský ostrov,1103
1972,0.4498604785957451,50.1118,14.4394,POINT (14.4394 50.1118),256,0.1468525591042416,Praha-Holešovice,Praha 7,Praha 7,Pod dráhou,1636/1
1974,0.4456187234847372,50.1118,14.4494,POINT (14.4494 50.1118),444,0.1982182906366782,U Vody,Praha 7,Praha 7,Varhulíkové,298/8
1976,1.1203305247381758,50.1118,14.4594,POINT (14.4594 50.1118),444,0.483930067771665,Nemocnice Bulovka - gynekologie,Praha 8,Praha 8,Libeňský ostrov,2503
1977,0.7159249319370089,50.1118,14.4644,POINT (14.4644 50.1118),282,0.43351598175332,Nemocnice Bulovka,Praha 8,Praha 8,Na Košince,ev. č. 681
1978,0.4793018973699525,50.1118,14.4694,POINT (14.4694 50.1118),323,0.4905487961184571,Libeňský zámek,Praha 8,Praha 8,U Meteoru,ev. č. 19/10
1979,0.1155404122136885,50.1118,14.4744,POINT (14.4744 50.1118),511,0.1357866085094735,U Kříže,Praha 8,Praha 8,Kandertova,129/19
1980,0.4125214105322893,50.1118,14.4794,POINT (14.4794 50.1118),497,0.0924541022485637,Kundratka,Praha 8,Praha 8,Pod Labuťkou,1421/32
1982,0.4620497280460173,50.1118,14.4894,POINT (14.4894 50.1118),401,0.3799086778353778,Kelerka,Praha 9,Praha 9,Podvinný mlýn,866/29
1983,0.3565473439288419,50.1118,14.4944,POINT (14.4944 50.1118),456,0.3339982232940977,Praha-Vysočany,Praha 9,Praha 9,Podnádražní,215/2
1984,0.1576969170442989,50.1118,14.4994,POINT (14.4994 50.1118),8,0.1786377212811596,Nádraží Vysočany,Praha 9,Praha 9,bratří Dohalských,138/10
1985,0.3860534257770274,50.1118,14.5044,POINT (14.5044 50.1118),357,0.1151208741639693,Špitálská,Praha 9,Praha 9,Pod Pekárnami,243/6
1986,0.8332690754351106,50.1118,14.5094,POINT (14.5094 50.1118),205,0.1394962614475057,Poštovská,Praha 9,Praha 9,Kolbenova,905/5b
1987,0.9946226654448448,50.1118,14.5144,POINT (14.5144 50.1118),205,0.2004851349094343,Kolbenova,Praha 9,Praha 9,Moravcových,1015/8
1988,1.3784995978078811,50.1118,14.5194,POINT (14.5194 50.1118),205,0.436291549676937,Kolbenova,Praha 9,Praha 9,Kolbenova,886/9a
1992,1.025905270167214,50.1118,14.5394,POINT (14.5394 50.1118),614,0.664279391309113,Hloubětín,Praha 9,Praha 9,Zálužská,ev. č. 2
1995,2.153840591231923,50.1118,14.5544,POINT (14.5544 50.1118),35,0.490442484661907,Hutě,Praha 14,Praha 14,Za černým mostem,1097/34
1996,1.8013396693922308,50.1118,14.5594,POINT (14.5594 50.1118),82,0.0840751553617588,Lipnická,Praha 14,Praha 14,Lipnická,579
1997,1.3095080002834727,50.1118,14.5644,POINT (14.5644 50.1118),82,0.1973395149496975,Jordánská,Praha 14,Praha 14,Jordánská,706/15
1998,0.8305748086553673,50.1118,14.5694,POINT (14.5694 50.1118),284,0.5781022496203959,Poliklinika Černý Most,Praha 14,Praha 14,Vodňanská,933/71
1999,0.4770278410669073,50.1118,14.5744,POINT (14.5744 50.1118),284,0.4603663603677421,Černý Most,Praha 14,Praha 14,Skorkovská,1585
2001,0.4016809689156814,50.1118,14.5844,POINT (14.5844 50.1118),171,0.5168241652063688,Obchodní centrum Černý Most,Praha 20,Praha 20,Chlumecká,3203
2002,0.5407332073018288,50.1118,14.5894,POINT (14.5894 50.1118),171,0.4548159273170595,Obchodní centrum Černý Most,Praha 20,Praha 20,Ve Zliči,805/2
2003,0.7548512371152927,50.1118,14.5944,POINT (14.5944 50.1118),272,0.1879772625114487,Chvaly,Praha 20,Praha 20,Stoliňská,2910/6a
2004,0.2108309909253156,50.1118,14.5994,POINT (14.5994 50.1118),272,0.0684923968702367,Libošovická,Praha 20,Praha 20,Mezilesí,2073/8
2005,0.3676262005006033,50.1118,14.6044,POINT (14.6044 50.1118),272,0.1719072656898305,Khodlova,Praha 20,Praha 20,Lhotská,2226/21
2006,0.9175501838344656,50.1118,14.6094,POINT (14.6094 50.1118),272,0.1608745834756293,Sekeřická,Praha 20,Praha 20,Běchorská,1145/44
2007,0.424523173077571,50.1118,14.6144,POINT (14.6144 50.1118),257,0.0625414082054094,Sídliště Horní Počernice,Praha 20,Praha 20,Jívanská,1747/41
2008,0.1306604080812442,50.1118,14.6194,POINT (14.6194 50.1118),257,0.2119991746083624,Chodovická,Praha 20,Praha 20,U jeslí,2263/8
2009,0.1288974533036117,50.1118,14.6244,POINT (14.6244 50.1118),97,0.1281433075986179,Ve Žlíbku,Praha 20,Praha 20,Štverákova,2728/14
2010,0.4512152652983272,50.1118,14.6294,POINT (14.6294 50.1118),97,0.5585488835209146,Ve Žlíbku,Praha 20,Praha 20,Tikovská,2689/43
2018,2.560119451454908,50.1168,14.2944,POINT (14.2944 50.1168),409,0.3466714229157391,K Tuchoměřicům,Přední Kopanina,Praha 6,U Maří Magdaleny,177
2019,2.7027034558397025,50.1168,14.2994,POINT (14.2994 50.1168),409,0.1518404480799316,Přední Kopanina,Přední Kopanina,Praha 6,K Padesátníku,115
2023,2.7243318981399702,50.1168,14.3194,POINT (14.3194 50.1168),110,0.3252584346461447,Na Mlýnici,Nebušice,Praha 6,Tuchoměřická,282
2027,0.7374444047810219,50.1168,14.3744,POINT (14.3744 50.1168),602,0.0965753540070467,Šatovka,Praha 6,Praha 6,V Šáreckém údolí,45/19
2028,0.4986915879106566,50.1168,14.3794,POINT (14.3794 50.1168),602,0.3469012449126855,Žežulka,Praha 6,Praha 6,Krohova,2246/21
2029,0.7547266720891993,50.1168,14.3844,POINT (14.3844 50.1168),602,0.2087116373248004,Matějská,Praha 6,Praha 6,Matějská,6/24
2030,0.5481146656624543,50.1168,14.3894,POINT (14.3894 50.1168),481,0.2900546003937942,Sídliště Baba,Praha 6,Praha 6,Na ostrohu,1819/27
2035,0.2878140707918891,50.1168,14.4144,POINT (14.4144 50.1168),518,0.252060941242775,Kovárna,Troja,Praha 7,Trojská,3/187
2036,0.2710646778830483,50.1168,14.4194,POINT (14.4194 50.1168),518,0.3178870288329367,Kovárna,Troja,Praha 7,Sádky,797/2d
2037,0.8247212740350298,50.1168,14.4244,POINT (14.4244 50.1168),518,0.1162316919940957,Čechova škola,Troja,Praha 7,Povltavská,864
2038,1.3389604043143648,50.1168,14.4294,POINT (14.4294 50.1168),256,0.1606217364159894,Kazanka,Troja,Praha 7,Trojská,365/145
2039,1.0352298490101794,50.1168,14.4344,POINT (14.4344 50.1168),256,0.1030661371872449,Povltavská,Praha 8,Praha 8,Pod lisem,147/4
2040,0.9831768489146352,50.1168,14.4394,POINT (14.4394 50.1168),256,0.3247561175842628,Parkoviště Trojský most,Praha 8,Praha 8,Na Jabloňce,90/1
2041,0.9663335735010996,50.1168,14.4444,POINT (14.4444 50.1168),414,0.1139157573108056,Pelc Tyrolka,Praha 8,Praha 8,Na Kindlovce,762/6
2042,0.925734444902438,50.1168,14.4494,POINT (14.4494 50.1168),174,0.1027427662369068,Kuchyňka,Praha 8,Praha 8,Nad Rokoskou,2361/2a
2043,0.6317723261657304,50.1168,14.4544,POINT (14.4544 50.1168),174,0.351478417996857,Rokoska,Praha 8,Praha 8,Na Truhlářce,1458/7
2044,0.7465509237411817,50.1168,14.4594,POINT (14.4594 50.1168),174,0.1114015731187466,Nemocnice Bulovka - gynekologie,Praha 8,Praha 8,Stupňová,1177/4
2045,1.0827108471414553,50.1168,14.4644,POINT (14.4644 50.1168),610,0.133814447785014,Nemocnice Bulovka,Praha 8,Praha 8,Budínova,2437/1a
2046,0.7791000761163626,50.1168,14.4694,POINT (14.4694 50.1168),511,0.1618783303040086,Bulovka,Praha 8,Praha 8,Na vartě,1508/5
2047,0.4692348573844545,50.1168,14.4744,POINT (14.4744 50.1168),511,0.0616599405018728,Čertův vršek,Praha 8,Praha 8,Budilova,2438/5
2048,0.6533196980478,50.1168,14.4794,POINT (14.4794 50.1168),497,0.4701312646725401,Kundratka,Praha 8,Praha 8,Nad Bání,2496/2
2049,0.9721765245605384,50.1168,14.4844,POINT (14.4844 50.1168),401,0.198355915774789,Nový Střížkov,Praha 9,Praha 9,Nad Kundratkou,381/25
2050,0.968158794716332,50.1168,14.4894,POINT (14.4894 50.1168),401,0.1760039871555242,Kelerka,Praha 9,Praha 9,U prosecké školy,850/2h
2051,0.6041712060738238,50.1168,14.4944,POINT (14.4944 50.1168),411,0.2580396489722367,Nad Jetelkou,Praha 9,Praha 9,Na Proseku,45/9
2052,0.2962538443442974,50.1168,14.4994,POINT (14.4994 50.1168),411,0.2772495597904791,Prosecká,Praha 9,Praha 9,Cihlářská,731/12
2053,0.5683845945756274,50.1168,14.5044,POINT (14.5044 50.1168),307,0.1601298488028257,Krocínka,Praha 9,Praha 9,Satalická,362/6
2054,0.9930490747444138,50.1168,14.5094,POINT (14.5094 50.1168),307,0.1708835843106992,Klíčovská,Praha 9,Praha 9,U Voborníků,458/4
2055,1.4906828350744556,50.1168,14.5144,POINT (14.5144 50.1168),205,0.0066927937622405,Klíčov,Praha 9,Praha 9,Ke Klíčovu,839/11
2056,1.7700627698828928,50.1168,14.5194,POINT (14.5194 50.1168),205,0.2634499668682466,Čakovická,Praha 9,Praha 9,Kbelská,868/29
2065,1.6070957042293208,50.1168,14.5644,POINT (14.5644 50.1168),284,0.4087126651457485,Sicherova,Praha 14,Praha 14,Farkašova,1671/7
2075,0.6939189068972774,50.1168,14.6144,POINT (14.6144 50.1168),257,0.1896975688154534,Praha-Horní Počernice,Praha 20,Praha 20,Libuňská,2328/3
2076,0.2762800173521986,50.1168,14.6194,POINT (14.6194 50.1168),371,0.2160531966528324,Lukavecká,Praha 20,Praha 20,Komárovská,450/10
2077,0.2886381350552671,50.1168,14.6244,POINT (14.6244 50.1168),371,0.2246608849586081,Třebešovská,Praha 20,Praha 20,Mečovská,2449/17
2078,0.659801072110488,50.1168,14.6294,POINT (14.6294 50.1168),97,0.1683651574860979,Na Kovárně,Praha 20,Praha 20,Třebešovská,2253/103
2084,3.227959235665683,50.1218,14.2994,POINT (14.2994 50.1218),409,0.4860740144923494,K Juliáně,Přední Kopanina,Praha 6,Nové domy,119
2090,1.5219814943070744,50.1218,14.3694,POINT (14.3694 50.1218),602,0.5551290118490102,Žákovská,Lysolaje,Praha 6,Sportovců,50/4
2094,1.0867945738336358,50.1218,14.3894,POINT (14.3894 50.1218),481,0.151250249187003,Břetislavka,Praha 6,Praha 6,V Podbabě,2602/29b
2095,1.1330022747832895,50.1218,14.3944,POINT (14.3944 50.1218),481,0.0271826648758409,V Podbabě,Praha 6,Praha 6,V Podbabě,2514/2
2096,0.9175153061238526,50.1218,14.3994,POINT (14.3994 50.1218),337,0.0964825408786238,Podhoří,Troja,Praha 7,Pod Hrachovkou,814/17
2098,0.580177826818078,50.1218,14.4094,POINT (14.4094 50.1218),337,0.3209469764692478,Botanická zahrada Troja,Troja,Praha 7,K Bohnicím,854/2b
2099,0.5953136227867436,50.1218,14.4144,POINT (14.4144 50.1218),518,0.5266043568988583,Botanická zahrada Troja,Troja,Praha 7,Trojská,750/194
2104,1.0996989830216473,50.1218,14.4394,POINT (14.4394 50.1218),148,0.1606925009932033,Nad Trojou,Praha 8,Praha 8,Nad Trojou,118/10
2105,0.9070279496559548,50.1218,14.4444,POINT (14.4444 50.1218),247,0.4482418464978745,Písečná,Praha 8,Praha 8,Trojská,869/72f
2106,0.6118688446939905,50.1218,14.4494,POINT (14.4494 50.1218),247,0.2865674488450666,Služská,Praha 8,Praha 8,Nad Hercovkou,259/4
2107,0.1486117660831315,50.1218,14.4544,POINT (14.4544 50.1218),174,0.2122271419527641,Ke Stírce,Praha 8,Praha 8,Trojská,44/4
2108,0.3862142244019113,50.1218,14.4594,POINT (14.4594 50.1218),352,0.2570114096317136,Okrouhlická,Praha 8,Praha 8,Ke Stírce,600/22
2109,0.6557553348826333,50.1218,14.4644,POINT (14.4644 50.1218),610,0.3775089420392841,Vychovatelna,Praha 8,Praha 8,Nad Okrouhlíkem,2290/3
2111,0.8528481911554945,50.1218,14.4744,POINT (14.4744 50.1218),122,0.3295110868757187,Na Slovance,Praha 8,Praha 8,Zvonařovská,84/13
2112,1.127961674302469,50.1218,14.4794,POINT (14.4794 50.1218),511,0.5896871648583786,Madlina,Praha 8,Praha 8,Střížkovská,50/82
2113,0.8535772932217645,50.1218,14.4844,POINT (14.4844 50.1218),513,0.1651486100415632,Madlina,Praha 9,Praha 9,K lipám,62/23
2114,0.4784706389883172,50.1218,14.4894,POINT (14.4894 50.1218),513,0.4552401374468655,Starý Prosek,Praha 9,Praha 9,Bílinská,517/2
2115,0.5876428415661071,50.1218,14.4944,POINT (14.4944 50.1218),513,0.107171176000161,Sídliště Prosek,Praha 9,Praha 9,Vysočanská,562/61
2116,0.2500756179656305,50.1218,14.4994,POINT (14.4994 50.1218),307,0.3082385323866266,Prosek,Praha 9,Praha 9,Jablonecká,703/20
2117,0.3310184771291182,50.1218,14.5044,POINT (14.5044 50.1218),307,0.0863005469488516,Nový Prosek,Praha 9,Praha 9,Zárybská,674/4
2118,0.8790100395904,50.1218,14.5094,POINT (14.5094 50.1218),307,0.2648893957699312,Letňanská,Praha 9,Praha 9,Za Klíčovem,978/1
2121,2.2133692815162096,50.1218,14.5244,POINT (14.5244 50.1218),607,0.3354748109795805,U Vodojemu,Praha 9,Praha 9,Mladoboleslavská,301/10
2122,2.066588477543844,50.1218,14.5294,POINT (14.5294 50.1218),614,0.2444337615835699,U Vodojemu,Praha 19,Praha 19,Mladoboleslavská,58
2129,1.553764462255981,50.1218,14.5644,POINT (14.5644 50.1218),611,0.3131235018031281,Sportareál Satalice,Satalice,Praha 19,Budovatelská,426
2131,0.5328320222635128,50.1218,14.5744,POINT (14.5744 50.1218),611,0.4040713320417758,Za Novákovou zahradou,Satalice,Praha 19,Za Novákovou zahradou,26/4
2132,0.3779523036568999,50.1218,14.5794,POINT (14.5794 50.1218),611,0.2907565019153736,Sovákova,Satalice,Praha 19,K cihelně,129/1
2133,0.7860253963643437,50.1218,14.5844,POINT (14.5844 50.1218),611,0.3427618669076117,Sovákova,Satalice,Praha 19,K cihelně,158
2136,1.204230185211664,50.1218,14.5994,POINT (14.5994 50.1218),272,0.1786780350015137,Vlastibořská,Praha 20,Praha 20,Vlastibořská,2790/4
2137,1.2413177093455476,50.1218,14.6044,POINT (14.6044 50.1218),272,0.4874367407653968,U Tabulky,Praha 20,Praha 20,Do Čertous,2830/2
2138,1.4758301922848356,50.1218,14.6094,POINT (14.6094 50.1218),257,0.146059757755978,Do Čertous,Praha 20,Praha 20,Do Čertous,2772/8
2140,0.665457605417743,50.1218,14.6194,POINT (14.6194 50.1218),371,0.2407282591230512,Františka Veselého,Praha 20,Praha 20,F.V.Veselého,2635/15
2141,0.6706825997656178,50.1218,14.6244,POINT (14.6244 50.1218),371,0.1718409007559769,K Zelenči,Praha 20,Praha 20,Mezi úvozy,2512/2a
2142,1.035783024889144,50.1218,14.6294,POINT (14.6294 50.1218),371,0.4443424695604695,Na Kovárně,Praha 20,Praha 20,Cirkusová,1740
2143,1.4443546503710445,50.1218,14.6344,POINT (14.6344 50.1218),97,0.1012944097424873,Čertousy,Praha 20,Praha 20,Na staré silnici,2521/14
2148,3.9392042405187895,50.1268,14.3044,POINT (14.3044 50.1268),409,1.00063289019532,"Tuchoměřice,Štěrbův Mlýn",Přední Kopanina,Praha 6,Preláta,ev. č. 48
2152,2.306757700298103,50.1268,14.3644,POINT (14.3644 50.1268),602,0.3343934681542965,Lysolaje,Lysolaje,Praha 6,Podholí,283/3
2153,1.947793658885469,50.1268,14.3694,POINT (14.3694 50.1268),602,0.2208727134442241,Lysolaje,Lysolaje,Praha 6,Lysolajské údolí,62/62
2154,1.6978572340761455,50.1268,14.3744,POINT (14.3744 50.1268),602,0.2601671420394175,Žákovská,Lysolaje,Praha 6,Hluboká,184/3
2155,1.6085982211275494,50.1268,14.3794,POINT (14.3794 50.1268),602,0.1169494867453538,Sídlištní,Lysolaje,Praha 6,Sídlištní,245/18a
2156,1.7054346327915069,50.1268,14.3844,POINT (14.3844 50.1268),602,0.4051920617988087,Pod Hájem,Lysolaje,Praha 6,Rozvojová,263
2157,1.6364184075947183,50.1268,14.3894,POINT (14.3894 50.1268),481,0.4091478557683243,Břetislavka,Lysolaje,Praha 6,Nad Podbabskou skálou,284/5
2158,1.6674642166069742,50.1268,14.3944,POINT (14.3944 50.1268),481,0.1615153253397556,V Sedlci,Suchdol,Praha 6,Kamýcká,76/9
2159,1.296728506400754,50.1268,14.3994,POINT (14.3994 50.1268),337,0.0778104014525832,Roztocká,Praha 6,Praha 6,Kamýcká,23
2160,1.0587095003787388,50.1268,14.4044,POINT (14.4044 50.1268),337,0.6296684100177516,Roztocká,Praha 7,Praha 7,V Podhoří,262
2161,0.8888192523165641,50.1268,14.4094,POINT (14.4094 50.1268),366,0.4728538799779671,Poliklinika Mazurská,Praha 8,Praha 8,Krynická,493/5
2162,0.3401584975397476,50.1268,14.4144,POINT (14.4144 50.1268),366,0.1018620970243691,Poliklinika Mazurská,Praha 8,Praha 8,Pomořanská,485/9
2163,0.2397205531624789,50.1268,14.4194,POINT (14.4194 50.1268),366,0.2503091094277407,Na Pazderce,Praha 8,Praha 8,Hnězdenská,767/2c
2164,0.5227033895603945,50.1268,14.4244,POINT (14.4244 50.1268),16,0.2651028153645294,Dunajecká,Praha 8,Praha 8,Hnězdenská,588/20
2165,0.7735138781092474,50.1268,14.4294,POINT (14.4294 50.1268),465,0.3564300067532825,Dunajecká,Praha 8,Praha 8,Tařicová,ev. č. 38
2166,0.7132910034393516,50.1268,14.4344,POINT (14.4344 50.1268),465,0.1463840548536108,Čimický háj,Praha 8,Praha 8,Vřesová,681/17
2167,0.6983114286255553,50.1268,14.4394,POINT (14.4394 50.1268),148,0.4248584735124124,Čimický háj,Praha 8,Praha 8,Libišská,1639/6
2168,0.3743709805380689,50.1268,14.4444,POINT (14.4444 50.1268),148,0.1532917249948093,Písečná,Praha 8,Praha 8,Mirovická,1817/9
2169,0.1337212974720177,50.1268,14.4494,POINT (14.4494 50.1268),247,0.278676695720211,Služská,Praha 8,Praha 8,Přemyšlenská,1102/15
2170,0.2607624227992951,50.1268,14.4544,POINT (14.4544 50.1268),396,0.2558136702301082,Sídliště Kobylisy,Praha 8,Praha 8,Chaberská,293/19
2171,0.1663047797476045,50.1268,14.4594,POINT (14.4594 50.1268),610,0.1225776382364629,Poliklinika Čumpelíkova,Praha 8,Praha 8,Březiněveská,1015/24
2172,0.4978007917406137,50.1268,14.4644,POINT (14.4644 50.1268),122,0.1251840835139391,Kyselova,Praha 8,Praha 8,Kyselova,1185/2
2173,0.069475776768299,50.1268,14.4694,POINT (14.4694 50.1268),122,0.0578936842237518,Ládví,Praha 8,Praha 8,Burešova,1660/1
2174,0.5246347283358129,50.1268,14.4744,POINT (14.4744 50.1268),45,0.3455780947918373,Štěpničná,Praha 8,Praha 8,Na malém klínu,1745/10
2175,1.0440819286272824,50.1268,14.4794,POINT (14.4794 50.1268),45,0.2642345049381909,Štěpničná,Praha 8,Praha 8,Bedřichovská,1959/6
2176,0.7357277226688325,50.1268,14.4844,POINT (14.4844 50.1268),513,0.2594666253684328,Teplická,Praha 9,Praha 9,Děčínská,475/12
2177,0.2040471484083057,50.1268,14.4894,POINT (14.4894 50.1268),513,0.0532050002449489,Střížkov,Praha 9,Praha 9,Vysočanská,613
2178,0.3975238302838728,50.1268,14.4944,POINT (14.4944 50.1268),513,0.3076271809051683,Poliklinika Prosek,Praha 9,Praha 9,Harrachovská,327/8
2179,0.6819824041362816,50.1268,14.4994,POINT (14.4994 50.1268),307,0.1123811106036389,Novoborská,Praha 9,Praha 9,Novoborská,373/6
2180,0.7156363720853567,50.1268,14.5044,POINT (14.5044 50.1268),307,0.3122992180372174,Českolipská,Praha 9,Praha 9,Kytlická,759/23
2181,1.08279433411388,50.1268,14.5094,POINT (14.5094 50.1268),607,0.3226386485000645,Výstaviště Letňany,Praha 18,Praha 18,Buchlovská,222
2185,1.933501628234194,50.1268,14.5294,POINT (14.5294 50.1268),624,0.3997327353422042,Důstojnické domy,Praha 19,Praha 19,Košařova,653/27
2187,0.8592818741974686,50.1268,14.5394,POINT (14.5394 50.1268),624,0.3995792833173299,Letecké muzeum,Praha 19,Praha 19,Mladoboleslavská,1085
2190,0.5386983840423035,50.1268,14.5544,POINT (14.5544 50.1268),35,0.453262136109447,Nymburská,Praha 19,Praha 19,Hornopočernická,187/25
2191,0.9399263727227604,50.1268,14.5594,POINT (14.5594 50.1268),35,0.1019451471646394,Nymburská,Praha 19,Praha 19,Xaverovská,824/1
2192,1.4466434333689129,50.1268,14.5644,POINT (14.5644 50.1268),35,0.0691398105881821,Dřevařská,Satalice,Praha 19,K lindě,750/1c
2193,0.9819242169332384,50.1268,14.5694,POINT (14.5694 50.1268),611,0.2617132874467659,Satalice,Satalice,Praha 19,Bošínská,243/7
2194,0.4550419186074538,50.1268,14.5744,POINT (14.5744 50.1268),611,0.0675693069021795,Satalická obora,Satalice,Praha 19,K Radonicům,108/11
2195,0.2569068461136948,50.1268,14.5794,POINT (14.5794 50.1268),611,0.3963594585456298,Za Novákovou zahradou,Satalice,Praha 19,Dany Medřické,608/13
2206,1.8150705155142324,50.1268,14.6344,POINT (14.6344 50.1268),371,0.5958308975251746,Čertousy,Praha 20,Praha 20,Bártlova,2835
2208,2.7229861469465937,50.1318,14.3644,POINT (14.3644 50.1318),602,0.2740590966586936,Horní Lysolaje,Lysolaje,Praha 6,Štěpnice,377/27
2209,2.4264011634873794,50.1318,14.3694,POINT (14.3694 50.1318),602,0.0927417614456565,K Horoměřicům,Suchdol,Praha 6,K Horoměřicům,1116/35
2210,2.2307491243712647,50.1318,14.3744,POINT (14.3744 50.1318),602,0.371426409539331,Zemědělská univerzita,Suchdol,Praha 6,Olšová,681/1
2211,2.1635874619698603,50.1318,14.3794,POINT (14.3794 50.1318),602,0.2727969587499841,Zemědělská univerzita,Suchdol,Praha 6,Kamýcká,255/22
2212,2.236521798530738,50.1318,14.3844,POINT (14.3844 50.1318),602,0.2847503189610875,Kamýcká,Suchdol,Praha 6,Na Rybářce,75/1
2214,2.076996464795153,50.1318,14.3944,POINT (14.3944 50.1318),337,0.0292684458176782,Praha-Sedlec,Praha 6,Praha 6,Roztocká,48/27
2216,1.5154697718852563,50.1318,14.4044,POINT (14.4044 50.1318),366,0.6896325573810219,Sídliště Bohnice,Praha 8,Praha 8,Dolákova,719/2
2217,1.0031484285280263,50.1318,14.4094,POINT (14.4094 50.1318),366,0.1359557435344097,Sídliště Bohnice,Praha 8,Praha 8,Feřtekova,539/23
2218,0.5762073496738578,50.1318,14.4144,POINT (14.4144 50.1318),366,0.2540222609778934,Staré Bohnice,Praha 8,Praha 8,U Pazderek,173/21
2219,0.2883025926131841,50.1318,14.4194,POINT (14.4194 50.1318),416,0.2325049364102464,Zhořelecká,Praha 8,Praha 8,U velké skály,844/18
2220,0.04611691900016,50.1318,14.4244,POINT (14.4244 50.1318),16,0.1078202052485692,Odra,Praha 8,Praha 8,Katovická,410/6
2221,0.3812324906248306,50.1318,14.4294,POINT (14.4294 50.1318),465,0.1510683102038156,Katovická,Praha 8,Praha 8,Čimická,831/43
2222,0.2362171625177156,50.1318,14.4344,POINT (14.4344 50.1318),465,0.4557328555896212,Podhajská pole,Praha 8,Praha 8,Pod Čimickým hájem,224/10
2225,0.5267155662099466,50.1318,14.4494,POINT (14.4494 50.1318),247,0.3518000008842443,Mirovická,Praha 8,Praha 8,Maškova,1646/3
2226,0.6419864461919291,50.1318,14.4544,POINT (14.4544 50.1318),396,0.1337031013464798,Vozovna Kobylisy,Praha 8,Praha 8,U pískovny,895/3
2227,0.6580185643764626,50.1318,14.4594,POINT (14.4594 50.1318),396,0.1753724982062988,Kobyliská střelnice,Praha 8,Praha 8,Větrušická,842/23
2228,0.5252235149549722,50.1318,14.4644,POINT (14.4644 50.1318),306,0.2144273973231776,Bojasova,Praha 8,Praha 8,Bojasova,1252/21
2229,0.175171685006949,50.1318,14.4694,POINT (14.4694 50.1318),44,0.173362316280253,Šimůnkova,Praha 8,Praha 8,Burešova,1130/14
2231,1.0072340438589236,50.1318,14.4794,POINT (14.4794 50.1318),44,0.0692141966379887,Sídliště Ďáblice,Praha 8,Praha 8,Ďáblická,553/2
2232,0.9849093198374774,50.1318,14.4844,POINT (14.4844 50.1318),513,0.4397251798505114,Třebenická,Praha 8,Praha 8,Česákova,424/6
2234,0.7542333420020668,50.1318,14.4944,POINT (14.4944 50.1318),64,0.399302625954015,Zásadská,Praha 9,Praha 9,Desenská,621/39
2237,0.5405737643192318,50.1318,14.5094,POINT (14.5094 50.1318),607,0.1865250830147021,Příborská,Praha 18,Praha 18,Příborská,514
2238,0.6477644672412367,50.1318,14.5144,POINT (14.5144 50.1318),607,0.145786452601219,Boletická,Praha 18,Praha 18,Beranových,64
2243,0.8295646272377472,50.1318,14.5394,POINT (14.5394 50.1318),624,0.1366640659451264,Valcha,Praha 19,Praha 19,Mladoboleslavská,1117
2244,0.3349938316359385,50.1318,14.5444,POINT (14.5444 50.1318),624,0.287108710296138,Huntířovská,Praha 19,Praha 19,Mladoboleslavská,1112
2245,0.3089809012065277,50.1318,14.5494,POINT (14.5494 50.1318),35,0.1843916033493166,U Rumpálu,Praha 19,Praha 19,Vágnerova,1036/4
2246,0.2696012508878614,50.1318,14.5544,POINT (14.5544 50.1318),35,0.3605272430254165,Kbely,Praha 19,Praha 19,Mladoboleslavská,87/51
2247,0.8160578849875026,50.1318,14.5594,POINT (14.5594 50.1318),35,0.1440908101817376,Mladějovská,Praha 19,Praha 19,Mladějovská,947/35
2258,2.932063279459456,50.1368,14.3694,POINT (14.3694 50.1368),602,0.0901504361439313,Výhledy,Suchdol,Praha 6,Kosova,703/27
2259,2.772330089376948,50.1368,14.3744,POINT (14.3744 50.1368),602,0.2321401967837437,Výhledské náměstí,Suchdol,Praha 6,Na mírách,421/22
2260,2.718581095751019,50.1368,14.3794,POINT (14.3794 50.1368),602,0.1463669292473452,Suchdolské náměstí,Suchdol,Praha 6,K mírám,1208/3
2261,2.7769771738141453,50.1368,14.3844,POINT (14.3844 50.1368),602,0.2921328377435456,Budovec,Suchdol,Praha 6,Na vrchmezí,222/16
2262,2.7421708048029414,50.1368,14.3894,POINT (14.3894 50.1368),481,0.364249557687807,Sedlec,Suchdol,Praha 6,Na Rybářce,ev. č. 83
2263,2.5269912538654995,50.1368,14.3944,POINT (14.3944 50.1368),337,0.0717056640782177,Zámky,Praha 8,Praha 8,V Zámcích,321/24
2266,1.0984857157683348,50.1368,14.4094,POINT (14.4094 50.1368),416,0.3163999579343814,Bohnické údolí,Praha 8,Praha 8,Bohnická,61/5
2267,0.576940421288915,50.1368,14.4144,POINT (14.4144 50.1368),416,0.2357919910855913,U Drahaně,Praha 8,Praha 8,Ústavní,176
2268,0.2740431201237601,50.1368,14.4194,POINT (14.4194 50.1368),416,0.1745154425856829,Nemocnice Bohnice,Praha 8,Praha 8,Ústavní,101
2269,0.5891389538793174,50.1368,14.4244,POINT (14.4244 50.1368),16,0.1036282885840022,Nemocnice Bohnice - Centrální terapie,Praha 8,Praha 8,Ústavní,25
2270,0.5553401697950224,50.1368,14.4294,POINT (14.4294 50.1368),465,0.0817301743672982,Libeňská,Praha 8,Praha 8,Čimická,130/114
2271,0.4678280027401884,50.1368,14.4344,POINT (14.4344 50.1368),465,0.2337832517994657,Přívorská,Praha 8,Praha 8,Libeňská,131/25
2272,0.6327118621162092,50.1368,14.4394,POINT (14.4394 50.1368),618,0.3448312976251905,Přívorská,Praha 8,Praha 8,K Ládví,865/51
2273,0.077930244144396,50.1368,14.4444,POINT (14.4444 50.1368),618,0.3798492334202917,Za Čimickým hájem,Praha 8,Praha 8,Dopraváků,874/15
2274,0.4773593462397506,50.1368,14.4494,POINT (14.4494 50.1368),618,0.2552645257965094,Za Čimickým hájem,Dolní Chabry,Praha 8,Dopraváků,844
2275,1.025235264262694,50.1368,14.4544,POINT (14.4544 50.1368),620,0.3981980349290006,Počeradská,Dolní Chabry,Praha 8,U Větrolamu,607/11
2279,0.610689912785873,50.1368,14.4744,POINT (14.4744 50.1368),44,0.1434552993574564,Domov seniorů Ďáblice,Praha 8,Praha 8,Javorová,1857/39
2280,1.082998069951468,50.1368,14.4794,POINT (14.4794 50.1368),44,0.115998601336674,Ďáblický hřbitov,Praha 8,Praha 8,Ďáblická,1441/33
2281,1.4194532238516282,50.1368,14.4844,POINT (14.4844 50.1368),513,0.6369997146877534,Ďáblický hřbitov,Praha 8,Praha 8,K Zahradnictví,59
2286,0.1674706522061396,50.1368,14.5094,POINT (14.5094 50.1368),607,0.1345526272924113,Šumperská,Praha 18,Praha 18,Šumperská,357
2287,0.3942400660770143,50.1368,14.5144,POINT (14.5144 50.1368),607,0.190391441729319,Rychnovská,Praha 18,Praha 18,Bechyňská,63
2288,0.9480791317449648,50.1368,14.5194,POINT (14.5194 50.1368),607,0.3000789483460682,Staré Letňany,Praha 18,Praha 18,Klenečská,540
2289,1.5027750498329788,50.1368,14.5244,POINT (14.5244 50.1368),607,0.1963088610040393,Toužimská,Praha 18,Praha 18,Toužimská,720
2293,0.8234579519769282,50.1368,14.5444,POINT (14.5444 50.1368),624,0.2003711555373407,Sportovní centrum Kbely,Praha 19,Praha 19,Svijanská,733/46
2294,0.702857085630352,50.1368,14.5494,POINT (14.5494 50.1368),35,0.0880056533158509,Jilemnická,Praha 19,Praha 19,Bakovská,876/20
2295,0.6864573693906225,50.1368,14.5544,POINT (14.5544 50.1368),35,0.2685790667779793,Praha-Kbely,Praha 19,Praha 19,Novákovo náměstí,703/6
2306,3.3183484737210858,50.1418,14.3744,POINT (14.3744 50.1418),602,0.6081716594157237,Suchdol,Suchdol,Praha 6,Bažantní,414/6
2307,3.273576888169434,50.1418,14.3794,POINT (14.3794 50.1418),602,0.2964906108403243,Suchdol,Suchdol,Praha 6,Nad dolíky,453/7
2308,3.322231884210833,50.1418,14.3844,POINT (14.3844 50.1418),602,0.1005006161617744,K Drsnici,Suchdol,Praha 6,Novosuchdolská,253/30
2310,2.326042422353295,50.1418,14.3994,POINT (14.3994 50.1418),416,0.7384988755993791,Zámky,Praha 8,Praha 8,V Zámcích,47/36
2315,1.020500005113966,50.1418,14.4244,POINT (14.4244 50.1418),416,0.504953468346952,Nemocnice Bohnice - Centrální terapie,Praha 8,Praha 8,Na zámkách,263/21
2316,1.0428409257737,50.1418,14.4294,POINT (14.4294 50.1418),465,0.1777185531781277,Čimice,Praha 8,Praha 8,Strážnická,401/4
2317,0.9989882543996484,50.1418,14.4344,POINT (14.4344 50.1418),465,0.3680661117952691,Sídliště Čimice,Praha 8,Praha 8,Křivenická,432/7
2318,0.8375200337145919,50.1418,14.4394,POINT (14.4394 50.1418),618,0.4538434910976873,Dvořákova,Dolní Chabry,Praha 8,Josefa Vašíčka,1184/12
2320,0.5095255493037143,50.1418,14.4494,POINT (14.4494 50.1418),238,0.2813749318786335,Prunéřovská,Dolní Chabry,Praha 8,Za Pískovnou,1246/28
2321,0.4953302120583521,50.1418,14.4544,POINT (14.4544 50.1418),620,0.4079037999593361,Počeradská,Dolní Chabry,Praha 8,U Větrolamu,733/51
2325,1.071147314793466,50.1418,14.4744,POINT (14.4744 50.1418),44,0.3442002871338296,Liběchovská,Ďáblice,Praha 8,U hájovny,571/11
2327,1.802457341367076,50.1418,14.4844,POINT (14.4844 50.1418),3,0.2309370941688753,K Letňanům,Ďáblice,Praha 8,Červencová,1034/12
2332,0.378658857146083,50.1418,14.5094,POINT (14.5094 50.1418),515,0.2870215849709739,Ivančická,Praha 18,Praha 18,Malkovského,586
2333,0.7122511175007901,50.1418,14.5144,POINT (14.5144 50.1418),607,0.1486656880596571,Avia Letňany,Praha 18,Praha 18,Letovská,558
2334,1.1183606147978398,50.1418,14.5194,POINT (14.5194 50.1418),607,0.4066117457798809,Avia Letňany,Praha 18,Praha 18,Škrábkových,882/14
2335,1.0962471650508852,50.1418,14.5244,POINT (14.5244 50.1418),136,0.6411704663421974,Toužimská,Praha 18,Praha 18,Kadečkové,774/10
2339,1.3638163843107975,50.1418,14.5444,POINT (14.5444 50.1418),624,0.3167861622297481,Zamašská,Praha 19,Praha 19,Semilská,477/55
2345,0.572316583131373,50.1418,14.5744,POINT (14.5744 50.1418),49,0.2609871705614958,Vinořská,Vinoř,Praha 19,Českodubská,789
2346,0.2187043727436257,50.1418,14.5794,POINT (14.5794 50.1418),49,0.1485972986168487,Vinořský zámek,Vinoř,Praha 19,Vinořské náměstí,129/6
2347,0.6198120150393824,50.1418,14.5844,POINT (14.5844 50.1418),49,0.6115389801513221,Vinořský hřbitov,Vinoř,Praha 19,Živanická,673
2352,3.870258022541121,50.1468,14.3844,POINT (14.3844 50.1468),602,0.4579307522421239,K Drsnici,Suchdol,Praha 6,Spálený mlýn,302/3
2359,1.0549591498060749,50.1468,14.4344,POINT (14.4344 50.1468),276,0.3610709880510027,Dvořákova,Dolní Chabry,Praha 8,Spořická,59
2360,0.5400913749262142,50.1468,14.4394,POINT (14.4394 50.1468),276,0.2876871815221104,Dvořákova,Dolní Chabry,Praha 8,Libochovická,968/14
2361,0.2941234073983433,50.1468,14.4444,POINT (14.4444 50.1468),276,0.2438461402524532,V Kratinách,Dolní Chabry,Praha 8,Hrušovanské náměstí,244/3
2362,0.2099056702283517,50.1468,14.4494,POINT (14.4494 50.1468),238,0.108532503324953,Osecká,Dolní Chabry,Praha 8,Dvorní,489/16
2367,1.59305397598396,50.1468,14.4744,POINT (14.4744 50.1468),44,0.1588133833433682,U Spojů,Ďáblice,Praha 8,Heřmanická,1156/7
2368,1.8269547395429615,50.1468,14.4794,POINT (14.4794 50.1468),44,0.0919967015623293,Na Štamberku,Ďáblice,Praha 8,Na kopci,163/8
2369,1.5865771108517666,50.1468,14.4844,POINT (14.4844 50.1468),3,0.1458711816018932,Kokořínská,Ďáblice,Praha 8,Na terase,1075/9
2370,1.0563403776193665,50.1468,14.4894,POINT (14.4894 50.1468),3,0.3668968256398691,Ďáblice,Ďáblice,Praha 8,Chřibská,196/22
2371,0.5749200449618171,50.1468,14.4944,POINT (14.4944 50.1468),3,0.3709758830438598,Na Pramenech,Ďáblice,Praha 8,Cínovecká,796
2372,0.4015733093831227,50.1468,14.4994,POINT (14.4994 50.1468),3,0.3230424210535272,Na Pramenech,Čakovice,Praha 18,Kostelecká,958/28
2373,0.4076985998079184,50.1468,14.5044,POINT (14.5044 50.1468),515,0.1597633149067494,Trutnovská,Čakovice,Praha 18,Schollova,1110/13
2374,0.4167028969966437,50.1468,14.5094,POINT (14.5094 50.1468),515,0.3671255113801974,Obchodní centrum Čakovice,Praha 18,Praha 18,Novosvětská,142
2377,0.5545351902835475,50.1468,14.5244,POINT (14.5244 50.1468),136,0.1107137236976746,Koupaliště Čakovice,Čakovice,Praha 18,Ke stadionu,837
2378,0.8962227077367739,50.1468,14.5294,POINT (14.5294 50.1468),136,0.0962959930777867,Oderská,Čakovice,Praha 18,Svratecká,652/2
2379,1.3838247744793948,50.1468,14.5344,POINT (14.5344 50.1468),136,0.4599555372889567,Oderská,Čakovice,Praha 18,Rýnská,950/11
2386,1.135883127851549,50.1468,14.5694,POINT (14.5694 50.1468),49,0.2297341833532538,Rousínovská,Vinoř,Praha 19,Bohdanečská,512
2387,0.628065133141181,50.1468,14.5744,POINT (14.5744 50.1468),49,0.3403478705693628,Rousínovská,Vinoř,Praha 19,Kasalická,347
2388,0.3387493805125883,50.1468,14.5794,POINT (14.5794 50.1468),49,0.179084671762449,Moravanská,Vinoř,Praha 19,Mikulovická,4
2389,0.6716297150421943,50.1468,14.5844,POINT (14.5844 50.1468),49,0.3706847453000831,Lohenická,Vinoř,Praha 19,U bakaláře,582
2392,1.0540898647457693,50.1518,14.4344,POINT (14.4344 50.1518),276,0.3753970128439598,Dolní Chabry,Dolní Chabry,Praha 8,K Brnkám,ev. č. 56
2394,0.2909900582147265,50.1518,14.4444,POINT (14.4444 50.1518),276,0.2546355483824187,Do Rybníčků,Dolní Chabry,Praha 8,Sumova,1143/1
2395,0.6667491997705447,50.1518,14.4494,POINT (14.4494 50.1518),238,0.2468340012256591,Měděnecká,Dolní Chabry,Praha 8,Na šubě,112/6
2403,1.0001397175489284,50.1518,14.4894,POINT (14.4894 50.1518),3,0.4601551267395686,Ďáblice,Ďáblice,Praha 8,Chřibská,481/63
2404,0.4636351144259051,50.1518,14.4944,POINT (14.4944 50.1518),3,0.4639454771844414,Na Pramenech,Ďáblice,Praha 8,Řepná,244/8
2405,0.2137418630936332,50.1518,14.4994,POINT (14.4994 50.1518),3,0.4265896222364673,Na Pramenech,Ďáblice,Praha 8,Na blatech,334/15
2406,0.7017575427088588,50.1518,14.5044,POINT (14.5044 50.1518),3,0.4501202573826723,Obchodní centrum Čakovice,Čakovice,Praha 18,Kostelecká,823/77
2407,0.9055109489320649,50.1518,14.5094,POINT (14.5094 50.1518),515,0.2825629170755898,Obchodní centrum Čakovice,Čakovice,Praha 18,Kostelecká,999/83
2408,0.9413017467540348,50.1518,14.5144,POINT (14.5144 50.1518),136,0.1536621218454692,Za Avií,Čakovice,Praha 18,Za Cukrovarem,875
2409,0.3868524822751009,50.1518,14.5194,POINT (14.5194 50.1518),136,0.0490540887288146,Cukrovar Čakovice,Čakovice,Praha 18,Cukrovarská,982
2410,0.1712037021867204,50.1518,14.5244,POINT (14.5244 50.1518),136,0.2887268331760841,Náměstí Jiřího Berana,Čakovice,Praha 18,Cukrovarská,34/41
2411,0.7245802731531297,50.1518,14.5294,POINT (14.5294 50.1518),136,0.1167633697474835,Čakovice,Čakovice,Praha 18,Ouhrabkova,114/3
2412,1.2793640751727309,50.1518,14.5344,POINT (14.5344 50.1518),136,0.4472837304382947,Čakovice,Čakovice,Praha 18,Na barikádách,259/9
2418,1.064920661020541,50.1518,14.5844,POINT (14.5844 50.1518),49,0.4127390633299132,Lohenická,Vinoř,Praha 19,Pravská,858/2
2419,1.4444519187560962,50.1518,14.5894,POINT (14.5894 50.1518),49,0.182171191613956,Vinoř,Vinoř,Praha 19,Rosická,954
2433,1.225052617583488,50.1568,14.4894,POINT (14.4894 50.1568),3,0.5005248316351804,Skládka Ďáblice,Ďáblice,Praha 8,Ďáblická,ev. č. 76
2438,0.9498175623587388,50.1568,14.5144,POINT (14.5144 50.1568),80,0.661820686893459,Sídliště Čakovice,Čakovice,Praha 18,Tryskovická,1015/21
2439,0.3951254498955991,50.1568,14.5194,POINT (14.5194 50.1568),80,0.1381760529183519,Sídliště Čakovice,Čakovice,Praha 18,Bermanova,975/21
2441,0.715692364033063,50.1568,14.5294,POINT (14.5294 50.1568),80,0.2261207882094995,U Bílého Mlýnku,Čakovice,Praha 18,U Bílého Mlýnku,649/9
2443,1.8255155432686183,50.1568,14.5394,POINT (14.5394 50.1568),80,0.2662989025980498,Radonická,Čakovice,Praha 18,Machnova,305/8
2444,2.3804889661800277,50.1568,14.5444,POINT (14.5444 50.1568),80,0.2569952652570516,Tuháňská,Čakovice,Praha 18,Bendlova,151/44
2451,2.456841925655449,50.1618,14.4794,POINT (14.4794 50.1618),3,0.4645759052132332,Na Fabiánce,Březiněves,Praha 8,V lánech,141/2
2452,2.004657155816944,50.1618,14.4844,POINT (14.4844 50.1618),3,0.1234203010238804,Na Fabiánce,Březiněves,Praha 8,Vlaštovčí,470/2
2453,1.6178004750519654,50.1618,14.4894,POINT (14.4894 50.1618),3,0.6562654719737212,Na Fabiánce,Ďáblice,Praha 8,Ďáblická,440/90
2459,0.6977060726733221,50.1618,14.5194,POINT (14.5194 50.1618),80,0.4702733477457448,Sídliště Čakovice,Čakovice,Praha 18,Babiččina,340/14
2460,0.5973395041642167,50.1618,14.5244,POINT (14.5244 50.1618),80,0.107420529148503,Třeboradice,Čakovice,Praha 18,Slaviborské náměstí,181/4
2463,2.4489584236558377,50.1618,14.5444,POINT (14.5444 50.1618),80,0.4287171134489514,Tuháňská,Čakovice,Praha 18,Polabská,94/65
2469,2.7872292171418573,50.1668,14.4794,POINT (14.4794 50.1668),3,0.5379915077548322,Březiněves,Březiněves,Praha 8,K Březince,267/38
2470,2.398171131007735,50.1668,14.4844,POINT (14.4844 50.1668),3,0.2476614411174335,Březiněves,Březiněves,Praha 8,Na hlavní,32/26
2477,1.197294202164152,50.1668,14.5194,POINT (14.5194 50.1668),80,0.0471584607120229,Za Tratí,Čakovice,Praha 18,Za tratí,415
2478,1.1417241899538673,50.1668,14.5244,POINT (14.5244 50.1668),80,0.4202910310142246,K Teplárně,Čakovice,Praha 18,Prebslova,344/5
2480,2.8460234072871944,50.1718,14.4844,POINT (14.4844 50.1718),3,0.209880197474915,Na Boleslavce,Březiněves,Praha 8,Na hlavní,94/74
2481,2.5881416691396355,50.1718,14.4894,POINT (14.4894 50.1718),3,0.645359500814893,Na Boleslavce,Březiněves,Praha 8,Na Boleslavce,278